branch,address,city,state,country,coordinates
1976,220 Blowing Rock Blvd,Lenoir,NORTH CAROLINA,UNITED STATES,"[-81.524179, 35.91727]"
1973,7300 Innerplan Dr,North Little Rock,ARKANSAS,UNITED STATES,"[-92.377414, 34.824743]"
1950,1520 S Main St,Darlington,SOUTH CAROLINA,UNITED STATES,"[-79.856143, 34.280854]"
201,4324 W Beach Blvd,Gulfport,MISSISSIPPI,UNITED STATES,"[-89.113637, 30.358319]"
206,2221 S Cooper St,Arlington,TEXAS,UNITED STATES,"[-97.116601, 32.706686]"
224,2000 E State Highway 356,Irving,TEXAS,UNITED STATES,"[-96.919885, 32.80941]"
226,3042 Washington Rd,Augusta,GEORGIA,UNITED STATES,"[-82.0491, 33.512783]"
227,5141 Dixie Hwy,Fairfield,OHIO,UNITED STATES,"[-84.53423241, 39.33963566]"
229,116 Marshall Rd,Jacksonville,ARKANSAS,UNITED STATES,"[-92.128413, 34.868706]"
231,1722 W Scyene Rd,Mesquite,TEXAS,UNITED STATES,"[-96.62427, 32.768343]"
232,1938 Beach Blvd,Biloxi,MISSISSIPPI,UNITED STATES,"[-88.9532, 30.393385]"
233,2229 Savannah Hwy,Charleston,SOUTH CAROLINA,UNITED STATES,"[-80.03945, 32.79142]"
235,6512 U S Highway 49,Hattiesburg,MISSISSIPPI,UNITED STATES,"[-89.33646, 31.349147]"
236,1720 College Ave,Houston,TEXAS,UNITED STATES,"[-95.249496, 29.653034]"
237,3204 W Gate City Blvd,Greensboro,NORTH CAROLINA,UNITED STATES,"[-79.84329264, 36.04204765]"
240,2680 Georgetown Rd NW,Cleveland,TENNESSEE,UNITED STATES,"[-84.885188, 35.190895]"
241,1754 Dauphin Island Pkwy,Mobile,ALABAMA,UNITED STATES,"[-88.089, 30.63512]"
244,959 W Nasa Pkwy,Webster,TEXAS,UNITED STATES,"[-95.126758, 29.53119]"
245,716 NC Highway 66 S,Kernersville,NORTH CAROLINA,UNITED STATES,"[-80.063365, 36.110784]"
246,5771 Old Hickory Blvd,Hermitage,TENNESSEE,UNITED STATES,"[-86.6018946, 36.17257256]"
247,2923 Fort Campbell Blvd,Hopkinsville,KENTUCKY,UNITED STATES,"[-87.478445, 36.837536]"
249,150 Three Springs Rd,Bowling Green,KENTUCKY,UNITED STATES,"[-86.421091, 36.939011]"
252,6 S New Warrington Rd,Pensacola,FLORIDA,UNITED STATES,"[-87.27663, 30.405855]"
254,5630 Highway 20 SE,Cartersville,GEORGIA,UNITED STATES,"[-84.76405, 34.204793]"
258,4840 Powerline Rd,Ft Lauderdale,FLORIDA,UNITED STATES,"[-80.155038, 26.186843]"
259,505 Bluff Rd,Collinsville,IL,UNITED STATES,"[-90.012628, 38.67765]"
261,990 Hwy 65 N,Conway,AR,UNITED STATES,"[-92.439432, 35.11065]"
263,102 Signal Mountain Rd,Chattanooga,TENNESSEE,UNITED STATES,"[-85.31797613, 35.08402824]"
264,2510 Sunset Blvd,West Columbia,SOUTH CAROLINA,UNITED STATES,"[-81.107962, 34.003666]"
265,2516 W Bell Rd,Phoenix,ARIZONA,UNITED STATES,"[-112.112866, 33.640482]"
270,2202 6th Ave SE,Decatur,ALABAMA,UNITED STATES,"[-86.97323832, 34.56890903]"
275,2760 I-10 East,Beaumont,TX,UNITED STATES,"[-94.130878, 30.096615]"
281,4404 NE Antioch Rd,Kansas City,MISSOURI,UNITED STATES,"[-94.54915, 39.174405]"
282,1105 N Eglin Pkwy,Shalimar,FLORIDA,UNITED STATES,"[-86.582426, 30.439984]"
283,1380 W Grant Rd,Tucson,ARIZONA,UNITED STATES,"[-110.9948429, 32.25044571]"
284,7800 Senoia Rd,Fairburn,GEORGIA,UNITED STATES,"[-84.576589, 33.544171]"
286,9927 Dogwood Rd,Roswell,GA,UNITED STATES,"[-84.32654, 34.02299]"
292,105 S Martin Luther King Ave,Oklahoma City,OKLAHOMA,UNITED STATES,"[-97.476926, 35.464685]"
293,6230 Papermill Dr,Knoxville,TENNESSEE,UNITED STATES,"[-84.008243, 35.937906]"
295,2812 Buford Hwy NE,Brookhaven,GEORGIA,UNITED STATES,"[-84.34351, 33.83075]"
303,2314 N Highland Ave,Jackson,TENNESSEE,UNITED STATES,"[-88.828974, 35.666728]"
304,2391 E Sharon Rd,Sharonville,OHIO,UNITED STATES,"[-84.43565229, 39.26976282]"
311,10220 N. Us 31 & I65,Taylorsville,IN,UNITED STATES,"[-85.95804, 39.296634]"
313,4300 Covington Hwy,Decatur,GEORGIA,UNITED STATES,"[-84.22771, 33.75026]"
314,1617 Julian R,Weldon,NC,UNITED STATES,"[-77.62761, 36.429993]"
315,1801 W Baseline Rd,Guadalupe,ARIZONA,UNITED STATES,"[-111.9665807, 33.37816459]"
318,5350 S Kirkman Rd,Orlando,FLORIDA,UNITED STATES,"[-81.459197, 28.484577]"
207,908 Thornton Rd,Lithia Springs,GEORGIA,UNITED STATES,"[-84.60698, 33.77964]"
211,204 Huffman Rd,Euless,TEXAS,UNITED STATES,"[-97.08511, 32.83716]"
216,326 W Butler Rd,Mauldin,SOUTH CAROLINA,UNITED STATES,"[-82.318, 34.775839]"
218,2644 Riverside Dr,Macon,GEORGIA,UNITED STATES,"[-83.66344, 32.87427]"
285,3428 Spring Hill Ave,Mobile,ALABAMA,UNITED STATES,"[-88.126032, 30.70421]"
287,3995 University Dr NW,Huntsville,ALABAMA,UNITED STATES,"[-86.62576, 34.734674]"
288,1817 W Lucas St,Florence,SOUTH CAROLINA,UNITED STATES,"[-79.795922, 34.227265]"
289,3671 Government Blvd,Mobile,ALABAMA,UNITED STATES,"[-88.126713, 30.64916]"
309,7271 Garners Ferry Rd,Columbia,SOUTH CAROLINA,UNITED STATES,"[-80.95093, 33.97152]"
319,9525 Highway 49,Gulfport,MISSISSIPPI,UNITED STATES,"[-89.09256, 30.42727]"
204,2357 W Aviation Ave,North Charleston,SOUTH CAROLINA,UNITED STATES,"[-80.02683, 32.901371]"
208,1833 Crestwood Blvd,Irondale,ALABAMA,UNITED STATES,"[-86.702433, 33.533234]"
213,7661 Boulevard 26,N Richland Hills,TEXAS,UNITED STATES,"[-97.21757, 32.83159]"
221,4150 Cane Run Rd,Louisville,KENTUCKY,UNITED STATES,"[-85.83374, 38.202281]"
298,6544 Highway 85,Riverdale,GEORGIA,UNITED STATES,"[-84.41219, 33.57632]"
306,494 West I-30 Frontage Rd,Garland,TX,UNITED STATES,"[-96.594581, 32.839767]"
308,4525 James S McDonnell Blvd,Berkeley,MISSOURI,UNITED STATES,"[-90.3446, 38.730259]"
327,8600 West Fwy,White Settlement,TEXAS,UNITED STATES,"[-97.46698, 32.73853]"
312,801 Highway 78 E,Jasper,ALABAMA,UNITED STATES,"[-87.266513, 33.847422]"
317,1550 Sycamore View Rd,Memphis,TENNESSEE,UNITED STATES,"[-89.863046, 35.167757]"
320,6930 Charlotte Pike,Nashville,TENNESSEE,UNITED STATES,"[-86.90143255, 36.12992486]"
323,151 Park Ave,Orange Park,FLORIDA,UNITED STATES,"[-81.701798, 30.188023]"
325,2050 Eatonton Rd,Madison,GEORGIA,UNITED STATES,"[-83.47341, 33.55182]"
347,5579 Highway 90,Theodore,ALABAMA,UNITED STATES,"[-88.17079, 30.574723]"
348,1819 W Hill Ave,Valdosta,GEORGIA,UNITED STATES,"[-83.311831, 30.820299]"
349,325 W Spring St,New Albany,INDIANA,UNITED STATES,"[-85.828709, 38.283882]"
350,7109 W Broad St,Richmond,VIRGINIA,UNITED STATES,"[-77.520164, 37.611384]"
351,1724 Walnut St,Cary,NORTH CAROLINA,UNITED STATES,"[-78.746824, 35.762565]"
352,6203 Ramada Dr,Clemmons,NORTH CAROLINA,UNITED STATES,"[-80.383055, 36.03369]"
353,4706 Preston Hwy,Louisville,KENTUCKY,UNITED STATES,"[-85.71787688, 38.17956559]"
355,8903 S Orange Blossom Trl,Orlando,FLORIDA,UNITED STATES,"[-81.40369034, 28.43688472]"
356,2553 Cherry Rd,Rock Hill,SOUTH CAROLINA,UNITED STATES,"[-80.98996529, 34.97133012]"
358,2362 Valwood Pkwy,Farmers Branch,TEXAS,UNITED STATES,"[-96.90121, 32.93853]"
359,171 Tunnel Rd,Asheville,NORTH CAROLINA,UNITED STATES,"[-82.529624, 35.587985]"
360,1444 Tunnel Rd,Asheville,NORTH CAROLINA,UNITED STATES,"[-82.46225, 35.58431]"
361,3417 Wrightsboro Rd,Augusta,GEORGIA,UNITED STATES,"[-82.07695, 33.46803]"
362,700 Glynn St N,Fayetteville,GEORGIA,UNITED STATES,"[-84.45144, 33.46143]"
363,44215 Highway 27,Davenport,FLORIDA,UNITED STATES,"[-81.652129, 28.236822]"
364,551 Mcpherson Ch. Rd,Fayetteville,NC,UNITED STATES,"[-78.9562, 35.0788]"
365,29100 US Highway 98,Daphne,ALABAMA,UNITED STATES,"[-87.91244, 30.64903]"
370,3107 Estes Pkwy,Longview,TEXAS,UNITED STATES,"[-94.72304416, 32.44847339]"
372,6250 Lake Worth Blvd,Lake Worth,TEXAS,UNITED STATES,"[-97.42167, 32.80991]"
373,2226 Needmore Rd,Dayton,OHIO,UNITED STATES,"[-84.192583, 39.819443]"
374,6990 W Colonial Dr,Orlando,FLORIDA,UNITED STATES,"[-81.475253, 28.551839]"
377,6558 Caroline St,Milton,FLORIDA,UNITED STATES,"[-87.0497, 30.61957]"
378,3909 Hillsborough St,Raleigh,NORTH CAROLINA,UNITED STATES,"[-78.69024, 35.794068]"
380,1986 Airline Dr,Bossier City,LOUISIANA,UNITED STATES,"[-93.700877, 32.527665]"
384,3244 W Chain of Rocks Rd,Granite City,ILLINOIS,UNITED STATES,"[-90.12317814, 38.76213975]"
385,1216 Oakland Blvd,Fort Worth,TEXAS,UNITED STATES,"[-97.26184, 32.75964]"
386,4912 Springboro Pike,Moraine,OHIO,UNITED STATES,"[-84.220317, 39.688512]"
387,2024 E 23rd St,Chattanooga,TENNESSEE,UNITED STATES,"[-85.28068, 35.018188]"
388,2963 W US Highway 90,Lake City,FLORIDA,UNITED STATES,"[-82.680965, 30.180372]"
389,112 Lobdell Hwy,Port Allen,LOUISIANA,UNITED STATES,"[-91.245301, 30.450089]"
390,3385 E Dublin Granville Rd,Westerville,OHIO,UNITED STATES,"[-82.927819, 40.08062]"
391,106 Old W Terra Ln,O Fallon,MISSOURI,UNITED STATES,"[-90.701269, 38.80325]"
392,2621 S Lynhurst Dr,Indianapolis,INDIANA,UNITED STATES,"[-86.25026, 39.72756]"
393,6913 Pensacola Blvd,Pensacola,FLORIDA,UNITED STATES,"[-87.261722, 30.492999]"
394,7800 Brandt Pike,Dayton,OHIO,UNITED STATES,"[-84.101281, 39.86576]"
396,188 S Dixie Blvd,Radcliff,KENTUCKY,UNITED STATES,"[-85.936942, 37.838962]"
398,1570 N US Highway 1,Ormond Beach,FLORIDA,UNITED STATES,"[-81.12961534, 29.33456624]"
326,491 Piney Grove Rd,Columbia,SOUTH CAROLINA,UNITED STATES,"[-81.14047, 34.068152]"
401,4903 Brainerd Rd,Chattanooga,TENNESSEE,UNITED STATES,"[-85.227637, 35.012846]"
330,123 Valley St,Caddo Valley,ARKANSAS,UNITED STATES,"[-93.070856, 34.180166]"
402,900 N Wilson Rd,Columbus,OHIO,UNITED STATES,"[-83.09781631, 39.97128472]"
403,1784 N Riley Hwy,Shelbyville,INDIANA,UNITED STATES,"[-85.77536, 39.546701]"
406,1535 Montgomery Hwy,Vestavia Hills,ALABAMA,UNITED STATES,"[-86.80603, 33.41043]"
407,3591 Ross Clark Cir,Dothan,ALABAMA,UNITED STATES,"[-85.426276, 31.248273]"
408,1220 Neubrecht Rd,Lima,OHIO,UNITED STATES,"[-84.07997019, 40.75616566]"
409,317 Folkerth Ave,Sidney,OHIO,UNITED STATES,"[-84.1848819, 40.2879801]"
410,5103 Monkhouse Dr,Shreveport,LOUISIANA,UNITED STATES,"[-93.82744927, 32.45971929]"
411,325 Savannah Hwy,Charleston,SOUTH CAROLINA,UNITED STATES,"[-79.96624, 32.78114]"
412,2264 Cheshire Bridge Rd NE,Atlanta,GEORGIA,UNITED STATES,"[-84.35208, 33.81713]"
414,278 Douglas Ave,Altamonte Springs,FLORIDA,UNITED STATES,"[-81.39032366, 28.66513598]"
415,2963 Lawrenceville Hwy,Tucker,GEORGIA,UNITED STATES,"[-84.24934, 33.828778]"
420,2107 N Post Rd,Indianapolis,INDIANA,UNITED STATES,"[-86.00944, 39.79683]"
421,3340 Frey Rd NW,Kennesaw,GEORGIA,UNITED STATES,"[-84.58034, 34.033839]"
423,1069 E Main St,Greenwood,INDIANA,UNITED STATES,"[-86.081395, 39.614173]"
424,4458 Atlanta Rd SE,Smyrna,GEORGIA,UNITED STATES,"[-84.490592, 33.845166]"
425,6375 Jonesboro Rd,Morrow,GEORGIA,UNITED STATES,"[-84.34, 33.58117]"
426,4620 Clemson Blvd,Anderson,SOUTH CAROLINA,UNITED STATES,"[-82.712449, 34.576249]"
430,111 Reynoir St,Biloxi,MISSISSIPPI,UNITED STATES,"[-88.890574, 30.394334]"
431,709 W Starr Pass Blvd,Tucson,ARIZONA,UNITED STATES,"[-110.980824, 32.206583]"
434,4031 E Southport Rd,Indianapolis,INDIANA,UNITED STATES,"[-86.096866, 39.665401]"
435,5991 W Irlo Bronson Memorial Hwy,Kissimmee,FLORIDA,UNITED STATES,"[-81.52422269, 28.33311878]"
436,2101 Willis Rd,North Chesterfield,VIRGINIA,UNITED STATES,"[-77.42258481, 37.40176073]"
437,1215 Hot Springs Hwy,Benton,ARKANSAS,UNITED STATES,"[-92.59014, 34.574836]"
439,2311 W Martin Luther King Blvd,Fayetteville,ARKANSAS,UNITED STATES,"[-94.192108, 36.054204]"
395,1931 E 60th St,Anderson,INDIANA,UNITED STATES,"[-85.65416, 40.05449]"
399,1610 White Horse Rd,Greenville,SOUTH CAROLINA,UNITED STATES,"[-82.41716, 34.79274]"
344,213 Joe B Hall Ave,Shepherdsville,KY,UNITED STATES,"[-85.706572, 37.988883]"
444,507 Lovell Rd,Knoxville,TENNESSEE,UNITED STATES,"[-84.147356, 35.907575]"
447,5416 Asheville Hwy,Knoxville,TENNESSEE,UNITED STATES,"[-83.84391202, 36.00946423]"
446,2846 Charleston Hwy,West Columbia,SOUTH CAROLINA,UNITED STATES,"[-81.077213, 33.934584]"
449,3309 Queen City Dr,Charlotte,NORTH CAROLINA,UNITED STATES,"[-80.92004, 35.240125]"
452,108 Enterprise Blvd,La Vergne,TENNESSEE,UNITED STATES,"[-86.597645, 35.998654]"
453,102 Holiday Inn Dr,Kings Mountain,NORTH CAROLINA,UNITED STATES,"[-81.333911, 35.227203]"
455,6701 Highway 63,Moss Point,MISSISSIPPI,UNITED STATES,"[-88.52718, 30.43786]"
460,1970 Washington Rd,Thomson,GEORGIA,UNITED STATES,"[-82.502207, 33.50993]"
463,7540 Tucker Rd,Ocean Springs,MISSISSIPPI,UNITED STATES,"[-88.84127, 30.450843]"
456,1707 County Road 437,Cullman,ALABAMA,UNITED STATES,"[-86.864052, 34.114829]"
472,941 Conference Dr,Goodlettsville,TENNESSEE,UNITED STATES,"[-86.70114, 36.324565]"
473,4301 Sidco Dr,Nashville,TENNESSEE,UNITED STATES,"[-86.7618, 36.0849]"
475,3565 Cheney Hwy,Titusville,FLORIDA,UNITED STATES,"[-80.848534, 28.552636]"
468,12528 Highway 56 N,Clinton,SOUTH CAROLINA,UNITED STATES,"[-81.859866, 34.504859]"
477,580 Busch Dr,Jacksonville,FLORIDA,UNITED STATES,"[-81.654875, 30.429249]"
479,550 N Greenbriar Pkwy,Marietta,GEORGIA,UNITED STATES,"[-84.4945, 33.96344]"
481,820 N Dysart Rd,Goodyear,ARIZONA,UNITED STATES,"[-112.341283, 33.455472]"
483,1312 Murfreesboro Rd,Franklin,TENNESSEE,UNITED STATES,"[-86.826866, 35.914613]"
485,228 W Trinity Ln,Nashville,TENNESSEE,UNITED STATES,"[-86.7791585, 36.2066757]"
488,201 N Shackleford Rd,Little Rock,ARKANSAS,UNITED STATES,"[-92.393485, 34.754629]"
489,2886 Clairmont Rd NE,Brookhaven,GEORGIA,UNITED STATES,"[-84.314007, 33.841317]"
490,2321 Highway 46 S,Dickson,TENNESSEE,UNITED STATES,"[-87.339946, 36.023206]"
494,920 Cobb Pkwy S,Marietta,GEORGIA,UNITED STATES,"[-84.50922, 33.9297]"
495,2621 Brice Rd,Reynoldsburg,OHIO,UNITED STATES,"[-82.832022, 39.926109]"
496,24 Casey Jones Ln,Jackson,TENNESSEE,UNITED STATES,"[-88.85456612, 35.66045864]"
498,7004 NC 4,Battleboro,NORTH CAROLINA,UNITED STATES,"[-77.817884, 36.062261]"
499,501 Westinghouse Blvd,Charlotte,NORTH CAROLINA,UNITED STATES,"[-80.922364, 35.112918]"
502,617 W 3rd St,Covington,KENTUCKY,UNITED STATES,"[-84.52059, 39.087178]"
504,30481 Cortez Blvd,Brooksville,FLORIDA,UNITED STATES,"[-82.234141, 28.52345]"
506,1116 Highway 321 N,Lenoir City,TENNESSEE,UNITED STATES,"[-84.27858, 35.827095]"
507,3506 S Range Line Rd,Joplin,MISSOURI,UNITED STATES,"[-94.47895, 37.050057]"
508,2065 SW Highway 484,Ocala,FLORIDA,UNITED STATES,"[-82.159785, 29.025713]"
509,5391 W Irlo Bronson Memorial Hwy,Kissimmee,FLORIDA,UNITED STATES,"[-81.49862314, 28.33300267]"
510,816 E Oak St,Conway,ARKANSAS,UNITED STATES,"[-92.419605, 35.091804]"
511,408 White Bridge Pl,Nashville,TENNESSEE,UNITED STATES,"[-86.857175, 36.151022]"
512,1515 W McClain Ave,Scottsburg,INDIANA,UNITED STATES,"[-85.79183, 38.684831]"
516,12701 Saint Charles Rock Rd,Bridgeton,MISSOURI,UNITED STATES,"[-90.434464, 38.75981]"
518,8939 Hamilton Rd,Southaven,MISSISSIPPI,UNITED STATES,"[-89.999726, 34.990941]"
521,3850 E Mulberry St,Fort Collins,COLORADO,UNITED STATES,"[-105.004798, 40.582275]"
522,9092 Mac Dr,Punta Gorda,FLORIDA,UNITED STATES,"[-82.007248, 26.896023]"
523,4212 27th St,Orange,TEXAS,UNITED STATES,"[-93.761643, 30.122556]"
527,5007 Pelham Rd,Greenville,SOUTH CAROLINA,UNITED STATES,"[-82.25775, 34.858318]"
528,2210 Armory Dr,Murfreesboro,TENNESSEE,UNITED STATES,"[-86.431364, 35.8482]"
530,1975 E Main St,Wytheville,VIRGINIA,UNITED STATES,"[-81.05732, 36.947705]"
533,6780 Pottery Rd,Spartanburg,SOUTH CAROLINA,UNITED STATES,"[-82.022799, 34.990629]"
534,2110 S Coulter St,Amarillo,TEXAS,UNITED STATES,"[-101.921164, 35.188777]"
535,15979 NW US Highway 441,Alachua,FLORIDA,UNITED STATES,"[-82.51079, 29.801471]"
536,1066 US Highway 301 S,Baldwin,FLORIDA,UNITED STATES,"[-81.983575, 30.283154]"
540,3620 Riverside Dr,Macon,GEORGIA,UNITED STATES,"[-83.68466, 32.899308]"
541,3919 SW 40th Blvd,Gainesville,FLORIDA,UNITED STATES,"[-82.382993, 29.618134]"
542,1924 W Elm St,Lebanon,MISSOURI,UNITED STATES,"[-92.66748, 37.650954]"
543,10439 Reiger Rd,Baton Rouge,LOUISIANA,UNITED STATES,"[-91.06450798, 30.38389503]"
544,2951 Washington Rd,Augusta,GEORGIA,UNITED STATES,"[-82.04006, 33.51167]"
545,13207 Central Ave NE,Albuquerque,NEW MEXICO,UNITED STATES,"[-106.499324, 35.068546]"
547,7954 NE 8th Way,Wildwood,FLORIDA,UNITED STATES,"[-82.090187, 28.872046]"
549,5365 Peachtree Industrial Blvd,Norcross,GEORGIA,UNITED STATES,"[-84.208891, 33.961043]"
550,250 Northridge Rd,Sandy Springs,GEORGIA,UNITED STATES,"[-84.34933, 33.98155]"
551,6840 State Route 123,Franklin,OHIO,UNITED STATES,"[-84.29180851, 39.5420688]"
553,4995 Old National Hwy,College Park,GEORGIA,UNITED STATES,"[-84.473625, 33.619247]"
554,5411 Alabama Hwy,Ringgold,GEORGIA,UNITED STATES,"[-85.12478, 34.912602]"
555,7047 Amin Dr,Chattanooga,TENNESSEE,UNITED STATES,"[-85.15872, 35.04262]"
558,2587 W Int'L Speedway Blvd,Daytona Beach,FL,UNITED STATES,"[-81.081457, 29.176646]"
561,7676 Highway 70 S,Nashville,TENNESSEE,UNITED STATES,"[-86.95460557, 36.08065529]"
562,4833 Bill Gardner Pkwy,Locust Grove,GEORGIA,UNITED STATES,"[-84.122937, 33.353706]"
563,2615 Zelda Rd,Montgomery,ALABAMA,UNITED STATES,"[-86.27083533, 32.36404542]"
564,10930 New Haven Rd,Harrison,OHIO,UNITED STATES,"[-84.80157285, 39.25908041]"
565,28100 Quails Nest Ln,Bonita Springs,FLORIDA,UNITED STATES,"[-81.75236, 26.330816]"
566,603 67th Street Cir E,Bradenton,FLORIDA,UNITED STATES,"[-82.477224, 27.493102]"
567,6502 N US Highway 301,Tampa,FLORIDA,UNITED STATES,"[-82.35611, 28.005352]"
568,105A Chamber of Commerce Dr,Ennis,TEXAS,UNITED STATES,"[-96.617771, 32.334194]"
569,2026 N Mulberry St,Elizabethtown,KENTUCKY,UNITED STATES,"[-85.82463, 37.716112]"
571,10106 Alcovy Rd,Covington,GEORGIA,UNITED STATES,"[-83.842565, 33.617076]"
572,4 Carol Rd,Winchester,KENTUCKY,UNITED STATES,"[-84.20969, 38.007229]"
574,3800 Flat Shoals Rd,Union City,GEORGIA,UNITED STATES,"[-84.51508, 33.58558]"
576,5180 Carmichael Rd,Montgomery,ALABAMA,UNITED STATES,"[-86.216701, 32.359604]"
577,3521 Baker Rd NW,Acworth,GEORGIA,UNITED STATES,"[-84.65309, 34.076061]"
579,3695 Saint Matthews Rd,Orangeburg,SOUTH CAROLINA,UNITED STATES,"[-80.82609, 33.555433]"
580,2918 Woodrow Dr,Lithonia,GEORGIA,UNITED STATES,"[-84.1181, 33.6991]"
584,2340 Elm Hill Pike,Nashville,TENNESSEE,UNITED STATES,"[-86.686115, 36.153582]"
586,401 E Gregory St,Pensacola,FLORIDA,UNITED STATES,"[-87.205707, 30.417023]"
589,1675 E Market St,Harrisonburg,VIRGINIA,UNITED STATES,"[-78.846366, 38.433917]"
590,219 Sandy Creek Pkwy,Saint Augustine,FLORIDA,UNITED STATES,"[-81.49602084, 30.06507888]"
592,11292 Highway 41,Ringgold,GEORGIA,UNITED STATES,"[-85.07429, 34.890498]"
593,1825 N Belt Line Rd,Mesquite,TEXAS,UNITED STATES,"[-96.59583, 32.78949]"
594,8915 Old #6 Hwy,Santee,SC,UNITED STATES,"[-80.47513, 33.48737]"
595,170 Ernest Barrett Pkwy,Marietta,GEORGIA,UNITED STATES,"[-84.5568, 34.014383]"
596,43 Executive Dr,Crossville,TENNESSEE,UNITED STATES,"[-85.044651, 35.998307]"
597,2940 Jimmy Johnson Blvd,Port Arthur,TEXAS,UNITED STATES,"[-93.981203, 29.938345]"
598,5801 49Th West Ave S,Tulsa,OK,UNITED STATES,"[-96.04752713, 36.07901605]"
601,1845 Remount Rd,Gastonia,NORTH CAROLINA,UNITED STATES,"[-81.14674, 35.269186]"
602,1244 Richmond Ave,Staunton,VIRGINIA,UNITED STATES,"[-79.03938, 38.130464]"
603,9725 S Mason Montgomery Rd,Mason,OHIO,UNITED STATES,"[-84.315315, 39.297049]"
605,3487 Madison Hwy,Valdosta,GEORGIA,UNITED STATES,"[-83.272398, 30.752605]"
606,8401 Pearl St,Thornton,COLORADO,UNITED STATES,"[-104.979638, 39.84937]"
607,4465 W King St,Cocoa,FLORIDA,UNITED STATES,"[-80.792883, 28.359513]"
608,4761 Central Ave,Hot Springs,ARKANSAS,UNITED STATES,"[-93.089792, 34.444636]"
610,3845 Grandview Dr,Simpsonville,SOUTH CAROLINA,UNITED STATES,"[-82.256433, 34.718222]"
611,3804 S Ferdon Blvd,Crestview,FLORIDA,UNITED STATES,"[-86.56918, 30.72237]"
612,3202 Bankhead Dr,Little Rock,ARKANSAS,UNITED STATES,"[-92.224131, 34.714613]"
613,1832 Holiday Dr,Athens,TENNESSEE,UNITED STATES,"[-84.646155, 35.465022]"
614,1811 Williams Dr,Marietta,GEORGIA,UNITED STATES,"[-84.52947, 33.998294]"
616,2676 Columbia Hwy N,Aiken,SOUTH CAROLINA,UNITED STATES,"[-81.67393, 33.664706]"
617,4690 Seven Dwarfs Ln,Kissimmee,FLORIDA,UNITED STATES,"[-81.471042, 28.325519]"
618,1515 51st Ave E,Ellenton,FLORIDA,UNITED STATES,"[-82.51286, 27.527406]"
619,19260 Timbercrest Cir,Catoosa,OKLAHOMA,UNITED STATES,"[-95.763257, 36.164306]"
620,1114 State Road 76,Clarksville,TN,UNITED STATES,"[-87.22521083, 36.52482591]"
622,2164 Cobb Pkwy NW,Kennesaw,GEORGIA,UNITED STATES,"[-84.603202, 34.005072]"
624,3134 Peach Orchard Rd,Augusta,GEORGIA,UNITED STATES,"[-82.026817, 33.409408]"
625,6137 Hwy 278 & I-20,Covington,GA,UNITED STATES,"[-83.873202, 33.605394]"
626,28 Birmingham Hwy,Chattanooga,TENNESSEE,UNITED STATES,"[-85.38216, 35.017274]"
628,3410 E Sunshine St,Springfield,MISSOURI,UNITED STATES,"[-93.225684, 37.179817]"
630,621 Johnson Ferry Rd,Marietta,GEORGIA,UNITED STATES,"[-84.41177, 33.96421]"
632,1036 S Lake Dr,Lexington,SOUTH CAROLINA,UNITED STATES,"[-81.23278, 33.955482]"
633,I 85 And Hwy 53,Braselton,GA,UNITED STATES,"[-83.76287, 34.115669]"
634,12801 S Apopka-Vineland Rd,Orlando,FL,UNITED STATES,"[-81.504559, 28.37929]"
635,5737 Clark Rd,Sarasota,FLORIDA,UNITED STATES,"[-82.45550532, 27.26926047]"
636,1540 Lafayette Pkwy,Lagrange,GEORGIA,UNITED STATES,"[-84.973623, 33.041726]"
640,1470 George Busbee Pkwy NW,Kennesaw,GEORGIA,UNITED STATES,"[-84.59226, 34.056233]"
641,7705 Lee Hwy,Chattanooga,TENNESSEE,UNITED STATES,"[-85.133051, 35.061556]"
643,8208 Two Notch Rd,Columbia,SOUTH CAROLINA,UNITED STATES,"[-80.937776, 34.084396]"
644,4937 Knights Way,Indianapolis,INDIANA,UNITED STATES,"[-86.18789, 39.693426]"
645,1202 George C Wilson Dr,Augusta,GEORGIA,UNITED STATES,"[-82.08799, 33.48239]"
646,2585 Whitesville Rd,Lagrange,GEORGIA,UNITED STATES,"[-85.02922, 32.98642]"
650,5421 Village Market,Wesley Chapel,FLORIDA,UNITED STATES,"[-82.350968, 28.235818]"
651,103 Assembly Dr,Piedmont,SOUTH CAROLINA,UNITED STATES,"[-82.461201, 34.774869]"
652,1016 Cosby Hwy,Newport,TENNESSEE,UNITED STATES,"[-83.20496, 35.946353]"
653,3987 College St,Beaumont,TEXAS,UNITED STATES,"[-94.13583, 30.067908]"
654,2203 N Broadway,Lexington,KENTUCKY,UNITED STATES,"[-84.45261848, 38.07786066]"
655,197 Hwy 61 South,Villa Rica,GA,UNITED STATES,"[-84.940576, 33.724349]"
656,1326 Sniders Hwy,Walterboro,SOUTH CAROLINA,UNITED STATES,"[-80.711961, 32.879903]"
659,102 Red Cedar Ct,Chesapeake,VIRGINIA,UNITED STATES,"[-76.252751, 36.767402]"
660,127 Motel Dr,Saint George,SOUTH CAROLINA,UNITED STATES,"[-80.603771, 33.19458]"
661,8912 Lee Hwy,Ooltewah,TENNESSEE,UNITED STATES,"[-85.075722, 35.083956]"
662,1067 Highway 98 E,Destin,FLORIDA,UNITED STATES,"[-86.46869, 30.3865]"
663,1227 Virginia Ave,East Point,GEORGIA,UNITED STATES,"[-84.42959, 33.65901]"
664,3023 Columbiana Rd,Vestavia Hills,ALABAMA,UNITED STATES,"[-86.805409, 33.414674]"
665,6737 U S Highway 49,Hattiesburg,MISSISSIPPI,UNITED STATES,"[-89.35015, 31.359675]"
667,1240 E Garner Bagnal Blvd,Statesville,NORTH CAROLINA,UNITED STATES,"[-80.85968626, 35.77145604]"
668,2340 N Washington St,Forrest City,ARKANSAS,UNITED STATES,"[-90.789428, 35.031525]"
670,219 Grayson Hwy,Lawrenceville,GEORGIA,UNITED STATES,"[-83.985838, 33.946346]"
671,Sr 376 & I-75,Lake Park,GA,UNITED STATES,"[-83.220223, 30.681215]"
672,486 Springridge Rd,Clinton,MISSISSIPPI,UNITED STATES,"[-90.327052, 32.32894]"
674,209 Harbor Blvd,Destin,FLORIDA,UNITED STATES,"[-86.506983, 30.39466]"
676,1012 North Hwy 47,Warrenton,MO,UNITED STATES,"[-91.138276, 38.823561]"
677,105 Rushing Rd,Denham Springs,LA,UNITED STATES,"[-90.955634, 30.457155]"
680,1302A N Saint Augustine Rd,Valdosta,GEORGIA,UNITED STATES,"[-83.32647, 30.84267]"
681,41 Yemassee Rd,Yemassee,SOUTH CAROLINA,UNITED STATES,"[-80.87506, 32.63235]"
682,4406 Hardy St,Hattiesburg,MISSISSIPPI,UNITED STATES,"[-89.35544, 31.323919]"
683,220 Eastern By-Pass,Richmond,KY,UNITED STATES,"[-84.31941, 37.736096]"
684,9539 Highway 92,Woodstock,GEORGIA,UNITED STATES,"[-84.530254, 34.086389]"
685,1407 N Main St,Brinkley,ARKANSAS,UNITED STATES,"[-91.198186, 34.905383]"
686,2554 Snellville Plz,Snellville,GEORGIA,UNITED STATES,"[-84.021074, 33.857011]"
687,3204 Lancaster Hwy,Richburg,SOUTH CAROLINA,UNITED STATES,"[-81.031492, 34.744143]"
689,167 Maxwell Rd,Rayville,LOUISIANA,UNITED STATES,"[-91.75858, 32.456188]"
690,2805 Delk Rd SE,Marietta,GEORGIA,UNITED STATES,"[-84.46987837, 33.92406746]"
691,3305 E Race Ave,Searcy,ARKANSAS,UNITED STATES,"[-91.692656, 35.250429]"
694,1702 N Expressway,Griffin,GEORGIA,UNITED STATES,"[-84.29134, 33.28088]"
696,3871 SW College Rd,Ocala,FLORIDA,UNITED STATES,"[-82.188023, 29.148493]"
697,3408 Mike Padgett Hwy,Augusta,GEORGIA,UNITED STATES,"[-82.00538, 33.399077]"
698,2905 Phillips Dr,Jonesboro,ARKANSAS,UNITED STATES,"[-90.669758, 35.809383]"
699,6531 Dudley Dr,Naples,FLORIDA,UNITED STATES,"[-81.74090361, 26.21056749]"
700,1825 Pleasant Hill Rd,Duluth,GEORGIA,UNITED STATES,"[-84.128762, 33.949688]"
703,586 Hugh Adams Rd,Defuniak Springs,FLORIDA,UNITED STATES,"[-86.121641, 30.695845]"
704,1415 N Main St,Summerville,SOUTH CAROLINA,UNITED STATES,"[-80.152522, 33.036743]"
705,6308 Banner Elk Dr,Charlotte,NORTH CAROLINA,UNITED STATES,"[-80.851167, 35.305943]"
706,3304 Dickerson Pike,Nashville,TENNESSEE,UNITED STATES,"[-86.758352, 36.235758]"
707,525 Highway 601 S,Lugoff,SOUTH CAROLINA,UNITED STATES,"[-80.68817, 34.192405]"
708,2225 N Charles G Seivers Blvd,Clinton,TENNESSEE,UNITED STATES,"[-84.08611736, 36.16479298]"
709,2800 N Kansas Expy,Springfield,MISSOURI,UNITED STATES,"[-93.31035, 37.24853]"
710,1001 New Moody Ln,Lagrange,KENTUCKY,UNITED STATES,"[-85.371382, 38.39719]"
711,1227 13th Avenue Dr SE,Hickory,NORTH CAROLINA,UNITED STATES,"[-81.31335, 35.711134]"
713,6007 Shallowford Rd,Chattanooga,TENNESSEE,UNITED STATES,"[-85.18773, 35.054091]"
714,3805 Cummings Hwy,Chattanooga,TENNESSEE,UNITED STATES,"[-85.385533, 35.019387]"
715,354 College Park Rd,Ladson,SOUTH CAROLINA,UNITED STATES,"[-80.090734, 33.000912]"
716,1245 US Highway 42 NE,London,OHIO,UNITED STATES,"[-83.372149, 39.957842]"
717,30789 Highway 441 S,Commerce,GEORGIA,UNITED STATES,"[-83.46134, 34.251825]"
718,1012 US Highway 80 E,Pooler,GEORGIA,UNITED STATES,"[-81.23276, 32.1105]"
719,3639 W US Highway 90,Lake City,FLORIDA,UNITED STATES,"[-82.691892, 30.179667]"
720,936 Jake Alexander Blvd,Salisbury,NC,UNITED STATES,"[-80.48219, 35.6434]"
721,110 Daniel Boone St,Hillsborough,NORTH CAROLINA,UNITED STATES,"[-79.10293, 36.057786]"
722,105 Country Club Dr,Stockbridge,GEORGIA,UNITED STATES,"[-84.227409, 33.506177]"
723,309 E Emory Rd,Powell,TENNESSEE,UNITED STATES,"[-84.003139, 36.047286]"
725,2624 Westinghouse Blvd,Raleigh,NORTH CAROLINA,UNITED STATES,"[-78.59837, 35.816734]"
726,3090 W 5th St,Lumberton,NORTH CAROLINA,UNITED STATES,"[-79.05181, 34.621484]"
727,1988 Oneal Ln,Baton Rouge,LOUISIANA,UNITED STATES,"[-91.00753737, 30.43954741]"
728,2124 Cedar Creek Rd,Fayetteville,NORTH CAROLINA,UNITED STATES,"[-78.8157, 35.00557]"
729,1115 S Lewis St,Metter,GEORGIA,UNITED STATES,"[-82.06208, 32.377905]"
730,3531 Peachtree Industrial Blvd,Duluth,GEORGIA,UNITED STATES,"[-84.170299, 34.003035]"
732,2571 Ashley Phosphate Rd,North Charleston,SOUTH CAROLINA,UNITED STATES,"[-80.05217, 32.93369]"
734,1495 S 6th St,Macclenny,FLORIDA,UNITED STATES,"[-82.122669, 30.262603]"
735,1020 Oak Mountain State Park Rd,Pelham,ALABAMA,UNITED STATES,"[-86.78056, 33.333944]"
736,I-26 & Hwy 108 Ex 67,Columbus,NC,UNITED STATES,"[-82.20422, 35.247389]"
737,2815 Laurens Rd,Greenville,SOUTH CAROLINA,UNITED STATES,"[-82.33408, 34.811575]"
738,1900 1st Ave SE,Moultrie,GEORGIA,UNITED STATES,"[-83.763011, 31.176724]"
739,2101 SW Railroad Ave,Hammond,LOUISIANA,UNITED STATES,"[-90.456678, 30.477968]"
740,1507 US Highway 72 E,Athens,ALABAMA,UNITED STATES,"[-86.93834, 34.783197]"
741,2230 7th St S,Clanton,ALABAMA,UNITED STATES,"[-86.57733, 32.801087]"
743,14860 US Highway 301 S,Rowland,NORTH CAROLINA,UNITED STATES,"[-79.307395, 34.50489]"
746,1310 Oconee St,Athens,GEORGIA,UNITED STATES,"[-83.35841535, 33.94800385]"
750,104 N Keeneland Dr,Richmond,KENTUCKY,UNITED STATES,"[-84.31927, 37.77666]"
751,3550 W Palmetto St,Florence,SOUTH CAROLINA,UNITED STATES,"[-79.866593, 34.157428]"
754,200 W Hanes Mill Rd,Winston Salem,NORTH CAROLINA,UNITED STATES,"[-80.27906554, 36.1884869]"
755,1292 Level Grove Rd,Cornelia,GA,UNITED STATES,"[-83.55072, 34.512431]"
756,1128 N Chalkville Rd,Trussville,ALABAMA,UNITED STATES,"[-86.616238, 33.639227]"
757,10435 Highway 49,Gulfport,MISSISSIPPI,UNITED STATES,"[-89.09743, 30.43832]"
759,1602 Jefferson St,Laurel,MISSISSIPPI,UNITED STATES,"[-89.14739, 31.685752]"
760,205 Stoneridge Dr,Columbia,SOUTH CAROLINA,UNITED STATES,"[-81.076629, 34.015241]"
762,4752 Hwy 78,Loganville,GA,UNITED STATES,"[-83.88405, 33.83348]"
763,121 John McGhee Blvd,Caryville,TENNESSEE,UNITED STATES,"[-84.213563, 36.298002]"
764,37 Inn Rd,Carrollton,KENTUCKY,UNITED STATES,"[-85.12345234, 38.64935283]"
765,3123 Highway 190 W,Hammond,LOUISIANA,UNITED STATES,"[-90.49983, 30.504208]"
766,119A Cedar Ln,Knoxville,TENNESSEE,UNITED STATES,"[-83.968892, 36.013218]"
768,102 Lect Dr,Perry,GEORGIA,UNITED STATES,"[-83.752416, 32.447579]"
769,6941 GA Highway 21,Port Wentworth,GEORGIA,UNITED STATES,"[-81.19393, 32.187662]"
770,1646 Bells Hwy,Walterboro,SOUTH CAROLINA,UNITED STATES,"[-80.687976, 32.928945]"
771,2034 S Milledge Ave,Athens,GEORGIA,UNITED STATES,"[-83.3795, 33.923055]"
772,3455 Macon Rd,Columbus,GEORGIA,UNITED STATES,"[-84.93833, 32.484108]"
773,1941 Hwy 441,Madison,GA,UNITED STATES,"[-83.477125, 33.559662]"
774,2320 S Sherwood Forest Blvd,Baton Rouge,LOUISIANA,UNITED STATES,"[-91.05737726, 30.43213324]"
775,4896 University Dr NW,Huntsville,ALABAMA,UNITED STATES,"[-86.657072, 34.738659]"
776,1795 Asheville Hwy,Spartanburg,SOUTH CAROLINA,UNITED STATES,"[-81.970888, 34.98314]"
777,143 Highway 74 S,Peachtree City,GEORGIA,UNITED STATES,"[-84.588922, 33.395467]"
778,1398 Austell Rd SE,Marietta,GEORGIA,UNITED STATES,"[-84.54907, 33.91883]"
779,865 Goodman Rd W,Horn Lake,MISSISSIPPI,UNITED STATES,"[-90.00494, 34.962506]"
780,3707 Summerville Rd,Phenix City,ALABAMA,UNITED STATES,"[-85.01597, 32.497212]"
782,1281 S 48th St,Springdale,ARKANSAS,UNITED STATES,"[-94.1835685, 36.17449526]"
783,1702 E Oglethorpe Blvd,Albany,GEORGIA,UNITED STATES,"[-84.10712, 31.57076]"
784,2360 Westbelt Dr,Columbus,OHIO,UNITED STATES,"[-83.12299239, 40.00224597]"
785,807 E Harden St,Graham,NORTH CAROLINA,UNITED STATES,"[-79.38219, 36.061711]"
786,5071 Peachtree Industrial Blvd,Chamblee,GA,UNITED STATES,"[-84.313663, 33.888283]"
788,130 Scenic Gulf Dr,Miramar Beach,FLORIDA,UNITED STATES,"[-86.351386, 30.377749]"
791,3635 Austell Rd SW,Marietta,GEORGIA,UNITED STATES,"[-84.594442, 33.865028]"
792,8325 W McDowell Rd,Tolleson,ARIZONA,UNITED STATES,"[-112.239187, 33.465058]"
793,9420 Daniels Pkwy,Fort Myers,FLORIDA,UNITED STATES,"[-81.79928124, 26.5469082]"
794,3069 Wilma Rudolph Blvd,Clarksville,TENNESSEE,UNITED STATES,"[-87.28780952, 36.59492755]"
795,1570 Buford Hwy,Buford,GEORGIA,UNITED STATES,"[-84.0124, 34.097511]"
796,111 Days Inn Dr,Mooresville,NORTH CAROLINA,UNITED STATES,"[-80.85724, 35.594201]"
797,3164 Deans Bridge Rd,Augusta,GEORGIA,UNITED STATES,"[-82.06222, 33.42203]"
798,1290 Archer Dr,Troy,OHIO,UNITED STATES,"[-84.22567862, 40.02601161]"
799,2250 S Main St,Greensboro,GEORGIA,UNITED STATES,"[-83.201973, 33.549058]"
801,2597 Cobbs Ford Rd,Prattville,ALABAMA,UNITED STATES,"[-86.389859, 32.461303]"
802,707 Stewarts Ferry Pike,Nashville,TENNESSEE,UNITED STATES,"[-86.62556121, 36.15400811]"
803,11213 Frontage Rd,Walton,KENTUCKY,UNITED STATES,"[-84.631532, 38.917408]"
804,714 S Main St,King,NORTH CAROLINA,UNITED STATES,"[-80.36341, 36.262615]"
805,907 Fox Run Pkwy,Opelika,ALABAMA,UNITED STATES,"[-85.35469, 32.644407]"
806,1168 Malabar Rd SE,Palm Bay,FLORIDA,UNITED STATES,"[-80.63252, 27.99758]"
807,197 Towne Lake Pkwy,Woodstock,GEORGIA,UNITED STATES,"[-84.527623, 34.102593]"
808,1551 S Eufaula Ave,Eufaula,ALABAMA,UNITED STATES,"[-85.153527, 31.873048]"
809,444 Tift College Dr,Forsyth,GEORGIA,UNITED STATES,"[-83.92359, 33.03485]"
810,1921 Mlk Blvd,Malvern,AR,UNITED STATES,"[-92.82859, 34.39329]"
812,1203 Martin St N,Pell City,ALABAMA,UNITED STATES,"[-86.2829, 33.603128]"
814,4540 N Highway 81,Anderson,SOUTH CAROLINA,UNITED STATES,"[-82.60015, 34.630471]"
815,9450 White Settlement Rd,Fort Worth,TEXAS,UNITED STATES,"[-97.47981, 32.76085]"
817,4314 American Way,Memphis,TENNESSEE,UNITED STATES,"[-89.920604, 35.075448]"
818,9570 Asheville Hwy,Inman,SOUTH CAROLINA,UNITED STATES,"[-82.03237, 35.02592]"
819,1090 W Main St,Hendersonville,TENNESSEE,UNITED STATES,"[-86.65572332, 36.30734927]"
820,8185 E Main St,Ridgeland,SOUTH CAROLINA,UNITED STATES,"[-80.97439, 32.478705]"
822,1113 Sumter Hwy,Bishopville,SOUTH CAROLINA,UNITED STATES,"[-80.27723, 34.19628]"
823,907 E Main St,Benson,NORTH CAROLINA,UNITED STATES,"[-78.53805, 35.375693]"
824,2610 Highway 62 N,Orange,TEXAS,UNITED STATES,"[-93.82040735, 30.11393181]"
825,2140 Moody Pkwy,Moody,ALABAMA,UNITED STATES,"[-86.519549, 33.570904]"
826,2998 Grand Point Hwy,Breaux Bridge,LOUISIANA,UNITED STATES,"[-91.832716, 30.313436]"
827,2130 Mount Zion Pkwy,Morrow,GEORGIA,UNITED STATES,"[-84.32075, 33.56233]"
829,105 Frontage Rd,Aiken,SOUTH CAROLINA,UNITED STATES,"[-81.739172, 33.638365]"
830,1133 W Wade Hampton Blvd,Greer,SOUTH CAROLINA,UNITED STATES,"[-82.25658, 34.942544]"
831,4210 Lakeland Hills Blvd,Lakeland,FLORIDA,UNITED STATES,"[-81.952064, 28.09634]"
832,106 Larson St,Jackson,MISSISSIPPI,UNITED STATES,"[-90.168405, 32.303702]"
833,4614 Cleburne Blvd,Dublin,VIRGINIA,UNITED STATES,"[-80.69008, 37.082212]"
834,2727 McGavock Pike,Nashville,TENNESSEE,UNITED STATES,"[-86.68897951, 36.21577351]"
835,985 W South Blvd,Montgomery,ALABAMA,UNITED STATES,"[-86.33319, 32.326678]"
836,2998 S State Highway 360,Grand Prairie,TEXAS,UNITED STATES,"[-97.061237, 32.692333]"
838,1800 N University Ave,Lafayette,LOUISIANA,UNITED STATES,"[-92.03783042, 30.2542478]"
840,4140 Marlane Dr,Grove City,OHIO,UNITED STATES,"[-83.05329031, 39.87821656]"
841,903 Buford Rd,Cumming,GEORGIA,UNITED STATES,"[-84.133187, 34.179323]"
842,3021 Paxville Hwy,Manning,SOUTH CAROLINA,UNITED STATES,"[-80.24316, 33.703403]"
843,556 Donelson Pike,Nashville,TENNESSEE,UNITED STATES,"[-86.66697264, 36.14446975]"
844,112 E NC Highway 54,Durham,NORTH CAROLINA,UNITED STATES,"[-78.93353, 35.910143]"
845,3335 Steve Reynolds Blvd,Duluth,GEORGIA,UNITED STATES,"[-84.14139, 33.95379]"
846,5105 Plaza Dr,Hopewell,VIRGINIA,UNITED STATES,"[-77.32489261, 37.26279028]"
847,1001 Clemson Frontage Rd,Columbia,SOUTH CAROLINA,UNITED STATES,"[-80.8556, 34.097093]"
848,326 S Mount Juliet Rd,Mount Juliet,TENNESSEE,UNITED STATES,"[-86.514925, 36.168494]"
849,382 E Beach Blvd,Gulf Shores,ALABAMA,UNITED STATES,"[-87.68195, 30.24931]"
850,10931 Alabama Hy 168,Boaz,AL,UNITED STATES,"[-86.151491, 34.199402]"
851,64 Broadway St,Dry Ridge,KENTUCKY,UNITED STATES,"[-84.598503, 38.682281]"
852,321 Z Highway Z,Saint Robert,MISSOURI,UNITED STATES,"[-92.14127, 37.822226]"
853,5602 Mableton Pkwy SW,Mableton,GEORGIA,UNITED STATES,"[-84.575973, 33.817792]"
854,19 W May St,Winder,GEORGIA,UNITED STATES,"[-83.72429, 33.99155]"
855,1724 S Highland Ave,Jackson,TENNESSEE,UNITED STATES,"[-88.81434997, 35.56417346]"
857,5350 Cherokee St,Acworth,GEORGIA,UNITED STATES,"[-84.67639, 34.0782]"
858,875 Johnston Pkwy,Kenly,NORTH CAROLINA,UNITED STATES,"[-78.14762, 35.58159]"
859,1979 Mel Browning St,Bowling Green,KENTUCKY,UNITED STATES,"[-86.416413, 36.931966]"
860,8582 Navarre Pkwy,Navarre,FLORIDA,UNITED STATES,"[-86.86405, 30.402206]"
861,405 E Renfro St,Burleson,TEXAS,UNITED STATES,"[-97.313805, 32.544351]"
862,571 S Main St,Alpharetta,GEORGIA,UNITED STATES,"[-84.31003, 34.066383]"
864,545 Quintard Dr,Oxford,ALABAMA,UNITED STATES,"[-85.827384, 33.615254]"
865,949 Louisville Hwy,Goodlettsville,TENNESSEE,UNITED STATES,"[-86.715211, 36.35108]"
866,100 Egan Road,Crowley,LA,UNITED STATES,"[-92.387086, 30.236434]"
867,500 Fieldstown Rd,Gardendale,ALABAMA,UNITED STATES,"[-86.819517, 33.652325]"
868,1410 AR-9,Morrilton,AR,UNITED STATES,"[-92.717308, 35.170669]"
869,13101 Flowerwood Rd,Loxley,ALABAMA,UNITED STATES,"[-87.760007, 30.647833]"
870,4050 Boatways Rd,Fort Myers,FLORIDA,UNITED STATES,"[-81.79618716, 26.68454163]"
871,3350 14th Ave SE,Conover,NORTH CAROLINA,UNITED STATES,"[-81.26352, 35.704687]"
872,5146 Mercer University Dr,Macon,GEORGIA,UNITED STATES,"[-83.73106, 32.8324]"
873,2021 E Blue Lick Rd,Shepherdsville,KENTUCKY,UNITED STATES,"[-85.70251, 38.061507]"
874,310 Brannon Rd,Cumming,GEORGIA,UNITED STATES,"[-84.17322, 34.15553]"
875,18 Roper Mountain Rd,Greenville,SOUTH CAROLINA,UNITED STATES,"[-82.31568, 34.837178]"
877,4370 Jonesboro Rd,Union City,GEORGIA,UNITED STATES,"[-84.53205, 33.56699]"
880,2308 SE Walton Blvd,Bentonville,ARKANSAS,UNITED STATES,"[-94.18569, 36.334712]"
881,2A Gateway Blvd W,Savannah,GEORGIA,UNITED STATES,"[-81.285267, 32.005849]"
882,3998 Methodist Cir,Bessemer,ALABAMA,UNITED STATES,"[-86.91722394, 33.33685902]"
883,2900 W Radio Dr,Florence,SOUTH CAROLINA,UNITED STATES,"[-79.836375, 34.188309]"
884,2660 S McKenzie St,Foley,ALABAMA,UNITED STATES,"[-87.683585, 30.375629]"
885,2507 Pentee Dr,Gainesville,GEORGIA,UNITED STATES,"[-83.79985, 34.2824]"
886,629 Woodbury Hwy,Manchester,TENNESSEE,UNITED STATES,"[-86.08729, 35.497548]"
887,5701 Milgen Rd,Columbus,GEORGIA,UNITED STATES,"[-84.88872, 32.522608]"
888,1363 Highway 29 S,Newnan,GEORGIA,UNITED STATES,"[-84.77872, 33.32542]"
889,216 Blythewood Rd,Blythewood,SOUTH CAROLINA,UNITED STATES,"[-80.979082, 34.214703]"
891,4800 Highway 18 W,Jackson,MISSISSIPPI,UNITED STATES,"[-90.269803, 32.289718]"
892,3210 N Monroe St,Tallahassee,FLORIDA,UNITED STATES,"[-84.3149, 30.48613]"
893,603 Park St,Belmont,NORTH CAROLINA,UNITED STATES,"[-81.0284, 35.25269]"
894,411 N Cedar Bluff Rd,Knoxville,TENNESSEE,UNITED STATES,"[-84.09343933, 35.92306234]"
896,8915 N Highway 146,Mont Belvieu,TEXAS,UNITED STATES,"[-94.898937, 29.823854]"
897,2404 N Arkansas Ave,Russellville,ARKANSAS,UNITED STATES,"[-93.13783, 35.304466]"
898,4375 Tilly Mill Rd,Doraville,GEORGIA,UNITED STATES,"[-84.281203, 33.922659]"
899,2260 Sigman Rd SW,Conyers,GEORGIA,UNITED STATES,"[-84.061981, 33.682604]"
900,3915 Lawrenceville Hwy NW,Lilburn,GEORGIA,UNITED STATES,"[-84.111779, 33.906299]"
901,11749 E Colonial Dr,Orlando,FLORIDA,UNITED STATES,"[-81.20865429, 28.56691103]"
902,5656 Indian River Rd,Virginia Beach,VIRGINIA,UNITED STATES,"[-76.189172, 36.805149]"
903,3939 Sunset Blvd,West Columbia,SOUTH CAROLINA,UNITED STATES,"[-81.14311, 34.007553]"
907,9295 N Main St,Englewood,OHIO,UNITED STATES,"[-84.2797, 39.856709]"
908,3305 Point Mallard Pkwy SE,Decatur,ALABAMA,UNITED STATES,"[-86.909485, 34.53619]"
910,446 S Main St,Statesboro,GEORGIA,UNITED STATES,"[-81.784651, 32.435174]"
911,14106 Statesville Rd,Huntersville,NORTH CAROLINA,UNITED STATES,"[-80.85442019, 35.40831196]"
913,113 James Asbury Dr NW,Cleveland,TENNESSEE,UNITED STATES,"[-84.868961, 35.212382]"
914,1729 Bessemer City Rd,Gastonia,NORTH CAROLINA,UNITED STATES,"[-81.23398063, 35.27919748]"
915,6350 Tara Blvd,Jonesboro,GEORGIA,UNITED STATES,"[-84.37581, 33.58099]"
916,705 W Main St,Monteagle,TENNESSEE,UNITED STATES,"[-85.848772, 35.240086]"
917,766 DeKalb Industrial Way,Decatur,GEORGIA,UNITED STATES,"[-84.28018, 33.7991]"
918,100 Jackson Ct,Lumberton,NORTH CAROLINA,UNITED STATES,"[-79.0042, 34.667903]"
919,2215 Highway 71,Marianna,FLORIDA,UNITED STATES,"[-85.18585, 30.725826]"
920,7203 Garth Rd,Baytown,TEXAS,UNITED STATES,"[-94.982332, 29.805748]"
922,4065 Peachtree Rd NE,Brookhaven,GEORGIA,UNITED STATES,"[-84.339214, 33.861191]"
923,5900 Jimmy Carter Blvd,Norcross,GEORGIA,UNITED STATES,"[-84.211353, 33.921121]"
924,5685 Bells Ferry Rd,Acworth,GEORGIA,UNITED STATES,"[-84.57704, 34.08775]"
925,25101 Perdido Beach Blvd,Orange Beach,ALABAMA,UNITED STATES,"[-87.596376, 30.267602]"
926,25 Thomas Griffin Rd,Newberry,SOUTH CAROLINA,UNITED STATES,"[-81.57654, 34.31002]"
927,4615 I 55 N,Jackson,MISSISSIPPI,UNITED STATES,"[-90.15288, 32.35658]"
929,2580 Davie Rd,Davie,FLORIDA,UNITED STATES,"[-80.22756, 26.090223]"
930,5328 Jefferson Davis Hwy,Fredericksburg,VIRGINIA,UNITED STATES,"[-77.49853, 38.243733]"
931,1079 S Willow Ave,Cookeville,TENNESSEE,UNITED STATES,"[-85.52783369, 36.13903975]"
932,1620 Kentucky Mills Dr,Jeffersontown,KENTUCKY,UNITED STATES,"[-85.53937, 38.218947]"
933,5377 Beach Blvd,Mason,OHIO,UNITED STATES,"[-84.26701492, 39.35887288]"
934,32 Barber Blvd,Waynesville,NORTH CAROLINA,UNITED STATES,"[-82.98979, 35.5033]"
935,476 Northside Dr E,Statesboro,GEORGIA,UNITED STATES,"[-81.763, 32.439036]"
936,56 Travelers Rest Rd,Jasper,GEORGIA,UNITED STATES,"[-84.460155, 34.466032]"
938,308 Thomas Rd,West Monroe,LOUISIANA,UNITED STATES,"[-92.157735, 32.509006]"
939,8600 Farrow Rd,Columbia,SOUTH CAROLINA,UNITED STATES,"[-80.96144, 34.095983]"
940,14991 Old Hickory Blvd,Nashville,TENNESSEE,UNITED STATES,"[-86.71137, 36.045417]"
941,120 S Goose Creek Blvd,Goose Creek,SOUTH CAROLINA,UNITED STATES,"[-80.039923, 32.990946]"
942,15 Son in Law Rd,Bonifay,FLORIDA,UNITED STATES,"[-85.68379, 30.765614]"
943,2915 Lawrenceville Suwanee Rd,Suwanee,GEORGIA,UNITED STATES,"[-84.045619, 34.027677]"
944,410 1st Ave,East Ellijay,GEORGIA,UNITED STATES,"[-84.47734377, 34.67674064]"
945,1635 Elton Rd,Jennings,LOUISIANA,UNITED STATES,"[-92.66321, 30.241004]"
946,2505 McCain Blvd,North Little Rock,ARKANSAS,UNITED STATES,"[-92.237279, 34.797286]"
947,140 Brownswitch Rd,Slidell,LOUISIANA,UNITED STATES,"[-89.76795, 30.31114]"
949,4302 Big Tree Way,Greensboro,NORTH CAROLINA,UNITED STATES,"[-79.88961, 36.058363]"
950,816 Murfreesboro Pike,Nashville,TENNESSEE,UNITED STATES,"[-86.72421646, 36.13525924]"
951,609 Long Point Rd,Mount Pleasant,SOUTH CAROLINA,UNITED STATES,"[-79.859072, 32.841299]"
952,2250 Yale Blvd SE,Albuquerque,NEW MEXICO,UNITED STATES,"[-106.621781, 35.05612]"
953,3467 Mundy Mill Road,Gainesville,GA,UNITED STATES,"[-83.864436, 34.223251]"
954,4560 Hamilton Rd,Lagrange,GEORGIA,UNITED STATES,"[-84.95245, 32.960831]"
955,4223 Appalachian Hwy,Blue Ridge,GEORGIA,UNITED STATES,"[-84.32148, 34.874005]"
956,243 Spur 5,Winnie,TEXAS,UNITED STATES,"[-94.38435, 29.830714]"
957,105 McMeans Ave,Bay Minette,ALABAMA,UNITED STATES,"[-87.784275, 30.878853]"
958,821 S Park St,Carrollton,GEORGIA,UNITED STATES,"[-85.077079, 33.566278]"
959,4285 Pio Nono Ave,Macon,GEORGIA,UNITED STATES,"[-83.6676, 32.786138]"
960,2661 Powder Springs Rd SW,Marietta,GEORGIA,UNITED STATES,"[-84.63107, 33.86757]"
961,150 E Loop 820,Fort Worth,TEXAS,UNITED STATES,"[-97.21313, 32.77772]"
962,500 E Bowman Rd,Little Rock,AR,UNITED STATES,"[-92.40715241, 34.75016859]"
963,811 S James Campbell Blvd,Columbia,TN,UNITED STATES,"[-87.057585, 35.596461]"
964,980 J Clyde Morris Blvd,Newport News,VIRGINIA,UNITED STATES,"[-76.45879, 37.095366]"
965,5045 Augusta Rd,Lexington,SOUTH CAROLINA,UNITED STATES,"[-81.19924, 33.978661]"
966,1050 E Dublin Granville Rd,Columbus,OHIO,UNITED STATES,"[-82.989467, 40.088088]"
967,7391 Northwoods Blvd,North Charleston,SOUTH CAROLINA,UNITED STATES,"[-80.04533, 32.93624]"
968,1000 Memorial Blvd,Picayune,MISSISSIPPI,UNITED STATES,"[-89.668136, 30.517482]"
969,2455 N Frontage Rd,Vicksburg,MISSISSIPPI,UNITED STATES,"[-90.86372, 32.328437]"
970,2903 Martha Berry Hwy NW,Rome,GEORGIA,UNITED STATES,"[-85.17437823, 34.3059809]"
971,300 Henslee Dr,Dickson,TENNESSEE,UNITED STATES,"[-87.37615, 36.077598]"
973,2519 Whiskey Rd,Aiken,SOUTH CAROLINA,UNITED STATES,"[-81.710773, 33.507107]"
974,1201 Bankhead Hwy,Carrollton,GEORGIA,UNITED STATES,"[-85.0361, 33.596247]"
975,3970 F.M. 1382,Grand Prairie,TX,UNITED STATES,"[-96.984936, 32.673897]"
976,1803 W Main St,League City,TEXAS,UNITED STATES,"[-95.116554, 29.502264]"
977,1670 Capital Cir NW,Tallahassee,FLORIDA,UNITED STATES,"[-84.36318, 30.47414]"
978,3824 Tollhouse Dr,Naples,FLORIDA,UNITED STATES,"[-81.685849, 26.155457]"
979,11546 Allen Rd,Jeffersonville,OHIO,UNITED STATES,"[-83.6062351, 39.61736822]"
980,7022 S Mingo Rd,Tulsa,OKLAHOMA,UNITED STATES,"[-95.86856934, 36.06204644]"
981,4284 Bells Ferry Rd NW,Kennesaw,GEORGIA,UNITED STATES,"[-84.5565, 34.054908]"
983,105 Octavia Dr,Brandon,MISSISSIPPI,UNITED STATES,"[-90.035673, 32.280344]"
984,8765 Tara Blvd,Jonesboro,GEORGIA,UNITED STATES,"[-84.363112, 33.515847]"
985,2210 Demere Rd,St Simons Island,GEORGIA,UNITED STATES,"[-81.391295, 31.16059]"
986,1171 W Martintown Rd,North Augusta,SOUTH CAROLINA,UNITED STATES,"[-81.98827, 33.536467]"
988,1901 Martin Luther King Jr Blvd,Panama City,FLORIDA,UNITED STATES,"[-85.65006, 30.18295]"
989,1104 Nashville Hwy,Columbia,TENNESSEE,UNITED STATES,"[-87.016568, 35.636817]"
991,503 N Apollo Dr,Wapakoneta,OHIO,UNITED STATES,"[-84.173529, 40.563723]"
992,1204 Industrial Pkwy,Saraland,ALABAMA,UNITED STATES,"[-88.100325, 30.8024]"
993,8239 Highway 278 NE,Covington,GEORGIA,UNITED STATES,"[-83.83445, 33.599965]"
994,4915 Highway 129 N,Jefferson,GEORGIA,UNITED STATES,"[-83.64325, 34.152088]"
995,820 S Memorial Dr,Greenville,NORTH CAROLINA,UNITED STATES,"[-77.39667, 35.60376]"
996,1909 Highway 157 N,Mansfield,TEXAS,UNITED STATES,"[-97.146086, 32.599903]"
997,1615 Bass Cross Rd,Hogansville,GEORGIA,UNITED STATES,"[-84.87216, 33.16019]"
998,1410 Glenn Blvd SW,Fort Payne,ALABAMA,UNITED STATES,"[-85.751574, 34.437036]"
999,2900 FM 1764 Rd,La Marque,TEXAS,UNITED STATES,"[-95.03564143, 29.40059368]"
1000,2850 E College Ave,Decatur,GEORGIA,UNITED STATES,"[-84.273744, 33.775215]"
1001,12923 Shelbyville Rd,Louisville,KENTUCKY,UNITED STATES,"[-85.513206, 38.243594]"
1002,1161 Rambling Oaks Dr,Norman,OKLAHOMA,UNITED STATES,"[-97.489044, 35.232444]"
1003,1002 Highway 90,Bay Saint Louis,MISSISSIPPI,UNITED STATES,"[-89.356576, 30.313246]"
1004,1900 Commerce Ave,Cullman,ALABAMA,UNITED STATES,"[-86.875404, 34.205996]"
1005,15228 Us 19 South,Thomasville,GA,UNITED STATES,"[-83.946469, 30.857419]"
1006,6840 E Front St,Kansas City,MISSOURI,UNITED STATES,"[-94.50178019, 39.13018108]"
1007,3735 Roswell Rd NE,Atlanta,GEORGIA,UNITED STATES,"[-84.38203, 33.857012]"
1008,8994 University Blvd,North Charleston,SOUTH CAROLINA,UNITED STATES,"[-80.06627, 32.976556]"
1009,2208 Airport Blvd,West Columbia,SOUTH CAROLINA,UNITED STATES,"[-81.097426, 33.952638]"
1010,7301 Abercorn St,Savannah,GEORGIA,UNITED STATES,"[-81.11481, 32.00931]"
1011,580 Warrenton Rd,Fredericksburg,VIRGINIA,UNITED STATES,"[-77.49876191, 38.34545723]"
1012,2761 E Andrew Johnson Hwy,Greeneville,TENNESSEE,UNITED STATES,"[-82.77552, 36.18035]"
1013,183 Highway 43 S,Tuscumbia,ALABAMA,UNITED STATES,"[-87.66717, 34.712593]"
1014,13625 Jones St,Lavonia,GEORGIA,UNITED STATES,"[-83.11745, 34.444663]"
1015,6133 Fairburn Rd,Douglasville,GEORGIA,UNITED STATES,"[-84.7327, 33.75095]"
1016,3163 Hwy 1 S,Port Allen,LOUISIANA,UNITED STATES,"[-91.21686, 30.4239]"
1017,7242 Jonesboro Rd,Morrow,GEORGIA,UNITED STATES,"[-84.3462, 33.55745]"
1018,125 N Interstate Dr,Norman,OKLAHOMA,UNITED STATES,"[-97.48236, 35.219079]"
1020,513 Jonestown Rd,Winston Salem,NORTH CAROLINA,UNITED STATES,"[-80.338442, 36.071341]"
1021,371 Long Shoals Rd,Arden,NORTH CAROLINA,UNITED STATES,"[-82.551838, 35.481243]"
1022,4595 W Broad St,Columbus,OHIO,UNITED STATES,"[-83.12359344, 39.95250512]"
1023,2688 Nc Hwy 24 W,Warsaw,NC,UNITED STATES,"[-78.137512, 34.993599]"
1025,4701 Little Rd,Arlington,TEXAS,UNITED STATES,"[-97.202337, 32.670092]"
1026,4077 Jimmie Dyess Pkwy,Augusta,GEORGIA,UNITED STATES,"[-82.129948, 33.478731]"
1027,4304 Main St,La Place,LOUISIANA,UNITED STATES,"[-90.44505, 30.086957]"
1028,165 Main St,Kimball,TENNESSEE,UNITED STATES,"[-85.685983, 35.043345]"
1029,3907 Arkwright Rd,Macon,GEORGIA,UNITED STATES,"[-83.68692, 32.905787]"
1030,125 Palisade Dr,Brunswick,GEORGIA,UNITED STATES,"[-81.58064, 31.139118]"
1031,125 East Fwy,Vidor,TEXAS,UNITED STATES,"[-94.01565, 30.13262]"
1032,5631 Boydton Plank Rd,North Dinwiddie,VIRGINIA,UNITED STATES,"[-77.46845636, 37.19532167]"
1033,1440 Gadsden Hwy,Birmingham,ALABAMA,UNITED STATES,"[-86.64473355, 33.59718485]"
1034,1300 Highway 9 Byp W,Lancaster,SOUTH CAROLINA,UNITED STATES,"[-80.801391, 34.733382]"
1035,2167 S College St,Auburn,ALABAMA,UNITED STATES,"[-85.503405, 32.563362]"
1036,1914 N Jackson St,Tullahoma,TENNESSEE,UNITED STATES,"[-86.231748, 35.384948]"
1037,101 Rowe Dr,Rocky Mount,NORTH CAROLINA,UNITED STATES,"[-77.81624, 35.966119]"
1038,1470 Holcomb Bridge Rd,Roswell,GEORGIA,UNITED STATES,"[-84.31799, 34.02026]"
1040,102 NE Interchange,Diamondhead,MISSISSIPPI,UNITED STATES,"[-89.37784, 30.37477]"
1041,17137 Dumfries Rd,Dumfries,VIRGINIA,UNITED STATES,"[-77.32578, 38.581897]"
1042,4532 Chamblee Dunwoody Rd,Atlanta,GEORGIA,UNITED STATES,"[-84.31461451, 33.92360642]"
1043,2442 S Oates St,Dothan,ALABAMA,UNITED STATES,"[-85.401503, 31.191598]"
1044,2610 West,Grand Prairie,TX,UNITED STATES,"[-97.045651, 32.678262]"
1045,11126 Front Beach Rd,Panama City Beach,FLORIDA,UNITED STATES,"[-85.817039, 30.183637]"
1046,7329 N Davis Hwy,Pensacola,FLORIDA,UNITED STATES,"[-87.222052, 30.502179]"
1047,175 Commercial Dr.,Georgetown,KY,UNITED STATES,"[-84.539843, 38.220186]"
1048,101 Basic Dr,West Monroe,LOUISIANA,UNITED STATES,"[-92.156657, 32.503333]"
1049,5600 Executive Blvd,Huber Heights,OHIO,UNITED STATES,"[-84.135699, 39.872816]"
1050,5067 J Turner Butler Blvd,Jacksonville,FLORIDA,UNITED STATES,"[-81.598865, 30.245323]"
1051,2427 Old Fort Pkwy,Murfreesboro,TENNESSEE,UNITED STATES,"[-86.44147395, 35.84590852]"
1052,2024 Landmark Ave NE,Corydon,INDIANA,UNITED STATES,"[-86.126611, 38.236528]"
1053,909 Battlefield Pkwy,Ft Oglethorpe,GEORGIA,UNITED STATES,"[-85.249593, 34.953757]"
1054,484 Indian Trail Lilburn Rd NW,Lilburn,GEORGIA,UNITED STATES,"[-84.140081, 33.896526]"
1055,3040 Lakecrest Cir,Lexington,KENTUCKY,UNITED STATES,"[-84.5532, 38.015268]"
1056,111 Village Rd NE,Leland,NORTH CAROLINA,UNITED STATES,"[-77.99687, 34.233395]"
1057,611 Highway 138 W,Stockbridge,GEORGIA,UNITED STATES,"[-84.276155, 33.548644]"
1058,3016 Piedmont Rd NE,Atlanta,GEORGIA,UNITED STATES,"[-84.36815, 33.83714]"
1059,13505 GA Highway 251,Darien,GEORGIA,UNITED STATES,"[-81.446435, 31.393855]"
1061,6220 Zebulon Rd,Macon,GEORGIA,UNITED STATES,"[-83.76589, 32.879227]"
1062,2160 Brice Rd,Reynoldsburg,OHIO,UNITED STATES,"[-82.830144, 39.937074]"
1064,10792 Jones Bridge Rd,Johns Creek,GEORGIA,UNITED STATES,"[-84.22447, 34.045743]"
1065,705 N Main St,Greer,SOUTH CAROLINA,UNITED STATES,"[-82.22487, 34.94893]"
1066,3682 W Andrew Johnson Hwy,Morristown,TENNESSEE,UNITED STATES,"[-83.34712505, 36.19674119]"
1067,5309 S College Rd,Wilmington,NORTH CAROLINA,UNITED STATES,"[-77.89264, 34.141442]"
1068,203 Ambassador Caffery Pkwy,Scott,LOUISIANA,UNITED STATES,"[-92.066132, 30.242515]"
1069,3739 Pamela Rae Dr,Louisville,KENTUCKY,UNITED STATES,"[-85.542568, 38.301011]"
1070,1251A Miracle Strip Pkwy SE,Fort Walton Beach,FLORIDA,UNITED STATES,"[-86.598235, 30.397367]"
1071,62 N 400 Center Ln,Dawsonville,GEORGIA,UNITED STATES,"[-84.03632, 34.364685]"
1072,3811 Hwy 119 At I-25,Longmont,CO,UNITED STATES,"[-104.984198, 40.160874]"
1073,8010 Lavelle Way,Pensacola,FLORIDA,UNITED STATES,"[-87.31468, 30.5201]"
1074,1030 Highway 34 E,Newnan,GEORGIA,UNITED STATES,"[-84.7445, 33.39689]"
1075,780 Arlington Rd,Brookville,OHIO,UNITED STATES,"[-84.42488109, 39.84528139]"
1076,2816 Watson Blvd,Centerville,GEORGIA,UNITED STATES,"[-83.6822, 32.618602]"
1077,1000 Highway 155 S,McDonough,GEORGIA,UNITED STATES,"[-84.16514, 33.409072]"
1078,6501 Warden Rd,Sherwood,ARKANSAS,UNITED STATES,"[-92.203419, 34.814768]"
1079,1350 Broad St,Sumter,SOUTH CAROLINA,UNITED STATES,"[-80.390005, 33.95638]"
1080,959 W Memorial Rd,Oklahoma City,OKLAHOMA,UNITED STATES,"[-97.53028, 35.609188]"
1081,1505 Dean Forest Rd,Savannah,GEORGIA,UNITED STATES,"[-81.20108, 32.071875]"
1082,11 Roe Rd,Travelers Rest,SOUTH CAROLINA,UNITED STATES,"[-82.43588, 34.95962]"
1083,1121 S Jefferson Ave,Cookeville,TENNESSEE,UNITED STATES,"[-85.5038, 36.133031]"
1084,1759 Beach Blvd,Biloxi,MISSISSIPPI,UNITED STATES,"[-88.94251, 30.39362]"
1085,1432 N Central Expy,McKinney,TEXAS,UNITED STATES,"[-96.63718, 33.210598]"
1086,301 Highway 49,Byron,GA,UNITED STATES,"[-83.74315, 32.66027]"
1087,7035 Highway 153,Hixson,TENNESSEE,UNITED STATES,"[-85.246589, 35.185537]"
1089,2006 Old Spanish Trl,Slidell,LOUISIANA,UNITED STATES,"[-89.765929, 30.250523]"
1090,1006 Airport Blvd,Morrisville,NORTH CAROLINA,UNITED STATES,"[-78.81952, 35.858814]"
1091,1886 Highway 20 SE,Conyers,GEORGIA,UNITED STATES,"[-84.013814, 33.637713]"
1092,17110 Back Beach Rd,Panama City Beach,FL,UNITED STATES,"[-85.888259, 30.230469]"
1093,1850 Ashville Rd,Leeds,ALABAMA,UNITED STATES,"[-86.522318, 33.564141]"
1094,20514 Highway 365 N,North Little Rock,ARKANSAS,UNITED STATES,"[-92.38241347, 34.88482577]"
1095,318 Harding Pl,Nashville,TENNESSEE,UNITED STATES,"[-86.693121, 36.08727]"
1096,17352 Perdido Key Dr,Pensacola,FLORIDA,UNITED STATES,"[-87.517294, 30.281987]"
1098,810 Kings Hwy,Port Charlotte,FLORIDA,UNITED STATES,"[-82.050292, 27.017327]"
1099,1012 Georgetown Rd,Lexington,KENTUCKY,UNITED STATES,"[-84.50680237, 38.076761]"
1100,3335 S Cobb Dr SE,Smyrna,GEORGIA,UNITED STATES,"[-84.529388, 33.87234]"
1101,7855 Adairsville Hwy,Adairsville,GEORGIA,UNITED STATES,"[-84.91671, 34.377455]"
1102,910 S Pendleton St,Easley,SOUTH CAROLINA,UNITED STATES,"[-82.60142, 34.81745]"
1103,1015 Highway 6 N,Houston,TEXAS,UNITED STATES,"[-95.645548, 29.785721]"
1104,2992 Bienville Blvd,Ocean Springs,MISSISSIPPI,UNITED STATES,"[-88.787867, 30.413174]"
1105,7414 Strawberry Plains Pike,Knoxville,TENNESSEE,UNITED STATES,"[-83.77258436, 36.00574178]"
1106,74 Hiram Acworth Hwy,Hiram,GEORGIA,UNITED STATES,"[-84.754082, 33.892477]"
1107,201 E County Line Rd,Littleton,COLORADO,UNITED STATES,"[-104.985786, 39.566571]"
1108,120 W Spring Valley Rd,Richardson,TEXAS,UNITED STATES,"[-96.73953, 32.94017]"
1109,1064 Bear Creek Blvd,Hampton,GEORGIA,UNITED STATES,"[-84.301406, 33.381931]"
1110,2837 Keith Bridge Rd,Cumming,GEORGIA,UNITED STATES,"[-84.08776, 34.253527]"
1111,9800 Blairwood Rd,Louisville,KENTUCKY,UNITED STATES,"[-85.579355, 38.22536]"
1113,7031 Theodore Dawes Rd,Theodore,ALABAMA,UNITED STATES,"[-88.206648, 30.560252]"
1114,2812 Chapel Hill Rd,Douglasville,GEORGIA,UNITED STATES,"[-84.73713, 33.72906]"
1115,1811 W Mercury Blvd,Hampton,VIRGINIA,UNITED STATES,"[-76.39046809, 37.04114381]"
1116,5041 Market St,Wilmington,NORTH CAROLINA,UNITED STATES,"[-77.88106, 34.244535]"
1117,7035 Enterprise Dr,Olive Branch,MISSISSIPPI,UNITED STATES,"[-89.856555, 34.963152]"
1118,16401 Square Dr,Marysville,OHIO,UNITED STATES,"[-83.34244637, 40.2404898]"
1119,10137 N Main St,Archdale,NORTH CAROLINA,UNITED STATES,"[-79.95744, 35.90511]"
1120,1049 Anderson Rd S,Rock Hill,SOUTH CAROLINA,UNITED STATES,"[-80.9856, 34.914669]"
1121,510 N State of Franklin Rd,Johnson City,TENNESSEE,UNITED STATES,"[-82.38820747, 36.31315835]"
1122,4319 Butler Hill Rd,Saint Louis,MISSOURI,UNITED STATES,"[-90.357978, 38.485899]"
1124,4689 Volunteer Rd,Davie,FLORIDA,UNITED STATES,"[-80.346639, 26.061395]"
1125,12370 Arnold Mill Rd,Alpharetta,GEORGIA,UNITED STATES,"[-84.35795, 34.08318]"
1127,13727 E Independence Blvd,Indian Trail,NORTH CAROLINA,UNITED STATES,"[-80.66135, 35.085079]"
1128,2505 E Walnut Ave,Dalton,GEORGIA,UNITED STATES,"[-84.93065, 34.764064]"
1129,7163 E State Route 37,Sunbury,OHIO,UNITED STATES,"[-82.93386445, 40.2667348]"
1130,2610 Ridge Rd,Rockwall,TEXAS,UNITED STATES,"[-96.469976, 32.898385]"
1131,11152 Tara Blvd,Hampton,GEORGIA,UNITED STATES,"[-84.32509, 33.450242]"
1132,3441 Ernest W Barrett Pkwy NW,Marietta,GEORGIA,UNITED STATES,"[-84.62387, 33.947151]"
1133,5515 Raeford Rd,Fayetteville,NORTH CAROLINA,UNITED STATES,"[-78.975644, 35.043937]"
1134,4135 Sugarloaf Pkwy,Lawrenceville,GEORGIA,UNITED STATES,"[-84.03437, 33.93895]"
1135,7995 E Texas St,Bossier City,LOUISIANA,UNITED STATES,"[-93.630767, 32.54973]"
1136,2621 Ruth St,Sulphur,LOUISIANA,UNITED STATES,"[-93.37627429, 30.21363891]"
1137,722 N Westover Blvd,Albany,GEORGIA,UNITED STATES,"[-84.22279, 31.61674]"
1138,1200 S 5th St,Saint Charles,MISSOURI,UNITED STATES,"[-90.492051, 38.771894]"
1139,2210 Rockford St,Mount Airy,NORTH CAROLINA,UNITED STATES,"[-80.62025, 36.474807]"
1140,3994 N Gloster St,Tupelo,MISSISSIPPI,UNITED STATES,"[-88.706317, 34.314752]"
1142,1034 N Main St,Nicholasville,KENTUCKY,UNITED STATES,"[-84.56363, 37.900933]"
1144,8050 US Highway 42,Florence,KENTUCKY,UNITED STATES,"[-84.644707, 38.983215]"
1146,3309 Centerville Hwy,Snellville,GEORGIA,UNITED STATES,"[-84.04291, 33.811125]"
1147,839 Virginia Ave,Hapeville,GEORGIA,UNITED STATES,"[-84.41673, 33.65879]"
1148,24148 Welcome Way Dr,Ruther Glen,VIRGINIA,UNITED STATES,"[-77.47436, 37.934746]"
1149,3275 Cobb Pkwy NW,Acworth,GEORGIA,UNITED STATES,"[-84.67737, 34.034177]"
1150,9650 Medlock Bridge Rd,Johns Creek,GEORGIA,UNITED STATES,"[-84.19104, 34.01662]"
1151,5419 Highway 280,Birmingham,ALABAMA,UNITED STATES,"[-86.665639, 33.415323]"
1152,1901 Welbon Rd,Roanoke Rapids,NC,UNITED STATES,"[-77.63302, 36.431547]"
1153,798 Brevard Rd,Asheville,NORTH CAROLINA,UNITED STATES,"[-82.60521, 35.530716]"
1154,2488 S Cities Service Hwy,Sulphur,LOUISIANA,UNITED STATES,"[-93.325934, 30.211919]"
1155,5329 N State Line Ave,Texarkana,TEXAS,UNITED STATES,"[-94.043494, 33.473603]"
1156,1856 Mountain Ind,Tucker,GA,UNITED STATES,"[-84.20085, 33.83776]"
1157,8220 Pineville Matthews Rd,Pineville,NC,UNITED STATES,"[-80.85833, 35.088099]"
1158,5117 Summerhill Rd,Texarkana,TEXAS,UNITED STATES,"[-94.06828174, 33.4687568]"
1159,2428 Beach Blvd,Biloxi,MISSISSIPPI,UNITED STATES,"[-88.978406, 30.391319]"
1160,1119 Smithville Hwy,Mc Minnville,TENNESSEE,UNITED STATES,"[-85.780751, 35.699983]"
1161,3703 New Bern Ave,Raleigh,NORTH CAROLINA,UNITED STATES,"[-78.576877, 35.798085]"
1162,4575 State Route 20,Niceville,FL,UNITED STATES,"[-86.41552, 30.48281]"
1163,1304 Veterans Blvd,Festus,MISSOURI,UNITED STATES,"[-90.4076965, 38.21317695]"
1164,1683 Fort Campbell Blvd,Clarksville,TENNESSEE,UNITED STATES,"[-87.40958, 36.580126]"
1165,5448 Highway 90 W,Mobile,ALABAMA,UNITED STATES,"[-88.17009, 30.586361]"
1166,1738 Opelika Rd,Auburn,ALABAMA,UNITED STATES,"[-85.44458, 32.62565]"
1167,3998 Colonel Glenn Hwy,Beavercreek,OHIO,UNITED STATES,"[-84.079356, 39.774918]"
1168,536 Haywood Rd,Greenville,SOUTH CAROLINA,UNITED STATES,"[-82.339922, 34.846767]"
1169,6310 Hollywood Rd,Amarillo,TEXAS,UNITED STATES,"[-101.905816, 35.117043]"
1170,101 Brook Ln,Spring Lake,NORTH CAROLINA,UNITED STATES,"[-78.98116, 35.17933]"
1171,7401 NE Parvin Rd,Kansas City,MISSOURI,UNITED STATES,"[-94.4952437, 39.16830719]"
1172,1700 Howell Mill Rd NW,Atlanta,GEORGIA,UNITED STATES,"[-84.41589, 33.80063]"
1174,310 Russell Pkwy,Warner Robins,GEORGIA,UNITED STATES,"[-83.628042, 32.594114]"
1175,1627 Woodruff Rd,Greenville,SOUTH CAROLINA,UNITED STATES,"[-82.274884, 34.819551]"
1176,351 Airport Rd S,Pearl,MISSISSIPPI,UNITED STATES,"[-90.07326, 32.27359]"
1177,965 Lanier Ave W,Fayetteville,GEORGIA,UNITED STATES,"[-84.48482, 33.448872]"
1178,1240 Candler Rd,Gainesville,GEORGIA,UNITED STATES,"[-83.81684, 34.263539]"
1179,80 Alabama Hwy 75 N,Albertville,AL,UNITED STATES,"[-86.203483, 34.276909]"
1180,3500 Hillsborough Rd,Durham,NORTH CAROLINA,UNITED STATES,"[-78.950163, 36.021388]"
1181,380 E National Rd,Vandalia,OHIO,UNITED STATES,"[-84.19276394, 39.89129296]"
1182,1629 NC Highway 67,Jonesville,NORTH CAROLINA,UNITED STATES,"[-80.819249, 36.239536]"
1183,790 Old Hickory Blvd,Brentwood,TENNESSEE,UNITED STATES,"[-86.77945, 36.04097]"
1184,5037 Oscar Baxter Dr,Tuscaloosa,ALABAMA,UNITED STATES,"[-87.55132, 33.1648]"
1185,3099 Us 90,Gautier,MS,UNITED STATES,"[-88.65999, 30.3927]"
1186,2521 S Main St,Weatherford,TEXAS,UNITED STATES,"[-97.78854, 32.728274]"
1187,2344 Boundary St,Beaufort,SOUTH CAROLINA,UNITED STATES,"[-80.70228, 32.44105]"
1188,5466 Highway 153,Hixson,TENNESSEE,UNITED STATES,"[-85.247871, 35.139765]"
1189,1710 Epps Bridge Pkwy,Athens,GEORGIA,UNITED STATES,"[-83.44784, 33.913939]"
1190,5102 Williamsburg Rd,Richmond,VIRGINIA,UNITED STATES,"[-77.343852, 37.517836]"
1191,1507 N Beckley Ave,Desoto,TX,UNITED STATES,"[-96.82351, 32.61921]"
1192,1939 W Tennessee St,Tallahassee,FLORIDA,UNITED STATES,"[-84.316072, 30.448581]"
1193,2057 Gordon Hwy,Augusta,GEORGIA,UNITED STATES,"[-82.06314, 33.45154]"
1194,1205 Lakes Pkwy,Lawrenceville,GEORGIA,UNITED STATES,"[-84.037589, 33.963833]"
1195,1035 By Pass 123,Seneca,SOUTH CAROLINA,UNITED STATES,"[-82.97758, 34.69311]"
1196,3871 Highway 78 W,Snellville,GEORGIA,UNITED STATES,"[-84.064803, 33.840127]"
1197,2635 Cong W L Dickinson Dr,Montgomery,ALABAMA,UNITED STATES,"[-86.230191, 32.420278]"
1198,7813 Broad River Rd,Irmo,SOUTH CAROLINA,UNITED STATES,"[-81.178815, 34.099816]"
1199,1805 S Pleasant Valley Rd,Winchester,VIRGINIA,UNITED STATES,"[-78.165579, 39.164994]"
1200,3319 Old Milton Pkwy,Alpharetta,GEORGIA,UNITED STATES,"[-84.26775, 34.06873]"
1201,4930 Raleigh Road Pkwy W,Wilson,NORTH CAROLINA,UNITED STATES,"[-77.99916, 35.763038]"
1202,804 N Lake Shore Dr,Lake Charles,LOUISIANA,UNITED STATES,"[-93.225625, 30.237489]"
1203,2330 E Morris Blvd,Morristown,TENNESSEE,UNITED STATES,"[-83.26458, 36.220976]"
1204,10327 Front Beach Rd,Panama City Beach,FLORIDA,UNITED STATES,"[-85.806028, 30.177733]"
1205,1249 S Germantown Rd,Germantown,TENNESSEE,UNITED STATES,"[-89.8026, 35.115196]"
1206,735 E Oglethorpe Hwy,Hinesville,GEORGIA,UNITED STATES,"[-81.58154, 31.851816]"
1207,1501 W Fairmont Pkwy,La Porte,TEXAS,UNITED STATES,"[-95.03464422, 29.65184902]"
1208,1831 S Country Club Dr,Mesa,ARIZONA,UNITED STATES,"[-111.8400856, 33.38176751]"
1209,8400 Brook Rd,Glen Allen,VIRGINIA,UNITED STATES,"[-77.46022, 37.638296]"
1210,8107 Geyer Springs Rd,Little Rock,ARKANSAS,UNITED STATES,"[-92.343714, 34.676248]"
1211,4395 Cornelia Hwy,Lula,GEORGIA,UNITED STATES,"[-83.69209, 34.395171]"
1212,1021 Georgia Highway 100 S,Tallapoosa,GEORGIA,UNITED STATES,"[-85.26172, 33.686889]"
1213,1530 E Main St,Duncan,SOUTH CAROLINA,UNITED STATES,"[-82.10325, 34.91009]"
1214,6635 US Highway 129,Live Oak,FLORIDA,UNITED STATES,"[-82.963847, 30.329722]"
1215,545 Peachtree Industrial Blvd,Suwanee,GEORGIA,UNITED STATES,"[-84.07623, 34.06181]"
1216,2477 S Church St,Murfreesboro,TENNESSEE,UNITED STATES,"[-86.397144, 35.807403]"
1217,1612 State Highway 34 S,Terrell,TEXAS,UNITED STATES,"[-96.276892, 32.704486]"
1218,794 Nissan Dr,Smyrna,TENNESSEE,UNITED STATES,"[-86.49277, 35.974142]"
1219,1410 Dura Dr SW,Marietta,GEORGIA,UNITED STATES,"[-84.58186, 33.91883]"
1220,3865 I-10 South,Beaumont,TX,UNITED STATES,"[-94.15413, 30.039647]"
1221,9190 Grand Bay Wilmer Rd S,Grand Bay,ALABAMA,UNITED STATES,"[-88.33481, 30.49913]"
1223,9700 NE Barry Rd,Kansas City,MISSOURI,UNITED STATES,"[-94.45959, 39.24505]"
1224,1032 Randolph St,Thomasville,NORTH CAROLINA,UNITED STATES,"[-80.072388, 35.86487]"
1225,3833 Nashville Rd,Franklin,KENTUCKY,UNITED STATES,"[-86.558442, 36.669783]"
1226,3085 Broadway,Urbancrest,OHIO,UNITED STATES,"[-83.078501, 39.900922]"
1228,7070 Gulf Blvd,St Pete Beach,FLORIDA,UNITED STATES,"[-82.74966791, 27.73925945]"
1229,10081 3rd Ave,D'lberville,MISSISSIPPI,UNITED STATES,"[-88.89299, 30.42982]"
1231,4128 S National Ave,Springfield,MISSOURI,UNITED STATES,"[-93.27794, 37.138681]"
1232,3640 Canada Rd,Lakeland,TENNESSEE,UNITED STATES,"[-89.73745003, 35.22465842]"
1233,14384 Vera Mcgowan Dr,Walker,LA,UNITED STATES,"[-90.862899, 30.473333]"
1234,5607 NC Highway 42 W,Garner,NORTH CAROLINA,UNITED STATES,"[-78.57003, 35.603396]"
1235,1625 Ball Ground Hwy,Canton,GEORGIA,UNITED STATES,"[-84.463824, 34.2588]"
1236,1848 Decherd Blvd,Decherd,TENNESSEE,UNITED STATES,"[-86.09373536, 35.20508993]"
1238,2693 Boones Creek Rd,Johnson City,TENNESSEE,UNITED STATES,"[-82.427909, 36.374394]"
1239,2108 S Western St,Amarillo,TEXAS,UNITED STATES,"[-101.884278, 35.18975]"
1240,1225 Hamilton Lebanon Rd E,Monroe,OHIO,UNITED STATES,"[-84.33314, 39.439499]"
1241,808 England St,Ashland,VIRGINIA,UNITED STATES,"[-77.4657, 37.758476]"
1242,2210 N Aspen Ave,Broken Arrow,OKLAHOMA,UNITED STATES,"[-95.815689, 36.074363]"
1243,1736 McCoy Rd,Orlando,FLORIDA,UNITED STATES,"[-81.35716309, 28.45103517]"
1244,1162 5th St SW,Charlottesville,VIRGINIA,UNITED STATES,"[-78.50321636, 38.01157367]"
1245,5825 Northampton Blvd,Virginia Beach,VIRGINIA,UNITED STATES,"[-76.18613, 36.881414]"
1246,3500 Speeks Dr,Midlothian,VIRGINIA,UNITED STATES,"[-77.593743, 37.4402]"
1247,306 N Tyndall Pkwy,Callaway,FLORIDA,UNITED STATES,"[-85.59088, 30.153941]"
1248,580 Fob James Dr,Valley,ALABAMA,UNITED STATES,"[-85.21096, 32.819703]"
1251,2291 W Northwest Hwy,Dallas,TEXAS,UNITED STATES,"[-96.89108, 32.86162]"
1252,1201 Townsgate Ct,Plant City,FLORIDA,UNITED STATES,"[-82.14986802, 28.02544779]"
1253,1820 Highway 138 NE,Conyers,GEORGIA,UNITED STATES,"[-83.985651, 33.670176]"
1254,4215 W Stone Dr,Kingsport,TENNESSEE,UNITED STATES,"[-82.62024948, 36.55288432]"
1255,4390 Jefferson Davis Hwy,Beech Island,SOUTH CAROLINA,UNITED STATES,"[-81.89961, 33.504258]"
1256,1232 E Ash St,Piqua,OHIO,UNITED STATES,"[-84.214518, 40.151674]"
1257,8239 Cincinnati Dayton Rd,West Chester,OHIO,UNITED STATES,"[-84.39559323, 39.34644877]"
1258,2123 Old Minden Rd,Bossier City,LOUISIANA,UNITED STATES,"[-93.70699205, 32.51845551]"
1259,1305 Platte Falls Rd,Platte City,MISSOURI,UNITED STATES,"[-94.76589, 39.352684]"
1260,2825 1/2 61st St,Galveston,TEXAS,UNITED STATES,"[-94.827453, 29.268354]"
1261,1103 Trenton Ave,Findlay,OHIO,UNITED STATES,"[-83.67167514, 41.05856204]"
1262,3340 Gulf Breeze Pkwy,Gulf Breeze,FLORIDA,UNITED STATES,"[-87.084326, 30.387638]"
1263,1921 Boiling Springs Rd,Boiling Springs,SOUTH CAROLINA,UNITED STATES,"[-81.96159, 35.017318]"
1264,828 Highway 76,White House,TENNESSEE,UNITED STATES,"[-86.67759359, 36.46895154]"
1265,1000 Rainbow Dr,Gadsden,ALABAMA,UNITED STATES,"[-86.00437, 33.99764]"
1266,3665 N Atlantic Ave,Cocoa Beach,FLORIDA,UNITED STATES,"[-80.6087656, 28.35253872]"
1267,Hwy 441 / Ga 105,Cornelia,GA,UNITED STATES,"[-83.54557619, 34.54455941]"
1268,1041 Broad St,Sumter,SOUTH CAROLINA,UNITED STATES,"[-80.3745, 33.94781]"
1269,1849 Marietta Hwy,Canton,GEORGIA,UNITED STATES,"[-84.50395, 34.221872]"
1270,6936 Market St,Wilmington,NORTH CAROLINA,UNITED STATES,"[-77.82754, 34.263295]"
1271,2940 Mansell Rd,Alpharetta,GEORGIA,UNITED STATES,"[-84.29547, 34.0373]"
1272,7-E Nine Mile Rd,Pensacola,FL,UNITED STATES,"[-87.272258, 30.533045]"
1273,1509 Highway 101 S,Greer,SOUTH CAROLINA,UNITED STATES,"[-82.16246, 34.895858]"
1274,13612 Crayton Blvd,Hagerstown,MARYLAND,UNITED STATES,"[-77.731624, 39.689562]"
1275,1423 Denny Ave,Pascagoula,MISSISSIPPI,UNITED STATES,"[-88.54945, 30.37098]"
1276,5475 Sunset Blvd,Lexington,SOUTH CAROLINA,UNITED STATES,"[-81.21837, 33.99838]"
1277,2931 N Germantown Rd,Bartlett,TENNESSEE,UNITED STATES,"[-89.792194, 35.20543144]"
1278,114 Fairfax Pike,Stephens City,VIRGINIA,UNITED STATES,"[-78.213529, 39.080574]"
1279,7605 Knightdale Blvd,Knightdale,NORTH CAROLINA,UNITED STATES,"[-78.47365, 35.79982]"
1280,11185 Gulf Blvd,Treasure Island,FLORIDA,UNITED STATES,"[-82.771653, 27.771958]"
1281,105 W Commerce Dr,Bryant,ARKANSAS,UNITED STATES,"[-92.498789, 34.620676]"
1283,2501 Florence Blvd,Florence,ALABAMA,UNITED STATES,"[-87.636888, 34.82864]"
1284,65 Jimmy Hinton Dr,Oxford,ALABAMA,UNITED STATES,"[-85.78795, 33.61352]"
1285,2101 Washington Rd,Thomson,GEORGIA,UNITED STATES,"[-82.502518, 33.514027]"
1286,4500 Kansas Ave,Kansas City,KANSAS,UNITED STATES,"[-94.6817, 39.090001]"
1288,405 Cherry Blossom Way,Georgetown,KENTUCKY,UNITED STATES,"[-84.55315, 38.274323]"
1289,334 Beach Blvd,Jacksonville Beach,FLORIDA,UNITED STATES,"[-81.392738, 30.287898]"
1290,1902 W Lumsden Rd,Brandon,FLORIDA,UNITED STATES,"[-82.31506297, 27.92335183]"
1291,1220 Rebsamen Park Rd,Little Rock,ARKANSAS,UNITED STATES,"[-92.310299, 34.76213]"
1292,326 S Illinois Ave,Oak Ridge,TENNESSEE,UNITED STATES,"[-84.25522602, 36.00653408]"
1293,1207 Martin Luther King Dr,Americus,GA,UNITED STATES,"[-84.252289, 32.06702]"
1294,250 S Indiana Ave,Sellersburg,INDIANA,UNITED STATES,"[-85.7577925, 38.39678268]"
1295,1985 Montgomery Hwy,Hoover,ALABAMA,UNITED STATES,"[-86.79495, 33.348473]"
1296,1710 Zebulon Rd,Griffin,GEORGIA,UNITED STATES,"[-84.28418, 33.19463]"
1297,1035 Western Blvd,Jacksonville,NORTH CAROLINA,UNITED STATES,"[-77.394058, 34.778086]"
1298,110 Venture Dr,Brunswick,GEORGIA,UNITED STATES,"[-81.505608, 31.245402]"
1299,2045 W Spring St,Monroe,GEORGIA,UNITED STATES,"[-83.74444, 33.795964]"
1300,2850 Holcomb Bridge Rd,Alpharetta,GEORGIA,UNITED STATES,"[-84.278609, 33.991254]"
1301,6781 US Highway 90,Daphne,ALABAMA,UNITED STATES,"[-87.90601, 30.65532]"
1302,1417 E Williams St,Apex,NORTH CAROLINA,UNITED STATES,"[-78.83832, 35.711378]"
1303,560 Schillinger Rd S,Mobile,ALABAMA,UNITED STATES,"[-88.22546, 30.67868]"
1304,502 Degeyter Rd,Breaux Bridge,LOUISIANA,UNITED STATES,"[-91.91591838, 30.29394144]"
1305,4141 Ramsey St,Fayetteville,NORTH CAROLINA,UNITED STATES,"[-78.87999, 35.11625]"
1306,2868 Lane St,Kannapolis,NORTH CAROLINA,UNITED STATES,"[-80.56113, 35.49747]"
1307,680 Champion Dr,Canton,NORTH CAROLINA,UNITED STATES,"[-82.85079, 35.55228]"
1308,4505 N Twin City Hwy,Port Arthur,TEXAS,UNITED STATES,"[-93.9342, 29.935965]"
1309,1133 Highway 92,Acworth,GEORGIA,UNITED STATES,"[-84.65462, 34.0819]"
1310,100270 Overseas Hwy,Key Largo,FLORIDA,UNITED STATES,"[-80.43409035, 25.10049953]"
1311,1980 Alabama Ave S,Bremen,GEORGIA,UNITED STATES,"[-85.151038, 33.688344]"
1312,2200 W Center St,Beebe,ARKANSAS,UNITED STATES,"[-91.910682, 35.068968]"
1313,8135 Varnavas Dr,Cordova,TENNESSEE,UNITED STATES,"[-89.792284, 35.188251]"
1314,406 Church Rd W,Southaven,MISSISSIPPI,UNITED STATES,"[-89.99754, 34.93404]"
1315,1515 Cleveland Hwy,Dalton,GEORGIA,UNITED STATES,"[-84.961964, 34.801277]"
1316,5001 Skyland Blvd E,Tuscaloosa,ALABAMA,UNITED STATES,"[-87.46998, 33.176588]"
1317,2325 Reeves St,Dothan,ALABAMA,UNITED STATES,"[-85.38851, 31.256202]"
1318,655 Columbia Ave,Chapin,SOUTH CAROLINA,UNITED STATES,"[-81.325462, 34.176243]"
1319,8635 Hankins Rd,Charlotte,NORTH CAROLINA,UNITED STATES,"[-80.8354, 35.341087]"
1320,3224 Bill Foster Memorial Hwy,Cabot,ARKANSAS,UNITED STATES,"[-92.06105, 34.946177]"
1321,1512 N John Young Pkwy,Kissimmee,FLORIDA,UNITED STATES,"[-81.416352, 28.305665]"
1322,8 Maury River Rd,Lexington,VIRGINIA,UNITED STATES,"[-79.41152, 37.803333]"
1323,451 S Broadway,Oak Grove,MISSOURI,UNITED STATES,"[-94.128263, 39.012152]"
1324,3960 Vogel Rd,Arnold,MISSOURI,UNITED STATES,"[-90.39172, 38.41672]"
1325,495 Premier Cir,Charlottesville,VIRGINIA,UNITED STATES,"[-78.481082, 38.074396]"
1326,11240 Westheimer Rd,Houston,TEXAS,UNITED STATES,"[-95.57488487, 29.73677559]"
1327,1455 E Santa Fe St,Olathe,KANSAS,UNITED STATES,"[-94.79549198, 38.88365223]"
1328,2103 Highway 72 W,Corinth,MISSISSIPPI,UNITED STATES,"[-88.54423, 34.930838]"
1329,1593 Bear Creek Pike,Columbia,TENNESSEE,UNITED STATES,"[-86.89473213, 35.64285724]"
1330,605 N Marine Blvd,Jacksonville,NORTH CAROLINA,UNITED STATES,"[-77.41587, 34.7609]"
1331,261 Belle Hill Rd,Elkton,MARYLAND,UNITED STATES,"[-75.805584, 39.635596]"
1332,1054 Mebane Oaks Rd,Mebane,NORTH CAROLINA,UNITED STATES,"[-79.27357, 36.073722]"
1333,4520 Yadkin Rd,Fayetteville,NORTH CAROLINA,UNITED STATES,"[-78.958161, 35.08011]"
1334,1912 Plaudit Pl,Lexington,KENTUCKY,UNITED STATES,"[-84.41584474, 38.01854388]"
1335,21360 Highway 221 N,Laurens,SOUTH CAROLINA,UNITED STATES,"[-82.00685, 34.555169]"
1337,2320 Satellite Blvd,Duluth,GEORGIA,UNITED STATES,"[-84.09283, 33.976988]"
1338,1680 Main St,Chipley,FLORIDA,UNITED STATES,"[-85.55065, 30.75232]"
1339,5045 N Beach St,Fort Worth,TEXAS,UNITED STATES,"[-97.29063, 32.83572]"
1340,5010 Academy Ln,Bessemer,ALABAMA,UNITED STATES,"[-87.003984, 33.366589]"
1341,1201 E King Ave,Kingsland,GEORGIA,UNITED STATES,"[-81.66348, 30.792714]"
1342,10422 Sharpsburg Pike,Hagerstown,MARYLAND,UNITED STATES,"[-77.730058, 39.600497]"
1343,67 Long Branch Rd,Dahlonega,GEORGIA,UNITED STATES,"[-83.96769, 34.469371]"
1344,760 Glynn St S,Fayetteville,GEORGIA,UNITED STATES,"[-84.45626, 33.434342]"
1345,2627 W Deer Valley Rd,Phoenix,ARIZONA,UNITED STATES,"[-112.1163873, 33.68382238]"
1346,154 Regions Way,Destin,FLORIDA,UNITED STATES,"[-86.419385, 30.389262]"
1347,1020 W Highway 287 Byp,Waxahachie,TEXAS,UNITED STATES,"[-96.84098, 32.42065]"
1348,650 Whitlock Ave NW,Marietta,GEORGIA,UNITED STATES,"[-84.57125, 33.95187]"
1349,1275 Fry Rd,Katy,TEXAS,UNITED STATES,"[-95.719234, 29.788454]"
1350,251 AA Hwy,Highland Heights,KENTUCKY,UNITED STATES,"[-84.47022, 39.010564]"
1351,2230 Chesnee Hwy,Spartanburg,SOUTH CAROLINA,UNITED STATES,"[-81.89537, 35.022177]"
1352,7100 Concourse Pkwy,Douglasville,GEORGIA,UNITED STATES,"[-84.761013, 33.730082]"
1353,643 Highway 92 S,Dandridge,TENNESSEE,UNITED STATES,"[-83.43625, 36.036668]"
1354,2804 SW 45th Ave,Amarillo,TEXAS,UNITED STATES,"[-101.869558, 35.163999]"
1355,3090 Highway 49 S,Florence,MISSISSIPPI,UNITED STATES,"[-90.12439, 32.15495]"
1356,148 Well Rd,West Monroe,LOUISIANA,UNITED STATES,"[-92.192025, 32.514344]"
1357,6371 Us Hwy 90,Morgan City,LA,UNITED STATES,"[-91.19817, 29.699251]"
1358,145 SE Bandit St,Madison,FLORIDA,UNITED STATES,"[-83.3579, 30.398623]"
1359,4291 Washington Rd,Evans,GEORGIA,UNITED STATES,"[-82.12571, 33.534992]"
1360,11967 Bobby Eleutrius Blvd,Diberville,MISSISSIPPI,UNITED STATES,"[-88.899071, 30.456702]"
1361,4219 Woodbine Rd,Pace,FLORIDA,UNITED STATES,"[-87.176181, 30.592119]"
1362,2002 Boulevard,Colonial Heights,VIRGINIA,UNITED STATES,"[-77.41136281, 37.25842238]"
1363,3251 Western Branch Blvd,Chesapeake,VIRGINIA,UNITED STATES,"[-76.409091, 36.864416]"
1365,2965 Pelham Pkwy,Pelham,ALABAMA,UNITED STATES,"[-86.809705, 33.29887]"
1366,1355 Joe Frank Harris Pkwy SE,Cartersville,GEORGIA,UNITED STATES,"[-84.818549, 34.206494]"
1367,8007 Tucker Rd,Biloxi,MISSISSIPPI,UNITED STATES,"[-88.84374, 30.458126]"
1368,1131 W Pearce Blvd,Wentzville,MISSOURI,UNITED STATES,"[-90.87211, 38.811231]"
1369,3303 M L King Jr Blvd,New Bern,NORTH CAROLINA,UNITED STATES,"[-77.09378, 35.099924]"
1370,18159 Highland Rd,Baton Rouge,LOUISIANA,UNITED STATES,"[-91.027557, 30.348542]"
1371,113 Linda Ann Ave,Gray,LOUISIANA,UNITED STATES,"[-90.78325445, 29.68153302]"
1372,2053 Gunter Ave,Guntersville,ALABAMA,UNITED STATES,"[-86.313668, 34.336708]"
1373,644 Nashville Pike,Gallatin,TENNESSEE,UNITED STATES,"[-86.46064629, 36.3822901]"
1375,3601A Walden Dr,Lexington,KENTUCKY,UNITED STATES,"[-84.49582626, 37.98314643]"
1376,1238D S Rogers St,Clarksville,ARKANSAS,UNITED STATES,"[-93.465725, 35.453932]"
1377,908 W Government St,Brandon,MISSISSIPPI,UNITED STATES,"[-89.99844, 32.2774]"
1379,7200 Tanner Ln,Moss Point,MISSISSIPPI,UNITED STATES,"[-88.53128, 30.446232]"
1380,3565 E Irvington Rd,Tucson,ARIZONA,UNITED STATES,"[-110.916343, 32.163516]"
1382,34 Contractors Way,Ridgeway,SOUTH CAROLINA,UNITED STATES,"[-81.00306, 34.30773]"
1383,1902 W Moore Ave,Terrell,TEXAS,UNITED STATES,"[-96.30704, 32.73724]"
1384,36 Shields Rd,Huntsville,ALABAMA,UNITED STATES,"[-86.527315, 34.77476]"
1385,8555 Keshav Taylor Dr,Milton,FLORIDA,UNITED STATES,"[-86.964737, 30.621041]"
1386,1548 E Wooster St,Bowling Green,OHIO,UNITED STATES,"[-83.62519, 41.374393]"
1387,352 Whiteville Rd NW,Shallotte,NORTH CAROLINA,UNITED STATES,"[-78.401978, 33.973861]"
1388,4 N 130th St,Bonner Springs,KANSAS,UNITED STATES,"[-94.88263, 39.097703]"
1389,2000 Wayne Memorial Dr,Goldsboro,NORTH CAROLINA,UNITED STATES,"[-77.96509, 35.397114]"
1391,414 Deltona Blvd,Deltona,FLORIDA,UNITED STATES,"[-81.280643, 28.873023]"
1392,4410 Hwy 154,Newnan,GEORGIA,UNITED STATES,"[-84.696286, 33.446572]"
1393,380 Highway 109 N,Lebanon,TENNESSEE,UNITED STATES,"[-86.410292, 36.189702]"
1394,1249 Harrisburg Pike,Carlisle,PENNSYLVANIA,UNITED STATES,"[-77.132955, 40.23471]"
1395,301 Little Hills Expy,Saint Charles,MISSOURI,UNITED STATES,"[-90.47553, 38.805805]"
1396,4045 Clay St,Vicksburg,MISSISSIPPI,UNITED STATES,"[-90.83718, 32.344056]"
1397,709 Radford Blvd,Dillon,SOUTH CAROLINA,UNITED STATES,"[-79.3715, 34.439]"
1398,12020 Standiford Plaza Dr,Louisville,KENTUCKY,UNITED STATES,"[-85.666623, 38.086684]"
1399,306 E Potomac St,Williamsport,MARYLAND,UNITED STATES,"[-77.809188, 39.603597]"
1400,3270 Buford Dr,Buford,GEORGIA,UNITED STATES,"[-83.98741, 34.067734]"
1401,251 W Rendon Crowley Rd,Burleson,TEXAS,UNITED STATES,"[-97.32312, 32.577277]"
1402,4082 Charles Hardy Pkwy,Dallas,GEORGIA,UNITED STATES,"[-84.72421, 33.93383]"
1403,2502 S Highway 77,Lynn Haven,FLORIDA,UNITED STATES,"[-85.649677, 30.220458]"
1404,185 Mary Grubbs Hwy,Walton,KENTUCKY,UNITED STATES,"[-84.621543, 38.858654]"
1405,7106 Bailey Creek Cir SE,Huntsville,ALABAMA,UNITED STATES,"[-86.539, 34.672915]"
1406,1683 N Columbia St,Milledgeville,GEORGIA,UNITED STATES,"[-83.24622, 33.0997]"
1407,2727 Peters Creek Pkwy,Winston Salem,NORTH CAROLINA,UNITED STATES,"[-80.25888, 36.053245]"
1408,2740 Richmond Rd,Lexington,KENTUCKY,UNITED STATES,"[-84.45409, 38.008092]"
1410,3085 E Parkway Dr,Russellville,ARKANSAS,UNITED STATES,"[-93.09506, 35.281641]"
1411,17201 Outer Rd.,Belton,MO,UNITED STATES,"[-94.501015, 38.812113]"
1412,2122 Veterans Blvd,Dublin,GEORGIA,UNITED STATES,"[-82.956702, 32.541857]"
1413,6636 Highway 53 E,Dawsonville,GEORGIA,UNITED STATES,"[-84.034579, 34.361063]"
1414,924 Hyatt St,Gaffney,SOUTH CAROLINA,UNITED STATES,"[-81.7031, 35.07939]"
1415,465 Gordonsville Hwy,Gordonsville,TENNESSEE,UNITED STATES,"[-85.94781, 36.181887]"
1416,27935 S W Fwy,Rosenberg,TX,UNITED STATES,"[-95.806012, 29.531645]"
1417,537 Highway 441 S,Clayton,GEORGIA,UNITED STATES,"[-83.400124, 34.871078]"
1418,3470 Thomasville Rd,Tallahassee,FLORIDA,UNITED STATES,"[-84.250111, 30.507236]"
1419,1002 King George Blvd,Savannah,GEORGIA,UNITED STATES,"[-81.21865, 31.985738]"
1420,2080 Litton Ln,Hebron,KENTUCKY,UNITED STATES,"[-84.7076, 39.0779]"
1421,3020 Western Center Blvd,Fort Worth,TEXAS,UNITED STATES,"[-97.31673, 32.861]"
1422,3764 Cheek Sparger Rd,Bedford,TEXAS,UNITED STATES,"[-97.103573, 32.865368]"
1423,12215 Dorsett Rd,Maryland Hts,MISSOURI,UNITED STATES,"[-90.443991, 38.715309]"
1424,9201 W Highway 98,Pensacola,FLORIDA,UNITED STATES,"[-87.339882, 30.402917]"
1425,20130 W Catawba Ave,Cornelius,NORTH CAROLINA,UNITED STATES,"[-80.88026, 35.482182]"
1426,6127 Financial Plz,Shreveport,LOUISIANA,UNITED STATES,"[-93.862968, 32.44977]"
1427,4229 Hard Scrabble Rd,Columbia,SOUTH CAROLINA,UNITED STATES,"[-80.914795, 34.138991]"
1428,998 Cedar Lake Rd,Biloxi,MISSISSIPPI,UNITED STATES,"[-88.933672, 30.447499]"
1429,6097 Highway 43,Satsuma,ALABAMA,UNITED STATES,"[-88.047218, 30.870063]"
1430,90 Folmar Pkwy,Montgomery,ALABAMA,UNITED STATES,"[-86.357313, 32.268719]"
1431,436 N West Byp,Springfield,MISSOURI,UNITED STATES,"[-93.348405, 37.213348]"
1432,9009 Highway 71 S,Fort Smith,ARKANSAS,UNITED STATES,"[-94.38814, 35.297614]"
1433,157 Asheville Hwy,Sylva,NORTH CAROLINA,UNITED STATES,"[-83.212938, 35.377136]"
1434,2319 Gillespie St,Fayetteville,NORTH CAROLINA,UNITED STATES,"[-78.89565, 35.01832]"
1435,723 W Pine St,Ponchatoula,LOUISIANA,UNITED STATES,"[-90.45256, 30.43768]"
1436,5875 Highway 105,Beaumont,TEXAS,UNITED STATES,"[-94.17009937, 30.13342175]"
1437,406 FM 1960 Rd,Houston,TEXAS,UNITED STATES,"[-95.422912, 30.022807]"
1439,1000A Foxcroft Ave,Martinsburg,WEST VIRGINIA,UNITED STATES,"[-77.9873, 39.444545]"
1440,6751 Veterans Pkwy,Columbus,GEORGIA,UNITED STATES,"[-84.95417, 32.54251]"
1441,604 Highway 17 S,North Myrtle Beach,SOUTH CAROLINA,UNITED STATES,"[-78.685455, 33.824245]"
1442,791 Business Park Dr,Prattville,ALABAMA,UNITED STATES,"[-86.41085, 32.487647]"
1443,1334 Walker Chapel Rd,Fultondale,ALABAMA,UNITED STATES,"[-86.80454, 33.608409]"
1444,7715 Bardstown Rd,Louisville,KENTUCKY,UNITED STATES,"[-85.579666, 38.135101]"
1445,104 E Church St,Sandersville,GEORGIA,UNITED STATES,"[-82.8109, 32.98149]"
1446,3090 Walden Rd,Tallahassee,FLORIDA,UNITED STATES,"[-84.16231, 30.48346]"
1447,491 Lewiston Rd,Grovetown,GEORGIA,UNITED STATES,"[-82.19998, 33.486006]"
1448,800 W Highway 114,Roanoke,TEXAS,UNITED STATES,"[-97.234014, 33.014862]"
1449,468 Kennedy Ave,Calvert City,KENTUCKY,UNITED STATES,"[-88.32771, 37.003675]"
1450,2499 Lincoln Hwy E,Lancaster,PENNSYLVANIA,UNITED STATES,"[-76.19298, 40.02243942]"
1451,1323 Riverside Pkwy,Belcamp,MARYLAND,UNITED STATES,"[-76.247451, 39.478452]"
1452,3890 Union Deposit Rd,Harrisburg,PENNSYLVANIA,UNITED STATES,"[-76.82445831, 40.27843833]"
1453,10009 Dorchester Rd,Summerville,SOUTH CAROLINA,UNITED STATES,"[-80.1639, 32.95227]"
1454,502 N Berkeley Blvd,Goldsboro,NORTH CAROLINA,UNITED STATES,"[-77.94479, 35.374534]"
1455,1640 Mount Zion Rd,Morrow,GEORGIA,UNITED STATES,"[-84.336438, 33.571525]"
1456,112 Cherokee Xing,Whittier,NORTH CAROLINA,UNITED STATES,"[-83.31636, 35.462173]"
1457,1736 Martin Luther King Jr Blvd,Houma,LOUISIANA,UNITED STATES,"[-90.755482, 29.61292]"
1458,76 Austin Ln,London,KENTUCKY,UNITED STATES,"[-84.11675759, 37.14918374]"
1459,7431 S Siwell Rd,Byram,MISSISSIPPI,UNITED STATES,"[-90.25963, 32.18551]"
1460,10134 Almeda Genoa Rd,Houston,TEXAS,UNITED STATES,"[-95.23556107, 29.6275472]"
1461,1710 Richland Ave W,Aiken,SOUTH CAROLINA,UNITED STATES,"[-81.743774, 33.565218]"
1462,373 Greeno Rd S,Fairhope,ALABAMA,UNITED STATES,"[-87.88571, 30.51433]"
1463,7400 Sandy Ln,Mechanicsville,VIRGINIA,UNITED STATES,"[-77.35591533, 37.61079183]"
1464,5872 Okeechobee Rd,Fort Pierce,FLORIDA,UNITED STATES,"[-80.383771, 27.4177]"
1465,8 Stephen S Green Dr,Savannah,GEORGIA,UNITED STATES,"[-81.235292, 32.139254]"
1466,6026 Bethelview Rd,Cumming,GEORGIA,UNITED STATES,"[-84.17609, 34.163141]"
1467,26046 Dixie Hwy,Perrysburg,OHIO,UNITED STATES,"[-83.63658846, 41.5293704]"
1468,970 S US Highway 231,Ozark,ALABAMA,UNITED STATES,"[-85.641571, 31.439044]"
1469,6484 E Broad St,Columbus,OHIO,UNITED STATES,"[-82.82933523, 39.98104848]"
1470,7428 Garners Ferry Rd,Columbia,SOUTH CAROLINA,UNITED STATES,"[-80.943344, 33.965684]"
1471,2662 Avalon Blvd,Milton,FLORIDA,UNITED STATES,"[-87.08715, 30.53159]"
1472,1699 NE Douglas St,Lees Summit,MISSOURI,UNITED STATES,"[-94.377676, 38.941453]"
1473,3059 N Columbia St,Milledgeville,GEORGIA,UNITED STATES,"[-83.290089, 33.1843]"
1474,1208 S Madison St,Webb City,MISSOURI,UNITED STATES,"[-94.47553, 37.133566]"
1475,961 Gilbert Ferry Rd SE,Attalla,ALABAMA,UNITED STATES,"[-86.09547, 33.99688]"
1476,1807 Edwin Miller Blvd,Martinsburg,WEST VIRGINIA,UNITED STATES,"[-77.95724, 39.486688]"
1477,1834 E Main St,Spartanburg,SOUTH CAROLINA,UNITED STATES,"[-81.8936, 34.96723]"
1478,2100 Highway 54,Peachtree City,GEORGIA,UNITED STATES,"[-84.561296, 33.414087]"
1479,4411 Denny Ave,Pascagoula,MISSISSIPPI,UNITED STATES,"[-88.51561, 30.38556]"
1480,2423 Schillinger Rd S,Mobile,ALABAMA,UNITED STATES,"[-88.22429, 30.640395]"
1481,11208 W Airport Blvd,Stafford,TEXAS,UNITED STATES,"[-95.57323196, 29.64213649]"
1484,1208 Highway 231 S,Troy,ALABAMA,UNITED STATES,"[-85.95237, 31.782603]"
1485,1586 Indian Trail Lilburn Rd,Norcross,GEORGIA,UNITED STATES,"[-84.17094, 33.922076]"
1487,2725 Loganville Hwy,Loganville,GEORGIA,UNITED STATES,"[-83.93804, 33.88095]"
1489,3363 E University Dr,Phoenix,ARIZONA,UNITED STATES,"[-112.00815, 33.41561]"
1490,1009 2nd St W,Tifton,GEORGIA,UNITED STATES,"[-83.52807, 31.45797]"
1491,7000 Thomas Dr,Panama City Beach,FLORIDA,UNITED STATES,"[-85.7727, 30.15688]"
1492,613 Jupiter Rd,Plano,TEXAS,UNITED STATES,"[-96.682777, 33.00618]"
1493,1594 Versailles Rd,Frankfort,KENTUCKY,UNITED STATES,"[-84.81407, 38.17898]"
1494,1121 Cooktown Rd,Ruston,LOUISIANA,UNITED STATES,"[-92.653021, 32.537742]"
1495,2100 Lone Oak Rd,Paducah,KENTUCKY,UNITED STATES,"[-88.6546055, 37.04768713]"
1496,3255 Florence Rd,Powder Springs,GEORGIA,UNITED STATES,"[-84.70283, 33.875235]"
1497,9282 Canal Rd,Gulfport,MISSISSIPPI,UNITED STATES,"[-89.13636, 30.420497]"
1498,7050 Orchard Centre Dr,Holland,OHIO,UNITED STATES,"[-83.71029986, 41.6095534]"
1499,3019 N Main St,Hope Mills,NORTH CAROLINA,UNITED STATES,"[-78.9644, 34.98388]"
1500,1100 Old Peachtree Rd,Duluth,GEORGIA,UNITED STATES,"[-84.07692, 34.00155]"
1501,638 Donaldson Hwy,Erlanger,KENTUCKY,UNITED STATES,"[-84.61651, 39.028827]"
1502,8411 Highway 6 S,Houston,TEXAS,UNITED STATES,"[-95.643271, 29.688873]"
1503,3401 Schillinger Rd N,Semmes,ALABAMA,UNITED STATES,"[-88.22604, 30.761917]"
1504,1183 Polaris Pkwy,Columbus,OHIO,UNITED STATES,"[-82.98842, 40.141402]"
1505,110 Seaborn Dr,Myrtle Beach,SOUTH CAROLINA,UNITED STATES,"[-78.96779, 33.756788]"
1506,309 S Pearson Rd,Pearl,MISSISSIPPI,UNITED STATES,"[-90.13542, 32.269082]"
1507,1515 McFarland Pkwy,Alpharetta,GEORGIA,UNITED STATES,"[-84.22001, 34.11072]"
1508,5565 Northside Dr,Atlanta,GEORGIA,UNITED STATES,"[-84.431455, 33.905783]"
1509,296 W Clinton St,Gray,GEORGIA,UNITED STATES,"[-83.548992, 33.00385]"
1510,1021 Dillerville Rd,Lancaster,PENNSYLVANIA,UNITED STATES,"[-76.323105, 40.053484]"
1511,628 N John Sims Pkwy,Niceville,FL,UNITED STATES,"[-86.50183, 30.52155]"
1512,598 W Main St,Middletown,DELAWARE,UNITED STATES,"[-75.729634, 39.44784]"
1513,7106 Will Clayton Pkwy,Humble,TEXAS,UNITED STATES,"[-95.28128919, 29.98271021]"
1514,592 Carrollton Villa Rica Hwy,Villa Rica,GEORGIA,UNITED STATES,"[-84.938151, 33.720012]"
1515,1655 E Market St,Smithfield,NORTH CAROLINA,UNITED STATES,"[-78.32749, 35.5056]"
1516,19312 E Plaza Dr,Parker,COLORADO,UNITED STATES,"[-104.765346, 39.52657]"
1517,699 Highway 6 E,Batesville,MISSISSIPPI,UNITED STATES,"[-89.93059, 34.310609]"
1518,6797 Commonwealth Ave,Jacksonville,FLORIDA,UNITED STATES,"[-81.75916, 30.336084]"
1519,1063 Highway 19 N,Thomaston,GEORGIA,UNITED STATES,"[-84.334091, 32.925253]"
1520,1522 W Floyd Baker Blvd,Gaffney,SOUTH CAROLINA,UNITED STATES,"[-81.662139, 35.090658]"
1521,750 S Main St,Lumberton,TEXAS,UNITED STATES,"[-94.196118, 30.241736]"
1522,1837 Airport Blvd,Cayce,SOUTH CAROLINA,UNITED STATES,"[-81.088259, 33.960447]"
1523,1039 Space Center Dr,Colorado Springs,COLORADO,UNITED STATES,"[-104.721712, 38.84671]"
1524,1064 Tiger Blvd,Clemson,SOUTH CAROLINA,UNITED STATES,"[-82.83686, 34.69093]"
1525,316 SW 19th St,Moore,OKLAHOMA,UNITED STATES,"[-97.487239, 35.319575]"
1526,2641 Cumberland Falls Hwy,Corbin,KENTUCKY,UNITED STATES,"[-84.13302, 36.917286]"
1527,5022 Capital Cir SW,Tallahassee,FLORIDA,UNITED STATES,"[-84.292935, 30.374088]"
1528,7172 Highway 22,Sorrento,LOUISIANA,UNITED STATES,"[-90.877512, 30.169961]"
1529,4851 Gerrardstown Rd,Inwood,WEST VIRGINIA,UNITED STATES,"[-78.043308, 39.362693]"
1530,1600 Mount Eden Rd,Shelbyville,KENTUCKY,UNITED STATES,"[-85.211758, 38.188942]"
1531,904 Vandiver Dr,Columbia,MISSOURI,UNITED STATES,"[-92.32594, 38.970712]"
1532,397 Ash St,Benton,KENTUCKY,UNITED STATES,"[-88.36061, 36.866875]"
1533,1500 Conowingo Rd,Bel Air,MARYLAND,UNITED STATES,"[-76.354114, 39.567404]"
1534,105 Highway 231 N,Troy,ALABAMA,UNITED STATES,"[-85.97857, 31.794257]"
1535,2849 Ross Clark Cir,Dothan,ALABAMA,UNITED STATES,"[-85.4307, 31.21582]"
1536,1808 E Dixon Blvd,Shelby,NORTH CAROLINA,UNITED STATES,"[-81.496, 35.271481]"
1537,829 High St,Hamilton,OHIO,UNITED STATES,"[-84.552423, 39.396731]"
1538,476 Ohio Pike,Cincinnati,OHIO,UNITED STATES,"[-84.308846, 39.072262]"
1539,5330 S Lindbergh Blvd,Saint Louis,MISSOURI,UNITED STATES,"[-90.36183, 38.525582]"
1540,3031 S Arlington Rd,Akron,OHIO,UNITED STATES,"[-81.49221, 40.988888]"
1541,4900 Highway 90,Pace,FLORIDA,UNITED STATES,"[-87.12026, 30.60347]"
1542,4382 Indian Ripple Rd,Beavercreek,OHIO,UNITED STATES,"[-84.102375, 39.696802]"
1543,509 Dawsonville Hwy,Gainesville,GEORGIA,UNITED STATES,"[-83.851669, 34.29482]"
1544,6725 W Central Ave,Toledo,OHIO,UNITED STATES,"[-83.703466, 41.674491]"
1545,5004 Fairmont Pkwy,Pasadena,TEXAS,UNITED STATES,"[-95.166804, 29.649249]"
1546,1530 Quintard Ave,Anniston,ALABAMA,UNITED STATES,"[-85.827239, 33.664666]"
1547,1608 US Highway 19 S,Leesburg,GEORGIA,UNITED STATES,"[-84.17736, 31.629268]"
1548,1862 Mars Hill Rd NW,Acworth,GEORGIA,UNITED STATES,"[-84.70416, 34.00037]"
1549,2270 US-74 ALT,Forest City,NC,UNITED STATES,"[-81.891446, 35.333735]"
1550,37 S Cory Ln,Smyrna,DELAWARE,UNITED STATES,"[-75.593002, 39.284436]"
1551,2701 E Valencia Rd,Tucson,ARIZONA,UNITED STATES,"[-110.9323467, 32.13418565]"
1552,14173 Highway 90,Boutte,LOUISIANA,UNITED STATES,"[-90.4097, 29.89118]"
1553,7641 Raeford Rd,Fayetteville,NORTH CAROLINA,UNITED STATES,"[-79.051577, 35.026412]"
1554,4770 Lanier Islands Pkwy,Buford,GEORGIA,UNITED STATES,"[-83.95258, 34.14118]"
1555,5646 Buckeystown Pike,Frederick,MARYLAND,UNITED STATES,"[-77.40941, 39.390081]"
1557,318 E Loop 281,Longview,TEXAS,UNITED STATES,"[-94.737662, 32.541677]"
1558,516 Lexington Rd,Versailles,KENTUCKY,UNITED STATES,"[-84.71381, 38.050575]"
1559,1099 N 1st St,Jesup,GEORGIA,UNITED STATES,"[-81.87502, 31.616998]"
1560,670 Magnolia St S,Lincoln,ALABAMA,UNITED STATES,"[-86.12235, 33.59477]"
1561,2380 E Brickyard Rd,Midway,FLORIDA,UNITED STATES,"[-84.423309, 30.48506]"
1562,5414 Williamsburg Rd,Sandston,VIRGINIA,UNITED STATES,"[-77.33732, 37.519019]"
1563,1395 Highlands Ridge Rd SE,Smyrna,GEORGIA,UNITED STATES,"[-84.51865, 33.83978]"
1564,637 Boll Weevil Cir,Enterprise,ALABAMA,UNITED STATES,"[-85.83145, 31.321573]"
1565,859 S Broadway,Lexington,KENTUCKY,UNITED STATES,"[-84.5137077, 38.03978577]"
1566,12880 E Mississippi Ave,Aurora,COLORADO,UNITED STATES,"[-104.838769, 39.696237]"
1567,926 Pleasant Hill Rd,Lawrenceville,GEORGIA,UNITED STATES,"[-84.113919, 33.925602]"
1568,4029 Taylorsville Rd,Louisville,KENTUCKY,UNITED STATES,"[-85.62341, 38.219984]"
1569,3693 Highway 17,Murrells Inlet,SOUTH CAROLINA,UNITED STATES,"[-79.033805, 33.567552]"
1570,15 Glenda Trce,Newnan,GEORGIA,UNITED STATES,"[-84.685428, 33.409059]"
1571,2903 Sterlington Rd,Monroe,LOUISIANA,UNITED STATES,"[-92.07706303, 32.55093647]"
1572,728 N Sam Houston Pkwy E,Houston,TEXAS,UNITED STATES,"[-95.384105, 29.938236]"
1573,5452 Hwy 25  Lakeland Dr,Brandon,MS,UNITED STATES,"[-90.019194, 32.356464]"
1574,6105 White Horse Rd,Greenville,SOUTH CAROLINA,UNITED STATES,"[-82.453353, 34.852842]"
1576,106 E Beach Blvd,Long Beach,MISSISSIPPI,UNITED STATES,"[-89.147192, 30.345412]"
1577,2454 S Reynolds Rd,Toledo,OHIO,UNITED STATES,"[-83.665073, 41.594917]"
1578,1646A Bradley Park Dr,Columbus,GEORGIA,UNITED STATES,"[-84.96604, 32.532288]"
1579,1740 E Spring Creek Pkwy,Plano,TEXAS,UNITED STATES,"[-96.688501, 33.056735]"
1580,E 10401 Us 84 Hwy,Thomasville,GA,UNITED STATES,"[-83.93916, 30.835505]"
1582,9225 Boyd Cooper Pkwy,Montgomery,ALABAMA,UNITED STATES,"[-86.13942249, 32.366576]"
1583,5252 N Henry Blvd,Stockbridge,GEORGIA,UNITED STATES,"[-84.251179, 33.547462]"
1584,1405 N Cassady Ave,Columbus,OHIO,UNITED STATES,"[-82.93016249, 39.99844155]"
1585,1613 W Hebron Pkwy,Carrollton,TEXAS,UNITED STATES,"[-96.93662, 33.02336]"
1586,612 Highway 90 W,New Iberia,LOUISIANA,UNITED STATES,"[-91.857124, 29.985643]"
1587,1305 Highway 20 W,McDonough,GEORGIA,UNITED STATES,"[-84.185362, 33.423029]"
1588,101 E 29th Ave,Apache Junction,ARIZONA,UNITED STATES,"[-111.5449668, 33.3887104]"
1589,1116 League Line Rd,Conroe,TEXAS,UNITED STATES,"[-95.482744, 30.366433]"
1590,460 Racetrack Rd NW,Fort Walton Beach,FLORIDA,UNITED STATES,"[-86.637771, 30.449802]"
1591,12880 Fort Campbell Blvd,Oak Grove,KENTUCKY,UNITED STATES,"[-87.45301813, 36.69338132]"
1592,1350 Canadian Ct,Yukon,OKLAHOMA,UNITED STATES,"[-97.75912, 35.48894]"
1593,3262B Dauphin St,Mobile,ALABAMA,UNITED STATES,"[-88.12237, 30.68906]"
1594,1783 Airport Rd,Allentown,PENNSYLVANIA,UNITED STATES,"[-75.43531, 40.636557]"
1595,3190 Medina Rd,Medina,OHIO,UNITED STATES,"[-81.8018289, 41.13615982]"
1596,8121 Warren H Abernathy Hwy,Spartanburg,SOUTH CAROLINA,UNITED STATES,"[-82.00472, 34.935121]"
1597,503 E 2nd Ave,Owasso,OKLAHOMA,UNITED STATES,"[-95.8502, 36.264683]"
1598,222 Wolfensberger Rd,Castle Rock,COLORADO,UNITED STATES,"[-104.864802, 39.37993]"
1599,1000 US Highway 70 E,New Bern,NORTH CAROLINA,UNITED STATES,"[-77.030801, 35.082125]"
1601,278 Concord Pkwy S,Concord,NORTH CAROLINA,UNITED STATES,"[-80.611743, 35.396231]"
1602,3399 W Michigan Ave,Pensacola,FLORIDA,UNITED STATES,"[-87.30011, 30.46029]"
1604,4824 E Chandler Blvd,Phoenix,ARIZONA,UNITED STATES,"[-111.979201, 33.305954]"
1605,8018 Cumming Hwy,Canton,GEORGIA,UNITED STATES,"[-84.359577, 34.253754]"
1606,500 Pelham Rd N,Jacksonville,ALABAMA,UNITED STATES,"[-85.76132, 33.8185]"
1607,599 Highway 17,Little River,SOUTH CAROLINA,UNITED STATES,"[-78.64596, 33.865872]"
1608,9750 N Congress Ave,Kansas City,MISSOURI,UNITED STATES,"[-94.66994, 39.271492]"
1609,3120 N Patterson St,Valdosta,GEORGIA,UNITED STATES,"[-83.29228, 30.874437]"
1610,9217 Mansfield Rd,Shreveport,LOUISIANA,UNITED STATES,"[-93.80492331, 32.40110603]"
1611,3154 Telegraph Rd,Saint Louis,MISSOURI,UNITED STATES,"[-90.29976, 38.498164]"
1612,531 Canton Rd,Cumming,GEORGIA,UNITED STATES,"[-84.15409, 34.22181]"
1613,4091 W Main St,Dothan,ALABAMA,UNITED STATES,"[-85.4534, 31.233931]"
1614,430 Racetrack Rd,Washington,PENNSYLVANIA,UNITED STATES,"[-80.207963, 40.222341]"
1615,3025A N Main St,Anderson,SOUTH CAROLINA,UNITED STATES,"[-82.66694, 34.53643]"
1616,4875 Alabama Rd NE,Roswell,GEORGIA,UNITED STATES,"[-84.42531, 34.0676]"
1617,2959 Miamisburg Centerville Rd,Miamisburg,OHIO,UNITED STATES,"[-84.225907, 39.638224]"
1618,808 Pulaski Hwy,Havre de Grace,MARYLAND,UNITED STATES,"[-76.101345, 39.552852]"
1619,111 Oak Ct,Slidell,LOUISIANA,UNITED STATES,"[-89.78645, 30.22443]"
1620,2525 54th Ave N,St Petersburg,FLORIDA,UNITED STATES,"[-82.66701579, 27.82119952]"
1621,1629 Gordon Hwy,Augusta,GEORGIA,UNITED STATES,"[-82.015764, 33.439504]"
1622,2310 Highway 411 NE,Cartersville,GEORGIA,UNITED STATES,"[-84.77509, 34.24097]"
1623,7809 E Ben White Blvd,Austin,TEXAS,UNITED STATES,"[-97.68916309, 30.21881619]"
1624,695 Carl Eller Rd,Mars Hill,NORTH CAROLINA,UNITED STATES,"[-82.53887, 35.82024]"
1625,3211 Five Chop Rd,Orangeburg,SOUTH CAROLINA,UNITED STATES,"[-80.73467, 33.457582]"
1626,105 N Strand Pkwy,Myrtle Beach,SOUTH CAROLINA,UNITED STATES,"[-78.985975, 33.651516]"
1627,11244 E Dr Martin Luther King Jr Blvd,Seffner,FLORIDA,UNITED STATES,"[-82.30888165, 27.9819429]"
1628,8505 Benbrook Blvd,Benbrook,TEXAS,UNITED STATES,"[-97.46148, 32.68204]"
1629,1907 E Nine Mile Rd,Pensacola,FLORIDA,UNITED STATES,"[-87.219654, 30.531354]"
1630,7505 Crile Rd,Painesville,OHIO,UNITED STATES,"[-81.24373, 41.666268]"
1631,1170 West Ave SW,Conyers,GEORGIA,UNITED STATES,"[-84.02614, 33.666381]"
1632,1100 Dallas Cherryville Hwy,Dallas,NORTH CAROLINA,UNITED STATES,"[-81.19315, 35.315607]"
1633,1096 Claussen Rd,Augusta,GEORGIA,UNITED STATES,"[-82.032954, 33.521952]"
1634,4375 W Northgate Dr,Irving,TEXAS,UNITED STATES,"[-97.009304, 32.857244]"
1635,933 S State St,Clarks Summit,PENNSYLVANIA,UNITED STATES,"[-75.69556465, 41.48778821]"
1637,3109 S Jupiter Rd,Garland,TEXAS,UNITED STATES,"[-96.68312, 32.87807]"
1638,2512 Cleveland Ave SW,Canton,OHIO,UNITED STATES,"[-81.38634166, 40.77078227]"
1639,747 Upward Rd,Flat Rock,NORTH CAROLINA,UNITED STATES,"[-82.40461, 35.297947]"
1640,613 Thornton Rd,Lithia Springs,GEORGIA,UNITED STATES,"[-84.62145, 33.78854]"
1641,7044 Jimmy Carter Blvd,Norcross,GEORGIA,UNITED STATES,"[-84.240957, 33.945914]"
1642,2725 Salt Springs Rd,Girard,OHIO,UNITED STATES,"[-80.72185988, 41.14308222]"
1643,109 Forest Pkwy,Forest Park,GEORGIA,UNITED STATES,"[-84.38683, 33.618416]"
1644,70 Howard Dr,Shelbyville,KENTUCKY,UNITED STATES,"[-85.266432, 38.203057]"
1645,1412 N Main St,Fuquay Varina,NORTH CAROLINA,UNITED STATES,"[-78.771962, 35.592788]"
1646,2346 Bent Creek Rd,Auburn,ALABAMA,UNITED STATES,"[-85.430921, 32.6074]"
1647,6931 Old Canton Rd,Ridgeland,MISSISSIPPI,UNITED STATES,"[-90.10655, 32.412067]"
1649,13048 Hwy 70 West,Clayton,NC,UNITED STATES,"[-78.498192, 35.66636]"
1650,10337 Ocean Hwy,Pawleys Isl,SOUTH CAROLINA,UNITED STATES,"[-79.129608, 33.437695]"
1651,100 Sugarloaf Rd,Hendersonville,NORTH CAROLINA,UNITED STATES,"[-82.43571, 35.34417]"
1652,1401 N Piedmont Ave,Rockmart,GEORGIA,UNITED STATES,"[-85.043026, 34.009799]"
1653,1106 S Cockrell Hill Rd,Duncanville,TEXAS,UNITED STATES,"[-96.89129, 32.63993]"
1654,4343 Highway 58,Chattanooga,TENNESSEE,UNITED STATES,"[-85.204135, 35.083692]"
1655,1229 W Roosevelt Blvd,Monroe,NORTH CAROLINA,UNITED STATES,"[-80.540809, 34.993905]"
1656,2701 N Roberts Ave,Lumberton,NORTH CAROLINA,UNITED STATES,"[-79.01093, 34.643536]"
1657,10606 US Route 23,Catlettsburg,KENTUCKY,UNITED STATES,"[-82.606244, 38.389012]"
1658,475 N Elm St,Haughton,LOUISIANA,UNITED STATES,"[-93.51410751, 32.5448576]"
1659,4097 Marietta St,Powder Springs,GEORGIA,UNITED STATES,"[-84.67403, 33.85877]"
1660,3522 Clarks River Rd,Paducah,KENTUCKY,UNITED STATES,"[-88.562282, 37.048567]"
1662,8000 Macon Hwy,Athens,GEORGIA,UNITED STATES,"[-83.41286, 33.889717]"
1663,1287 S Houston Lake Rd,Warner Robins,GEORGIA,UNITED STATES,"[-83.66226, 32.5572]"
1664,255 Murtland Ave,Washington,PENNSYLVANIA,UNITED STATES,"[-80.231894, 40.182558]"
1665,112 Railroad Ave,Rutherfordton,NORTH CAROLINA,UNITED STATES,"[-81.94165, 35.363952]"
1666,8906 Fingerboard Rd,Frederick,MARYLAND,UNITED STATES,"[-77.352043, 39.324198]"
1667,1 Melvin Dr,Greenville,SOUTH CAROLINA,UNITED STATES,"[-82.376148, 34.790991]"
1668,708 Highway 49 S,Richland,MISSISSIPPI,UNITED STATES,"[-90.16171, 32.23268]"
1669,68071 Highway 59,Mandeville,LOUISIANA,UNITED STATES,"[-90.04162, 30.414973]"
1670,2735 Forest Pkwy,Ellenwood,GEORGIA,UNITED STATES,"[-84.30039, 33.612171]"
1671,8060 Rockbridge Rd,Lithonia,GEORGIA,UNITED STATES,"[-84.074147, 33.77513]"
1672,2111 Hwy 92,Douglasville,GA,UNITED STATES,"[-84.701634, 33.747586]"
1673,1300 Lincoln Way E,Chambersburg,PENNSYLVANIA,UNITED STATES,"[-77.630757, 39.92774]"
1674,1003 Greensboro Rd,Eatonton,GEORGIA,UNITED STATES,"[-83.26811, 33.422344]"
1675,6637 E Independence Blvd,Charlotte,NORTH CAROLINA,UNITED STATES,"[-80.744201, 35.170445]"
1676,10295 Highway 165 N,Sterlington,LOUISIANA,UNITED STATES,"[-92.04727, 32.681493]"
1677,3565 Savannah Hwy,Johns Island,SOUTH CAROLINA,UNITED STATES,"[-80.108238, 32.802309]"
1678,3323 Fort Campbell Blvd,Clarksville,TENNESSEE,UNITED STATES,"[-87.435792, 36.637992]"
1679,5505 Tinker Diagonal,Del City,OKLAHOMA,UNITED STATES,"[-97.42392, 35.446468]"
1680,3960 S High St,Columbus,OHIO,UNITED STATES,"[-83.00065, 39.881015]"
1681,1405 Martin Springs Dr,Rolla,MISSOURI,UNITED STATES,"[-91.79162, 37.942531]"
1682,1908 Oates Dr,Mesquite,TEXAS,UNITED STATES,"[-96.630426, 32.836526]"
1683,8800 E Highway 290,Austin,TEXAS,UNITED STATES,"[-97.657771, 30.329074]"
1684,1255 Scenic Hwy,Lawrenceville,GEORGIA,UNITED STATES,"[-84.005907, 33.9]"
1685,6207 Highway 221,Roebuck,SOUTH CAROLINA,UNITED STATES,"[-81.96929, 34.839106]"
1687,240 S Loop 336 W,Conroe,TEXAS,UNITED STATES,"[-95.46203648, 30.27907895]"
1688,2880 Browns Bridge Rd,Gainesville,GEORGIA,UNITED STATES,"[-83.87484, 34.279214]"
1689,461 Calhoun Dr,Athens,GEORGIA,UNITED STATES,"[-83.34521259, 33.98614022]"
1690,1114 N Park St,Carrollton,GEORGIA,UNITED STATES,"[-85.0791, 33.59845]"
1691,2101 Cherry Ln,Bethlehem,PENNSYLVANIA,UNITED STATES,"[-75.33919, 40.593523]"
1692,425 Sumter Hwy,Camden,SOUTH CAROLINA,UNITED STATES,"[-80.595467, 34.219942]"
1693,394 Virginia Ave,Daleville,ALABAMA,UNITED STATES,"[-85.72637, 31.300509]"
1694,6035 Bakers Ferry Rd SW,Atlanta,GEORGIA,UNITED STATES,"[-84.57296, 33.72956]"
1695,4384 US Route 60,Huntington,WEST VIRGINIA,UNITED STATES,"[-82.361739, 38.412479]"
1696,5565 Buford Hwy,Norcross,GEORGIA,UNITED STATES,"[-84.20563, 33.94345]"
1698,6305 N 9th Ave,Pensacola,FLORIDA,UNITED STATES,"[-87.197188, 30.488539]"
1699,10 Highway 515,Blairsville,GEORGIA,UNITED STATES,"[-83.95215, 34.880923]"
1700,5970 Memorial Dr,Stone Mountain,GEORGIA,UNITED STATES,"[-84.194576, 33.801985]"
1701,650 S Reilly Rd,Fayetteville,NORTH CAROLINA,UNITED STATES,"[-79.014552, 35.06427]"
1702,452 Highway 90,Waveland,MISSISSIPPI,UNITED STATES,"[-89.3827, 30.30462]"
1703,75 E Meighan Blvd,Gadsden,ALABAMA,UNITED STATES,"[-85.99259, 34.011191]"
1704,1960 Main St E,Snellville,GEORGIA,UNITED STATES,"[-83.994947, 33.855921]"
1705,239 Interstate South Dr,Jasper,GEORGIA,UNITED STATES,"[-84.414831, 34.397991]"
1706,2905 Church St,Conway,SOUTH CAROLINA,UNITED STATES,"[-79.092974, 33.861574]"
1707,1444 E Main St,Lincolnton,NORTH CAROLINA,UNITED STATES,"[-81.233956, 35.477058]"
1708,4180 Austin Bluffs Pkwy,Colorado Springs,COLORADO,UNITED STATES,"[-104.75444, 38.891697]"
1709,745 E Washington Ave,Ashburn,GEORGIA,UNITED STATES,"[-83.6407, 31.710818]"
1710,1494 Niles Cortland Rd SE,Warren,OHIO,UNITED STATES,"[-80.741369, 41.22231]"
1711,715 Thomas Langston Rd,Winterville,NORTH CAROLINA,UNITED STATES,"[-77.40616, 35.560994]"
1712,2922 Wade Hampton Blvd,Taylors,SOUTH CAROLINA,UNITED STATES,"[-82.33162, 34.90427]"
1713,734 N Riverside Dr,Clarksville,TENNESSEE,UNITED STATES,"[-87.367798, 36.541213]"
1714,5610 Old Shell Rd,Mobile,ALABAMA,UNITED STATES,"[-88.172836, 30.689736]"
1715,8682 Asheville Hwy,Boiling Springs,SOUTH CAROLINA,UNITED STATES,"[-82.00588, 35.001714]"
1716,36333 Vine St,Willoughby,OHIO,UNITED STATES,"[-81.42930355, 41.64254322]"
1717,138 Conners Rd,Villa Rica,GEORGIA,UNITED STATES,"[-84.901233, 33.731793]"
1718,805 West Ave,Cartersville,GEORGIA,UNITED STATES,"[-84.815397, 34.158187]"
1719,2701 S Providence Rd,Columbia,MISSOURI,UNITED STATES,"[-92.3363, 38.920563]"
1720,1935 Highway 211 NW,Hoschton,GEORGIA,UNITED STATES,"[-83.808957, 34.093673]"
1721,669 Highway 138 SW,Riverdale,GEORGIA,UNITED STATES,"[-84.41244, 33.54847]"
1722,6122 Hickory Flat Hwy,Canton,GEORGIA,UNITED STATES,"[-84.41959, 34.175906]"
1723,14951 Marsh Ln,Farmers Branch,TEXAS,UNITED STATES,"[-96.85607, 32.952112]"
1724,6390 Flat Rock Rd,Columbus,GEORGIA,UNITED STATES,"[-84.86961, 32.536647]"
1725,8006 White Horse Rd,Greenville,SOUTH CAROLINA,UNITED STATES,"[-82.46784, 34.89288]"
1726,2581 Piedmont Rd NE,Atlanta,GEORGIA,UNITED STATES,"[-84.365945, 33.82564]"
1727,447 Hwy 72 By-Pass Nw,Greenwood,SC,UNITED STATES,"[-82.1831, 34.20917]"
1728,8305 Desiard St,Monroe,LOUISIANA,UNITED STATES,"[-92.03421, 32.529357]"
1729,20 Hosiery Mill Rd,Dallas,GEORGIA,UNITED STATES,"[-84.78724, 33.95655]"
1730,340 E Cornelius Harnett Blvd,Lillington,NORTH CAROLINA,UNITED STATES,"[-78.79849, 35.415224]"
1731,229 Temple Ave,Newnan,GEORGIA,UNITED STATES,"[-84.81592, 33.385076]"
1732,225 US Highway 70 W,Havelock,NORTH CAROLINA,UNITED STATES,"[-76.929563, 34.898621]"
1733,1107 E Dayton Yellow Springs Rd,Fairborn,OHIO,UNITED STATES,"[-83.998785, 39.783623]"
1734,901 Lew Dewitt Blvd,Waynesboro,VIRGINIA,UNITED STATES,"[-78.938103, 38.064396]"
1735,1220 S Blue Mound Rd,Saginaw,TEXAS,UNITED STATES,"[-97.343368, 32.84453]"
1736,120 Western Blvd,Tarboro,NORTH CAROLINA,UNITED STATES,"[-77.548424, 35.889476]"
1737,2284 Gala St,Hubbard,OHIO,UNITED STATES,"[-80.56962, 41.181827]"
1738,2993 Main St,Newberry,SOUTH CAROLINA,UNITED STATES,"[-81.587327, 34.283163]"
1739,21852 Highway 59,Robertsdale,AL,UNITED STATES,"[-87.707983, 30.54339]"
1740,13091 Brown Bridge Rd,Covington,GEORGIA,UNITED STATES,"[-83.96533, 33.578194]"
1741,10910 W 75th St,Shawnee,KANSAS,UNITED STATES,"[-94.71243, 38.993147]"
1742,5055 E McKellips Rd,Mesa,ARIZONA,UNITED STATES,"[-111.720968, 33.451545]"
1743,1868 Russellville Rd,Bowling Green,KENTUCKY,UNITED STATES,"[-86.46733, 36.979887]"
1744,119 Big Valley Dr,Alexandria,ALABAMA,UNITED STATES,"[-85.898318, 33.781858]"
1745,708 Davis St,Scranton,PENNSYLVANIA,UNITED STATES,"[-75.691171, 41.376478]"
1746,1806 Edgewood Rd,Edgewood,MARYLAND,UNITED STATES,"[-76.306392, 39.453867]"
1747,5424 Whipple Ave NW,North Canton,OHIO,UNITED STATES,"[-81.42263045, 40.86000845]"
1748,1705 Delaware Ave,McComb,MISSISSIPPI,UNITED STATES,"[-90.47546, 31.247305]"
1750,543 Carrollton St,Temple,GEORGIA,UNITED STATES,"[-85.02835, 33.72228]"
1751,1727 Hudson Bridge Rd,Stockbridge,GEORGIA,UNITED STATES,"[-84.24268, 33.501521]"
1752,1108 Bypass 25 NE,Greenwood,SOUTH CAROLINA,UNITED STATES,"[-82.14503, 34.20817]"
1753,4003 S DuPont Hwy,Dover,DELAWARE,UNITED STATES,"[-75.540799, 39.104801]"
1754,3898 US Highway 80 W,Phenix City,ALABAMA,UNITED STATES,"[-85.090015, 32.470305]"
1755,115 Saint Stephens Ct,Tyrone,GEORGIA,UNITED STATES,"[-84.5842, 33.488395]"
1756,3500 Apalachee Pkwy,Tallahassee,FLORIDA,UNITED STATES,"[-84.216133, 30.428305]"
1757,1105 W Oak St,Amite,LOUISIANA,UNITED STATES,"[-90.525976, 30.726195]"
1758,596 E Jackson Blvd,Erwin,NORTH CAROLINA,UNITED STATES,"[-78.64634, 35.322986]"
1759,3949 Platt Springs Rd,West Columbia,SOUTH CAROLINA,UNITED STATES,"[-81.14599, 33.94032]"
1760,2106 Ne Evangeline Thruway,Lafayette,LA,UNITED STATES,"[-92.013835, 30.248623]"
1761,9800 Weddington Road Ext,Concord,NORTH CAROLINA,UNITED STATES,"[-80.70944, 35.368397]"
1762,1100 Nortec Dr SE,Conyers,GEORGIA,UNITED STATES,"[-84.01383, 33.593182]"
1764,7415 Spout Springs Rd,Flowery Branch,GEORGIA,UNITED STATES,"[-83.87324, 34.107683]"
1765,1120 W Highway 67,Alvarado,TEXAS,UNITED STATES,"[-97.22528, 32.41599]"
1766,932 Buford Dr,Lawrenceville,GEORGIA,UNITED STATES,"[-83.98473, 33.988643]"
1769,1400 Highway 78 NW,Monroe,GEORGIA,UNITED STATES,"[-83.679932, 33.813335]"
1770,4600 N Valdosta Rd,Valdosta,GEORGIA,UNITED STATES,"[-83.35399, 30.895242]"
1771,4569 Homer Ohio Ln,Groveport,OHIO,UNITED STATES,"[-82.883877, 39.875095]"
1772,1408 Georgia Highway 16 W,Griffin,GEORGIA,UNITED STATES,"[-84.28932, 33.2473]"
1773,5500 Main St,Zachary,LOUISIANA,UNITED STATES,"[-91.147629, 30.647203]"
1774,3249 NC 226 S,Marion,NORTH CAROLINA,UNITED STATES,"[-81.96436, 35.65967]"
1775,298 W James Lee Blvd,Crestview,FLORIDA,UNITED STATES,"[-86.57625, 30.76239]"
1776,9159 Roosevelt Hwy,Palmetto,GEORGIA,UNITED STATES,"[-84.66155, 33.52813]"
1777,3071 Highway 90 W,Avondale,LOUISIANA,UNITED STATES,"[-90.206788, 29.909766]"
1778,1269 Hillcrest Rd,Mobile,ALABAMA,UNITED STATES,"[-88.19031, 30.663221]"
1779,7290 Pendleton Pike,Lawrence,INDIANA,UNITED STATES,"[-86.04051, 39.82999]"
1780,5755 Gender Rd,Canal Winchester,OHIO,UNITED STATES,"[-82.82769, 39.86337]"
1781,4346 Fulton Industrial Blvd SW,Atlanta,GEORGIA,UNITED STATES,"[-84.531072, 33.764423]"
1782,5011 Cottage Hill Rd,Mobile,ALABAMA,UNITED STATES,"[-88.158328, 30.648975]"
1783,2621 S Horner Blvd,Sanford,NORTH CAROLINA,UNITED STATES,"[-79.14259, 35.4577]"
1784,265 Jonesboro Rd,McDonough,GEORGIA,UNITED STATES,"[-84.16691, 33.452695]"
1785,208 Exchange Village Dr E,Spartanburg,SOUTH CAROLINA,UNITED STATES,"[-82.065736, 34.937604]"
1786,20 Auburn Park Dr,Auburn,GEORGIA,UNITED STATES,"[-83.84202, 34.011013]"
1787,1302 Scotland Crossing Dr,Laurinburg,NORTH CAROLINA,UNITED STATES,"[-79.48263, 34.75651]"
1788,1407 N Hervey St,Hope,ARKANSAS,UNITED STATES,"[-93.60431, 33.679827]"
1789,1917 Atlanta Hwy SE,Statham,GEORGIA,UNITED STATES,"[-83.597664, 33.964656]"
1790,2070 W Main St,Centre,ALABAMA,UNITED STATES,"[-85.71588, 34.16175]"
1791,4223 Commonwealth Ct,Saint Joseph,MISSOURI,UNITED STATES,"[-94.79321, 39.72404]"
1792,10457 Sorrento Rd,Pensacola,FLORIDA,UNITED STATES,"[-87.362557, 30.358763]"
1793,719 E Parker Rd,Jonesboro,ARKANSAS,UNITED STATES,"[-90.701848, 35.806598]"
1794,7810 IN-13 S,Pendleton,IN,UNITED STATES,"[-85.84281, 39.9905]"
1795,968 W US Highway 64,Murphy,NORTH CAROLINA,UNITED STATES,"[-84.041253, 35.07817]"
1796,3429 Paris Rd,Chalmette,LOUISIANA,UNITED STATES,"[-89.95984, 29.95054]"
1797,2189 E University Dr,Tempe,ARIZONA,UNITED STATES,"[-111.8923092, 33.42179925]"
1798,1285 Eighteen Mile Rd,Central,SOUTH CAROLINA,UNITED STATES,"[-82.75939, 34.70806]"
1799,1640 Highway 138,Loganville,GEORGIA,UNITED STATES,"[-83.85451, 33.741765]"
1800,5598 Buford Hwy NE,Doraville,GEORGIA,UNITED STATES,"[-84.272459, 33.904411]"
1801,2045 Highway 155 N,McDonough,GEORGIA,UNITED STATES,"[-84.14212, 33.505958]"
1802,13132 Highway 61 N,Robinsonville,MISSISSIPPI,UNITED STATES,"[-90.278325, 34.834358]"
1803,462 E Pine Log Rd,Aiken,SOUTH CAROLINA,UNITED STATES,"[-81.70884, 33.52762]"
1804,106 Laurinburg Rd,Raeford,NORTH CAROLINA,UNITED STATES,"[-79.237009, 34.978336]"
1805,1024 State Highway 59 S,Summerdale,ALABAMA,UNITED STATES,"[-87.70163, 30.47076]"
1806,101 Springville Sta,Springville,ALABAMA,UNITED STATES,"[-86.43041, 33.77759]"
1807,451 E Commerce St,Hernando,MISSISSIPPI,UNITED STATES,"[-89.981919, 34.823602]"
1808,12679 US Route 60,Ashland,KENTUCKY,UNITED STATES,"[-82.716011, 38.388066]"
1809,3080 N Market St,Shreveport,LOUISIANA,UNITED STATES,"[-93.7837224, 32.55845651]"
1810,2451 S Sterling St,Morganton,NORTH CAROLINA,UNITED STATES,"[-81.651576, 35.720085]"
1811,4320 Hartley Bridge Rd,Macon,GEORGIA,UNITED STATES,"[-83.71361, 32.74244]"
1812,2920 Highway 501 E,Aynor,SOUTH CAROLINA,UNITED STATES,"[-79.20141, 33.991614]"
1813,916 Frontage Dr W,Wiggins,MISSISSIPPI,UNITED STATES,"[-89.154782, 30.849175]"
1814,2305 Vintage Ct,Excelsior Springs,MISSOURI,UNITED STATES,"[-94.26989, 39.331493]"
1815,474 US Highway 1 S,Rockingham,NORTH CAROLINA,UNITED STATES,"[-79.79074, 34.912512]"
1816,12118 Old 63 S,Lucedale,MISSISSIPPI,UNITED STATES,"[-88.59783, 30.909074]"
1817,110 Loves Creek Chu Rd,Siler City,NORTH CAROLINA,UNITED STATES,"[-79.43361, 35.734582]"
1818,343 S Bickett Blvd,Louisburg,NORTH CAROLINA,UNITED STATES,"[-78.30235, 36.087413]"
1819,3402 Frontage Rd,Cordele,GEORGIA,UNITED STATES,"[-83.7513, 31.93467]"
1820,309 N Highway 52,Moncks Corner,SOUTH CAROLINA,UNITED STATES,"[-79.99249, 33.19878]"
1821,611 Lillington Hwy,Spring Lake,NORTH CAROLINA,UNITED STATES,"[-78.97014, 35.17408]"
1822,2085 Sunset Dr,Grenada,MISSISSIPPI,UNITED STATES,"[-89.852328, 33.786424]"
1823,2 Justice Ln,Anderson,SOUTH CAROLINA,UNITED STATES,"[-82.69026, 34.576594]"
1825,5087 Highway 31,Calera,ALABAMA,UNITED STATES,"[-86.74877, 33.14792]"
1828,2195 SC Highway 773,Prosperity,SOUTH CAROLINA,UNITED STATES,"[-81.45945, 34.23988]"
1824,1106 W Main St,Cabot,ARKANSAS,UNITED STATES,"[-92.027407, 34.977056]"
1827,954 Brookway Blvd,Brookhaven,MISSISSIPPI,UNITED STATES,"[-90.470116, 31.579303]"
1829,3901 Goldsboro Rd,Wade,NORTH CAROLINA,UNITED STATES,"[-78.75012, 35.123664]"
1830,2850 Gh Dr,Austinburg,OHIO,UNITED STATES,"[-80.855271, 41.783795]"
1832,201 Fairview Rd,Ellenwood,GEORGIA,UNITED STATES,"[-84.24212, 33.619238]"
1833,4475 Ocmulgee East Blvd,Macon,GEORGIA,UNITED STATES,"[-83.569736, 32.809207]"
1835,5005 Highway 155 N,Stockbridge,GEORGIA,UNITED STATES,"[-84.149711, 33.583096]"
1837,5801 Read Blvd,New Orleans,LOUISIANA,UNITED STATES,"[-89.9744, 30.03506]"
1839,1133 N Main St,Bellefontaine,OHIO,UNITED STATES,"[-83.755987, 40.37727117]"
1844,809 High Point St,Randleman,NORTH CAROLINA,UNITED STATES,"[-79.818281, 35.823616]"
1846,10690 Covington by Pass Rd,Covington,GEORGIA,UNITED STATES,"[-83.849287, 33.571257]"
1848,3310 Hamilton Mill Rd,Buford,GEORGIA,UNITED STATES,"[-83.937137, 34.094486]"
1849,1245 N Broad St,Monroe,GEORGIA,UNITED STATES,"[-83.731012, 33.818697]"
1851,12615 Foley Beach Expy,Foley,ALABAMA,UNITED STATES,"[-87.6483, 30.407701]"
1852,8800 S Dale Harker Dr,Daleville,INDIANA,UNITED STATES,"[-85.565708, 40.116612]"
1834,8354 I 10 Service Rd,Irvington,ALABAMA,UNITED STATES,"[-88.242571, 30.54135]"
1856,4201 Lafayette St,Marianna,FLORIDA,UNITED STATES,"[-85.246235, 30.782115]"
1842,20660 Highway 63,Moss Point,MISSISSIPPI,UNITED STATES,"[-88.56701, 30.6431]"
1858,73111 Louisiana Hwy 25,Covington,LA,UNITED STATES,"[-90.11047, 30.50395]"
2016,2665 W Jonathan Moore Pike,Columbus,INDIANA,UNITED STATES,"[-85.953907, 39.200294]"
2018,256 Winfield Dunn Pkwy,Sevierville,TENNESSEE,UNITED STATES,"[-83.568172, 35.871899]"
2020,8303 N High St,Columbus,OHIO,UNITED STATES,"[-83.017467, 40.134511]"
2021,103 Logan Ct,Albany,GEORGIA,UNITED STATES,"[-84.218521, 31.585578]"
2022,2118 Gause Blvd W,Slidell,LOUISIANA,UNITED STATES,"[-89.820792, 30.302571]"
2023,3277 Goodman Rd E,Southaven,MISSISSIPPI,UNITED STATES,"[-89.932039, 34.962075]"
2024,4301 Old Ln,Chester,VIRGINIA,UNITED STATES,"[-77.453137, 37.385104]"
2025,5130 NW 13th St,Gainesville,FLORIDA,UNITED STATES,"[-82.342471, 29.701766]"
2026,3610 Madison Pike,Edgewood,KENTUCKY,UNITED STATES,"[-84.534559, 39.023785]"
2027,1150 S Meridian Ave,Oklahoma City,OKLAHOMA,UNITED STATES,"[-97.600738, 35.454719]"
2028,1690 E Highway 501,Conway,SOUTH CAROLINA,UNITED STATES,"[-79.009918, 33.804661]"
2029,3745 Highway 53,Huntsville,ALABAMA,UNITED STATES,"[-86.667906, 34.791832]"
2030,2916 Buford Dr,Buford,GEORGIA,UNITED STATES,"[-83.994819, 34.053028]"
2031,881 Blowing Rock Rd,Boone,NORTH CAROLINA,UNITED STATES,"[-81.670572, 36.20652]"
2032,9520 US Highway 441,Leesburg,FLORIDA,UNITED STATES,"[-81.799528, 28.826535]"
2033,501 E Innes St,Salisbury,NORTH CAROLINA,UNITED STATES,"[-80.465869, 35.66352]"
2034,519 N Duncan Byp,Union,SOUTH CAROLINA,UNITED STATES,"[-81.639405, 34.728705]"
2035,2106 Wall St,Spring Hill,TENNESSEE,UNITED STATES,"[-86.917767, 35.767473]"
2036,1330 Gray Hwy,Macon,GEORGIA,UNITED STATES,"[-83.614428, 32.861262]"
2038,4301 Victory Dr,Columbus,GEORGIA,UNITED STATES,"[-84.9366, 32.40626]"
2039,3101 David Dr,Metairie,LOUISIANA,UNITED STATES,"[-90.220175, 30.00392]"
2040,11140 Panama City Beach Pkwy,Panama City Beach,FLORIDA,UNITED STATES,"[-85.809113, 30.195706]"
2041,1634 Red Bank Rd,Goose Creek,SOUTH CAROLINA,UNITED STATES,"[-80.003816, 32.968401]"
2042,7423 Spencer Hwy,Pasadena,TEXAS,UNITED STATES,"[-95.12435, 29.664067]"
2043,2125 W Arrowood Rd,Charlotte,NORTH CAROLINA,UNITED STATES,"[-80.924297, 35.145638]"
2044,7652 Merrill Rd,Jacksonville,FLORIDA,UNITED STATES,"[-81.569515, 30.351961]"
2045,3129 Highway 80 E,Pearl,MISSISSIPPI,UNITED STATES,"[-90.115223, 32.282701]"
2046,1122 Maple St,Carrollton,GEORGIA,UNITED STATES,"[-85.090987, 33.571961]"
2047,608 Highway 17 N,Surfside Beach,SOUTH CAROLINA,UNITED STATES,"[-78.975822, 33.618354]"
2048,11951 I 10 Service Rd,New Orleans,LOUISIANA,UNITED STATES,"[-89.96264, 30.046955]"
2049,3603 Hwy 280/431 N,Phenix City,AL,UNITED STATES,"[-85.042045, 32.495468]"
2050,6445 Roswell Rd,Sandy Springs,GEORGIA,UNITED STATES,"[-84.379563, 33.930901]"
2051,2237 Avent Ferry Rd,Raleigh,NORTH CAROLINA,UNITED STATES,"[-78.677881, 35.77772]"
2052,2320 Dixie Forest Rd,Raleigh,NORTH CAROLINA,UNITED STATES,"[-78.599654, 35.863048]"
2053,720 Cagan View Rd,Clermont,FLORIDA,UNITED STATES,"[-81.677514, 28.357984]"
2054,601 McLawhorne Dr,Newport News,VIRGINIA,UNITED STATES,"[-76.459212, 37.044709]"
2055,4510 Altama Ave,Brunswick,GEORGIA,UNITED STATES,"[-81.485647, 31.193767]"
2056,2207 Highway 11 N,Picayune,MISSISSIPPI,UNITED STATES,"[-89.670084, 30.544877]"
2057,946 Carolina Ave,Washington,NORTH CAROLINA,UNITED STATES,"[-77.05993, 35.556091]"
2058,6608 US Highway 19,New Port Richey,FLORIDA,UNITED STATES,"[-82.727433, 28.253558]"
2059,2480 E Highway 50,Clermont,FLORIDA,UNITED STATES,"[-81.709223, 28.547333]"
2060,158 Laurel Lake Dr,North Augusta,SOUTH CAROLINA,UNITED STATES,"[-81.935747, 33.566769]"
2061,1940 E President St,Savannah,GEORGIA,UNITED STATES,"[-81.056325, 32.070309]"
2062,11500 Memorial Pkwy SW,Huntsville,ALABAMA,UNITED STATES,"[-86.567368, 34.628029]"
2063,704 Blanding Blvd,Orange Park,FLORIDA,UNITED STATES,"[-81.757929, 30.147903]"
2064,65 Lowes Dr,Pittsboro,NORTH CAROLINA,UNITED STATES,"[-79.166451, 35.746142]"
2065,260 W Belmont Dr,Calhoun,GEORGIA,UNITED STATES,"[-84.940781, 34.479931]"
2066,3810 25th Ave,Gulfport,MISSISSIPPI,UNITED STATES,"[-89.092787, 30.396316]"
2067,490 Veterans Pkwy N,Moultrie,GEORGIA,UNITED STATES,"[-83.761767, 31.190364]"
2068,7733 Cox Ln,West Chester,OHIO,UNITED STATES,"[-84.365378, 39.351717]"
2069,100 Fannie Ln,Lonoke,ARKANSAS,UNITED STATES,"[-91.890261, 34.806408]"
2070,1450 Veterans Memorial Hwy SE,Mableton,GEORGIA,UNITED STATES,"[-84.512749, 33.7988]"
2071,2625 Lebanon Pike,Nashville,TENNESSEE,UNITED STATES,"[-86.673397, 36.16939]"
2072,2631 General Degaulle Dr,New Orleans,LOUISIANA,UNITED STATES,"[-90.03194, 29.92865]"
2073,4141 S Emerson Ave,Indianapolis,INDIANA,UNITED STATES,"[-86.082249, 39.706427]"
2074,4740 Flat Shoals Pkwy,Decatur,GEORGIA,UNITED STATES,"[-84.2329, 33.6831]"
2075,1510 US 1 Hwy S,Southern Pines,NORTH CAROLINA,UNITED STATES,"[-79.410326, 35.162399]"
2076,808 FM 646 Rd W,Dickinson,TEXAS,UNITED STATES,"[-95.077873, 29.474405]"
2077,19886 W Little York Rd,Katy,TEXAS,UNITED STATES,"[-95.719468, 29.861808]"
2078,1930 Greenville Blvd SE,Greenville,NORTH CAROLINA,UNITED STATES,"[-77.33615, 35.5961143]"
2079,5028 New Jesup Hwy,Brunswick,GEORGIA,UNITED STATES,"[-81.519231, 31.2181]"
2080,5538 Platt Springs Rd,Lexington,SOUTH CAROLINA,UNITED STATES,"[-81.226721, 33.908053]"
2081,711 Frontage Rd E,Myrtle Beach,SOUTH CAROLINA,UNITED STATES,"[-78.91147, 33.70835]"
2082,6907 Dorchester Rd,North Charleston,SOUTH CAROLINA,UNITED STATES,"[-80.068265, 32.887164]"
2083,11844 Lem Turner Rd,Jacksonville,FLORIDA,UNITED STATES,"[-81.704358, 30.4486]"
2084,1701 Martens Dr,Hammond,LOUISIANA,UNITED STATES,"[-90.479323, 30.51726]"
2085,817 Conover Blvd W,Conover,NORTH CAROLINA,UNITED STATES,"[-81.235268, 35.695175]"
2086,1720 Cotton Grove Rd,Lexington,NORTH CAROLINA,UNITED STATES,"[-80.259583, 35.776282]"
2087,5176 Caldwell Mill Rd,Hoover,ALABAMA,UNITED STATES,"[-86.73961, 33.386776]"
2088,22 NW 34th Ave,Ocala,FLORIDA,UNITED STATES,"[-82.178748, 29.18648]"
2089,15 Tyner Dr,Petal,MISSISSIPPI,UNITED STATES,"[-89.235078, 31.351905]"
2090,4517 Camp Robinson Rd,North Little Rock,ARKANSAS,UNITED STATES,"[-92.27114, 34.796043]"
2091,6500 Thirlane Rd,Roanoke,VIRGINIA,UNITED STATES,"[-79.991759, 37.326173]"
2092,9184 Colerain Ave,Colerain Township,OHIO,UNITED STATES,"[-84.592704, 39.238623]"
2093,101 Srp Dr,Evans,GEORGIA,UNITED STATES,"[-82.141727, 33.523134]"
2094,7497 Midlothian Tpke,North Chesterfield,VIRGINIA,UNITED STATES,"[-77.534354, 37.499426]"
2095,2233 E Pass Rd,Gulfport,MISSISSIPPI,UNITED STATES,"[-89.006452, 30.400605]"
2096,4797 Canton Rd,Marietta,GEORGIA,UNITED STATES,"[-84.521916, 34.067927]"
2097,9001 Airline Dr,Metairie,LOUISIANA,UNITED STATES,"[-90.235705, 29.979558]"
2098,442 Elma G Miles Pkwy,Hinesville,GEORGIA,UNITED STATES,"[-81.600808, 31.840925]"
2099,1825 Barnett Shoals Rd,Athens,GEORGIA,UNITED STATES,"[-83.339874, 33.926317]"
2100,2025 Bolton Rd NW,Atlanta,GEORGIA,UNITED STATES,"[-84.475808, 33.810781]"
2101,621 Denbigh Blvd,Newport News,VIRGINIA,UNITED STATES,"[-76.518595, 37.140785]"
2102,2015 Beltline Rd SW,Decatur,ALABAMA,UNITED STATES,"[-87.019, 34.5776]"
2103,4351 Hamilton Middletown Rd,Liberty Twp,OHIO,UNITED STATES,"[-84.4707, 39.4176]"
2104,7180 Normandy Blvd,Jacksonville,FLORIDA,UNITED STATES,"[-81.765, 30.3]"
2105,1100 S Cannon Blvd,Kannapolis,NORTH CAROLINA,UNITED STATES,"[-80.6122, 35.4801]"
2106,4200 S University Ave,Little Rock,ARKANSAS,UNITED STATES,"[-92.343, 34.716]"
2107,241 E Main St,Hendersonville,TENNESSEE,UNITED STATES,"[-86.6021, 36.3092]"
2108,103 Stekoia Ln,Knoxville,TENNESSEE,UNITED STATES,"[-84.0194, 36.0059]"
2109,15747 Wallisville Rd,Houston,TEXAS,UNITED STATES,"[-95.156268, 29.811008]"
2110,7949 Villa Rica Hwy,Dallas,GEORGIA,UNITED STATES,"[-84.8882, 33.8102]"
2111,5193 Jonesboro Rd,Lake City,GEORGIA,UNITED STATES,"[-84.3491, 33.6143]"
2112,1510 E 10th St,Jeffersonville,INDIANA,UNITED STATES,"[-85.7277, 38.2909]"
2113,3949 Parkway,Pigeon Forge,TENNESSEE,UNITED STATES,"[-83.5453, 35.7779]"
2114,1289 Yadkinville Rd,Mocksville,NORTH CAROLINA,UNITED STATES,"[-80.5833, 35.9167]"
2115,1815 S Semoran Blvd,Orlando,FLORIDA,UNITED STATES,"[-81.3098, 28.5205]"
2116,408 Pratt Avenue,Huntsville,AL,UNITED STATES,"[-86.5796, 34.7387]"
2117,289 Charter Oak Rd,Lexington,SOUTH CAROLINA,UNITED STATES,"[-81.3046, 33.9924]"
2118,6011 Asheville Hwy,Hendersonville,NORTH CAROLINA,UNITED STATES,"[-82.509473, 35.40152]"
2119,2443 Manhattan Blvd,Harvey,LOUISIANA,UNITED STATES,"[-90.0491, 29.8772]"
2120,2555 Limestone Pkwy,Gainesville,GEORGIA,UNITED STATES,"[-83.8092, 34.3319]"
2121,644 Veterans Pkwy,Barnesville,GEORGIA,UNITED STATES,"[-84.169605, 33.0444619]"
2122,3018 Saint Joseph Rd,New Albany,INDIANA,UNITED STATES,"[-85.798972, 38.345803]"
2123,1610 E County Line Rd,Ridgeland,MISSISSIPPI,UNITED STATES,"[-90.1206, 32.3998]"
2124,20110 Timberlake Rd,Lynchburg,VIRGINIA,UNITED STATES,"[-79.2335, 37.3462]"
2125,5681 McFarland Blvd,Northport,ALABAMA,UNITED STATES,"[-87.6119, 33.2352]"
2126,5245 Stone Mountain Hwy,Stone Mountain,GEORGIA,UNITED STATES,"[-84.111532, 33.823893]"
2127,1448 Mount Pleasant Rd,Chesapeake,VIRGINIA,UNITED STATES,"[-76.187605, 36.714783]"
2128,1635 Creswell Ln Ext,Opelousas,LOUISIANA,UNITED STATES,"[-92.064771, 30.518729]"
2129,3103 Clarksville Pike,Nashville,TENNESSEE,UNITED STATES,"[-86.829767, 36.192279]"
2130,885 W Central Ave,Springboro,OHIO,UNITED STATES,"[-84.2634, 39.5623]"
2131,938 Allison Bonnett Memorial Dr,Hueytown,ALABAMA,UNITED STATES,"[-86.9656, 33.457]"
2132,11403 Ulmerton Rd,Largo,FLORIDA,UNITED STATES,"[-82.798, 27.895]"
2133,13975 Beach Blvd,Jacksonville,FLORIDA,UNITED STATES,"[-81.45, 30.288]"
2134,7119 Hull Street Rd,North Chesterfield,VIRGINIA,UNITED STATES,"[-77.5264, 37.4719]"
2135,599 Atlanta Rd,Cumming,GEORGIA,UNITED STATES,"[-84.1399, 34.1889]"
2136,5021 Highway 493,Meridian,MISSISSIPPI,UNITED STATES,"[-88.7004, 32.4127]"
2137,2523 W Kingshighway,Paragould,ARKANSAS,UNITED STATES,"[-90.519, 36.06]"
2138,2448 Carolina Beach Rd,Wilmington,NORTH CAROLINA,UNITED STATES,"[-77.9359, 34.1933]"
2139,96 Riverview Dr,Flowood,MISSISSIPPI,UNITED STATES,"[-90.126, 32.3303]"
2140,2147 W Pinhook Rd,Lafayette,LOUISIANA,UNITED STATES,"[-92.0097, 30.1854]"
2141,940 Wayne Ave,Bridge City,LOUISIANA,UNITED STATES,"[-90.1561, 29.9052]"
2142,121 W Oglethorpe Blvd,Albany,GEORGIA,UNITED STATES,"[-84.1501, 31.5756]"
2143,5937 Hopkins Rd,North Chesterfield,VIRGINIA,UNITED STATES,"[-77.4728, 37.4373]"
2144,8111 E R L Thornton Fwy,Dallas,TEXAS,UNITED STATES,"[-96.7014, 32.7949]"
2145,515 N McDonough St,Decatur,GEORGIA,UNITED STATES,"[-84.2958, 33.7739]"
2146,112 Courtland Street,Atlanta,GA,UNITED STATES,"[-84.3842, 33.7581]"
2147,14201 Mueschke Rd,Cypress,TEXAS,UNITED STATES,"[-95.717851, 29.981203]"
2148,537 E Broadway Blvd,Jefferson City,TENNESSEE,UNITED STATES,"[-83.469426, 36.125489]"
2149,1410 S College Rd,Wilmington,NORTH CAROLINA,UNITED STATES,"[-77.8869, 34.2119]"
2150,8514 Baymeadows Rd,Jacksonville,FLORIDA,UNITED STATES,"[-81.581, 30.22]"
2151,5397 Wesleyan Dr,Virginia Beach,VIRGINIA,UNITED STATES,"[-76.163199, 36.869809]"
2152,904 Orangeburg Rd,Knightsville,SOUTH CAROLINA,UNITED STATES,"[-80.2371, 33.0111]"
2153,4203 Nc Highway 55,Durham,NC,UNITED STATES,"[-78.892, 35.913]"
2154,3009 S Rutherford Blvd,Murfreesboro,TENNESSEE,UNITED STATES,"[-86.3513, 35.8354]"
2155,11520 Springfield Pike,Springdale,OHIO,UNITED STATES,"[-84.485, 39.2848]"
2156,2720 Sandy Plains Rd,Marietta,GEORGIA,UNITED STATES,"[-84.492076, 34.016539]"
2157,7025 Dunbarton Dr,Horn Lake,MISSISSIPPI,UNITED STATES,"[-90.0546, 34.963]"
2158,4459 W Hillsborough Ave,Tampa,FLORIDA,UNITED STATES,"[-82.519, 27.996]"
2159,7670 Starkey Rd,Seminole,FLORIDA,UNITED STATES,"[-82.762726, 27.841772]"
2160,6542 Highway 42,Rex,GEORGIA,UNITED STATES,"[-84.2755, 33.5786]"
2161,213 Exchange Blvd,Winder,GA,UNITED STATES,"[-83.7523, 33.9476]"
2162,2600 N Roan St,Johnson City,TENNESSEE,UNITED STATES,"[-82.3801, 36.3512]"
2163,2395 Pocahontas Trl,Quinton,VIRGINIA,UNITED STATES,"[-77.1905, 37.5089]"
2164,2010 W Franklin Blvd,Gastonia,NORTH CAROLINA,UNITED STATES,"[-81.2199, 35.2595]"
2165,4120 Lebanon Pike,Hermitage,TENNESSEE,UNITED STATES,"[-86.6195, 36.2]"
2167,477 W 3rd St,Jackson,GEORGIA,UNITED STATES,"[-83.9705, 33.2938]"
2168,1176 Roswell Rd,Marietta,GEORGIA,UNITED STATES,"[-84.5175, 33.9506]"
2170,584 Beasley Rd,Jackson,MISSISSIPPI,UNITED STATES,"[-90.1497, 32.3859]"
2171,102 Pearces Rd,Zebulon,NORTH CAROLINA,UNITED STATES,"[-78.3249, 35.8387]"
2172,1916 Bel Air Rd,Fallston,MARYLAND,UNITED STATES,"[-76.3889, 39.4975]"
2173,43145 S Airport Rd,Hammond,LOUISIANA,UNITED STATES,"[-90.4151, 30.4829]"
2174,3810 Cleveland Ave,Fort Myers,FLORIDA,UNITED STATES,"[-81.8722, 26.6064]"
2176,4554 Highway 1,Raceland,LOUISIANA,UNITED STATES,"[-90.5674, 29.7048]"
2177,9406 S Orange Blossom Trl,Orlando,FLORIDA,UNITED STATES,"[-81.405143, 28.424612]"
2178,5111 Ross Ave,Dallas,TEXAS,UNITED STATES,"[-96.774, 32.8085]"
2179,1507 Broadway St,Pearland,TEXAS,UNITED STATES,"[-95.229484, 29.546933]"
2181,316 Valley Ave,Birmingham,ALABAMA,UNITED STATES,"[-86.8236, 33.4718]"
2185,2250 Peachtree Industrial Blvd,Duluth,GEORGIA,UNITED STATES,"[-84.122543, 34.021026]"
25,1425 Virginia Ave,College Park,GEORGIA,UNITED STATES,"[-84.435782, 33.659239]"
4,321 Georgia Ave,North Augusta,SOUTH CAROLINA,UNITED STATES,"[-81.971553, 33.491739]"
7,1674 Washington Rd,East Point,GEORGIA,UNITED STATES,"[-84.443589, 33.675528]"
22,4788 Memorial Dr,Decatur,GEORGIA,UNITED STATES,"[-84.23468, 33.78579]"
24,210 Smokey Park Hwy,Asheville,NORTH CAROLINA,UNITED STATES,"[-82.632251, 35.560998]"
34,2642 Windy Hill Rd SE,Marietta,GEORGIA,UNITED STATES,"[-84.47686, 33.90096]"
35,1601 Shorter Ave SW,Rome,GEORGIA,UNITED STATES,"[-85.21323518, 34.26867441]"
29,5335 Roswell Rd,Atlanta,GEORGIA,UNITED STATES,"[-84.379807, 33.901041]"
38,4094 Pio Nono Ave,Macon,GEORGIA,UNITED STATES,"[-83.66853, 32.79071]"
41,2548 Wesley Chapel Rd,Decatur,GEORGIA,UNITED STATES,"[-84.21551, 33.713664]"
40,840 Riverside Dr,Macon,GEORGIA,UNITED STATES,"[-83.6294, 32.84275]"
46,300 N Dixie Ave,Cartersville,GEORGIA,UNITED STATES,"[-84.78643, 34.1766]"
54,4271 Roosevelt Blvd,Jacksonville,FLORIDA,UNITED STATES,"[-81.72015349, 30.28578278]"
43,509 Westshore Plz,Tampa,FLORIDA,UNITED STATES,"[-82.524016, 27.949328]"
57,4005 Buena Vista Rd,Columbus,GEORGIA,UNITED STATES,"[-84.92618, 32.46322]"
61,4739 South Blvd,Charlotte,NORTH CAROLINA,UNITED STATES,"[-80.875763, 35.174742]"
68,631 W 15th St,Panama City,FLORIDA,UNITED STATES,"[-85.66727, 30.17517]"
73,2506 Augusta Rd,West Columbia,SOUTH CAROLINA,UNITED STATES,"[-81.103311, 33.981922]"
71,1072 Airport Rd,Jacksonville,FLORIDA,UNITED STATES,"[-81.646475, 30.481683]"
63,2727 Manchester Expy,Columbus,GEORGIA,UNITED STATES,"[-84.95258, 32.506957]"
78,3421 McFarland Blvd E,Tuscaloosa,ALABAMA,UNITED STATES,"[-87.52461901, 33.17774635]"
79,1141 US 280,Phenix City,AL,UNITED STATES,"[-85.02926, 32.46986]"
74,4274 Lavista Rd,Tucker,GEORGIA,UNITED STATES,"[-84.244497, 33.847674]"
86,802 Cleveland Ave,Attalla,ALABAMA,UNITED STATES,"[-86.072688, 34.018679]"
88,1420 Red Bud Rd NE,Calhoun,GEORGIA,UNITED STATES,"[-84.91704, 34.512305]"
82,3180 Tucker Norcross Rd,Tucker,GEORGIA,UNITED STATES,"[-84.219823, 33.882443]"
80,3711 Ogeechee Rd,Savannah,GEORGIA,UNITED STATES,"[-81.146487, 32.05251]"
89,4310 Augusta Rd,Garden City,GEORGIA,UNITED STATES,"[-81.15078, 32.10443]"
91,263 Miracle Strip Pkwy SE,Fort Walton Beach,FLORIDA,UNITED STATES,"[-86.602642, 30.403326]"
90,90 N Whyte Hardee Bd,Hardeeville,SC,UNITED STATES,"[-81.080582, 32.270705]"
95,1912 Chattanooga Rd,Dalton,GEORGIA,UNITED STATES,"[-84.9968, 34.795259]"
94,228 N Main St,Cedartown,GEORGIA,UNITED STATES,"[-85.253912, 34.016976]"
98,2128 Hwy 30,Gonzales,LA,UNITED STATES,"[-90.9441054, 30.2106507]"
100,2842 Panola Rd,Lithonia,GEORGIA,UNITED STATES,"[-84.169849, 33.704706]"
96,922 E Fowler Ave,Tampa,FLORIDA,UNITED STATES,"[-82.44977479, 28.05454781]"
103,4731 Chambers Rd,Macon,GEORGIA,UNITED STATES,"[-83.72383, 32.80853]"
102,3009 Alcoa Hwy,Alcoa,TENNESSEE,UNITED STATES,"[-83.97739, 35.82481]"
105,4852 Old National Hwy,College Park,GEORGIA,UNITED STATES,"[-84.474124, 33.623196]"
107,2340 Buena Vista Rd,Lexington,KENTUCKY,UNITED STATES,"[-84.422207, 38.04232]"
123,6513 Ringgold Rd,East Ridge,TENNESSEE,UNITED STATES,"[-85.20844722, 34.98939938]"
127,7505 Two Notch Rd,Columbia,SOUTH CAROLINA,UNITED STATES,"[-80.94575, 34.07528]"
124,70 Warrenton Rd,Vicksburg,MISSISSIPPI,UNITED STATES,"[-90.900729, 32.309796]"
128,1668 E Stone Dr,Kingsport,TENNESSEE,UNITED STATES,"[-82.51704533, 36.54725625]"
126,778 Saint Andrews Rd,Columbia,SOUTH CAROLINA,UNITED STATES,"[-81.120231, 34.043881]"
131,12009 Ne Expressway,Oklahoma City,OK,UNITED STATES,"[-97.435765, 35.592155]"
130,1007 Arc Way Ave,Cordele,GEORGIA,UNITED STATES,"[-83.750314, 31.958962]"
136,286 N Lee St,Forsyth,GEORGIA,UNITED STATES,"[-83.9383, 33.04168]"
134,2800 20th Ave,Valley,ALABAMA,UNITED STATES,"[-85.18428, 32.84725]"
145,2345 Broad River Rd,Columbia,SOUTH CAROLINA,UNITED STATES,"[-81.09634, 34.04131]"
139,1416 N Interstate 35 E,Lancaster,TEXAS,UNITED STATES,"[-96.821772, 32.604969]"
148,2505 Randleman Rd,Greensboro,NORTH CAROLINA,UNITED STATES,"[-79.80092498, 36.03216436]"
147,4631 Mobile Hwy,Pensacola,FLORIDA,UNITED STATES,"[-87.279607, 30.437491]"
150,1925 McFarland Blvd,Northport,ALABAMA,UNITED STATES,"[-87.57802, 33.239155]"
152,69 Expressway Dr,Manchester,TENNESSEE,UNITED STATES,"[-86.055018, 35.459534]"
151,1181 S Stemmons Fwy,Lewisville,TEXAS,UNITED STATES,"[-96.992535, 33.028315]"
153,1426 Sam Nunn Blvd,Perry,GEORGIA,UNITED STATES,"[-83.742321, 32.470496]"
154,2758 Cobb Pkwy SE,Atlanta,GEORGIA,UNITED STATES,"[-84.47142, 33.885264]"
158,831 Gulf Breeze Pkwy,Gulf Breeze,FLORIDA,UNITED STATES,"[-87.163956, 30.357522]"
155,10389 Airline Hwy,Baton Rouge,LOUISIANA,UNITED STATES,"[-91.068286, 30.414982]"
159,948 Fort Dale Rd,Greenville,ALABAMA,UNITED STATES,"[-86.64015, 31.849328]"
162,1501 Watson Blvd,Warner Robins,GEORGIA,UNITED STATES,"[-83.62579, 32.61824]"
160,7102 Maynardville Pike,Knoxville,TENNESSEE,UNITED STATES,"[-83.926886, 36.078788]"
161,7673 Burlington Pike,Florence,KENTUCKY,UNITED STATES,"[-84.642953, 39.000693]"
169,2115 Oakhurst Dr,Irving,TEXAS,UNITED STATES,"[-96.950424, 32.836467]"
171,7611 W Newberry Rd,Gainesville,FLORIDA,UNITED STATES,"[-82.423886, 29.659542]"
167,2017 Central Ave,Hot Springs,ARKANSAS,UNITED STATES,"[-93.057777, 34.49237]"
173,1412 W Brandon Blvd,Brandon,FLORIDA,UNITED STATES,"[-82.30501, 27.93801]"
175,11770 Lebanon Rd,Sharonville,OHIO,UNITED STATES,"[-84.39695927, 39.28680414]"
174,2805 Fern Valley Rd,Louisville,KENTUCKY,UNITED STATES,"[-85.71173654, 38.15704646]"
177,6079 Goshen Springs Rd,Norcross,GEORGIA,UNITED STATES,"[-84.207953, 33.91583]"
179,4320 Bishop Ln,Louisville,KENTUCKY,UNITED STATES,"[-85.686434, 38.198495]"
180,1728 Gause Blvd,Slidell,LA,UNITED STATES,"[-89.746134, 30.285132]"
183,755 W Fillmore St,Colorado Springs,COLORADO,UNITED STATES,"[-104.8365804, 38.87635759]"
187,306 Greenville Blvd SE,Greenville,NORTH CAROLINA,UNITED STATES,"[-77.3767, 35.58092]"
195,3244 US Highway 98 N,Lakeland,FLORIDA,UNITED STATES,"[-81.969236, 28.083491]"
192,1910 N Collins St,Arlington,TEXAS,UNITED STATES,"[-97.09711, 32.76483]"
185,819 S Cumberland St,Lebanon,TENNESSEE,UNITED STATES,"[-86.297915, 36.184729]"
197,706 Sullivan Rd,Statesville,NORTH CAROLINA,UNITED STATES,"[-80.876144, 35.80488]"
199,612 Beach Dr,Gulfport,MISSISSIPPI,UNITED STATES,"[-89.039233, 30.379822]"
335,1925 E Main St,Dothan,ALABAMA,UNITED STATES,"[-85.36198, 31.21716]"
337,103 Stetson Dr,Charlotte,NORTH CAROLINA,UNITED STATES,"[-80.76026603, 35.28762593]"
336,56 Sommers Blvd,Richmond Hill,GEORGIA,UNITED STATES,"[-81.333801, 31.924914]"
339,1819 John B White SR Blvd,Spartanburg,SOUTH CAROLINA,UNITED STATES,"[-81.98694, 34.921302]"
338,710 6th Ave NE,Decatur,ALABAMA,UNITED STATES,"[-86.978868, 34.607724]"
341,1500 NW Woods Chapel Rd,Blue Springs,MISSOURI,UNITED STATES,"[-94.30512538, 39.0322225]"
438,10516 E 11th St,Tulsa,OKLAHOMA,UNITED STATES,"[-95.85970376, 36.14787801]"
443,7147 Okeechobee Rd,Fort Pierce,FLORIDA,UNITED STATES,"[-80.396538, 27.412376]"
440,4755 Saul White Blvd,North Charleston,SOUTH CAROLINA,UNITED STATES,"[-80.01175, 32.869225]"
445,1531 W Walnut Ave,Dalton,GEORGIA,UNITED STATES,"[-85.00012, 34.760503]"
448,3135 N Glenstone Ave,Springfield,MISSOURI,UNITED STATES,"[-93.265536, 37.253838]"
450,2701 Alamance Rd,Burlington,NORTH CAROLINA,UNITED STATES,"[-79.46977, 36.064139]"
458,438 S Belair Rd,Augusta,GEORGIA,UNITED STATES,"[-82.132072, 33.484274]"
461,1201 AL Highway 21 S,Oxford,ALABAMA,UNITED STATES,"[-85.832765, 33.602382]"
462,1004 W 4th St,Adel,GEORGIA,UNITED STATES,"[-83.43554, 31.13425]"
466,5551 E End Blvd S,Marshall,TEXAS,UNITED STATES,"[-94.358332, 32.494389]"
467,3113 Bandera St,Denton,TEXAS,UNITED STATES,"[-97.175738, 33.231125]"
464,241 Hwy 49,Byron,GA,UNITED STATES,"[-83.747302, 32.658059]"
469,1815 Outlet Center Dr,Selma,NORTH CAROLINA,UNITED STATES,"[-78.29363, 35.52043]"
471,3326 E Kearney St,Springfield,MISSOURI,UNITED STATES,"[-93.226392, 37.238691]"
478,1404 Roebuck Dr,Meridian,MISSISSIPPI,UNITED STATES,"[-88.691484, 32.349784]"
480,110 Holiday Blvd,Covington,LOUISIANA,UNITED STATES,"[-90.084431, 30.438087]"
1831,33681 US Highway 280,Childersburg,ALABAMA,UNITED STATES,"[-86.351198, 33.265649]"
1836,1718 US 52 N,Albemarle,NORTH CAROLINA,UNITED STATES,"[-80.19267, 35.384904]"
1840,2880 N Williston Rd,Florence,SOUTH CAROLINA,UNITED STATES,"[-79.700494, 34.261983]"
1838,811 Saraland Blvd S,Saraland,ALABAMA,UNITED STATES,"[-88.07213, 30.803658]"
1845,1700 S Highway 29,Cantonment,FLORIDA,UNITED STATES,"[-87.29338, 30.57652]"
1843,4688 Pinson Blvd,Pinson,ALABAMA,UNITED STATES,"[-86.68282, 33.69508]"
1847,925 Highway 82 W,Greenwood,MISSISSIPPI,UNITED STATES,"[-90.20515, 33.52378]"
1850,1165 Us Hwy 1,Youngsville,NC,UNITED STATES,"[-78.498211, 36.041179]"
1853,915 Evander Holyfield Hwy,Fairburn,GEORGIA,UNITED STATES,"[-84.464521, 33.550247]"
1855,451 Walmart Ct,Eastanollee,GEORGIA,UNITED STATES,"[-83.284765, 34.54531]"
1857,1304 S Cox St,Asheboro,NORTH CAROLINA,UNITED STATES,"[-79.811039, 35.689893]"
1859,1385 Election House Rd NW,Lancaster,OHIO,UNITED STATES,"[-82.64833, 39.746076]"
1860,6720 Saint Claude Ave,Arabi,LOUISIANA,UNITED STATES,"[-90.004039, 29.957054]"
1861,2840 Fort Worth Hwy,Hudson Oaks,TEXAS,UNITED STATES,"[-97.716331, 32.756883]"
1862,1325 US Highway 74 W,Wadesboro,NORTH CAROLINA,UNITED STATES,"[-80.09294, 34.978085]"
1863,804 S Broad St,Clinton,SOUTH CAROLINA,UNITED STATES,"[-81.87898, 34.46013]"
1864,317 Highway 82,Winona,MISSISSIPPI,UNITED STATES,"[-89.756874, 33.487062]"
1865,5536 McEver Rd,Flowery Branch,GEORGIA,UNITED STATES,"[-83.92486, 34.199007]"
1866,2064 Interstate Dr,Opelika,ALABAMA,UNITED STATES,"[-85.4054, 32.61699]"
1867,130 W Church St,Batesburg,SOUTH CAROLINA,UNITED STATES,"[-81.53177, 33.91299]"
1869,13035 N Wintzell Ave,Bayou La Batre,ALABAMA,UNITED STATES,"[-88.24429, 30.417897]"
1871,102 Sweetland Ave,Broussard,LOUISIANA,UNITED STATES,"[-91.94748751, 30.14247858]"
1870,63900 Highway 1090,Pearl River,LOUISIANA,UNITED STATES,"[-89.74565, 30.356879]"
1872,1135 Ruin Creek Rd,Henderson,NORTH CAROLINA,UNITED STATES,"[-78.451567, 36.321626]"
1873,550 E Main St,Biscoe,NORTH CAROLINA,UNITED STATES,"[-79.7694, 35.360916]"
1875,1010 E Thomas St,Hammond,LOUISIANA,UNITED STATES,"[-90.449882, 30.50676]"
1874,1417 W Peace St,Canton,MISSISSIPPI,UNITED STATES,"[-90.064797, 32.607581]"
1877,2193 Southport Rd,Spartanburg,SOUTH CAROLINA,UNITED STATES,"[-81.888732, 34.921047]"
1880,28055 Highway 28,Hazlehurst,MISSISSIPPI,UNITED STATES,"[-90.406891, 31.874346]"
1879,11 E Stone Ave,Greenville,SOUTH CAROLINA,UNITED STATES,"[-82.393062, 34.862095]"
1878,7425 Augusta Rd,Piedmont,SOUTH CAROLINA,UNITED STATES,"[-82.388899, 34.730148]"
1881,102 Garner Rd,Spartanburg,SOUTH CAROLINA,UNITED STATES,"[-81.929855, 34.966243]"
1883,3036 Anvil Block Rd,Ellenwood,GEORGIA,UNITED STATES,"[-84.28987, 33.634345]"
1884,314 W Washington St,Nashville,NORTH CAROLINA,UNITED STATES,"[-77.970475, 35.976621]"
1882,110 W Glenn Ave,Auburn,ALABAMA,UNITED STATES,"[-85.482498, 32.609188]"
1885,66 5Th Street,Atlanta,GA,UNITED STATES,"[-84.389452, 33.776784]"
1886,3201 Highway 36 W,Jackson,GEORGIA,UNITED STATES,"[-84.062893, 33.203462]"
1889,10638 Chapman Hwy,Seymour,TENNESSEE,UNITED STATES,"[-83.777879, 35.879838]"
1887,10563 Dixie Hwy,Louisville,KENTUCKY,UNITED STATES,"[-85.870433, 38.100979]"
1888,1201 Greta Ln,Starkville,MISSISSIPPI,UNITED STATES,"[-88.85045, 33.44226]"
1890,100 Piedmont Ave Se,Atlanta,GA,UNITED STATES,"[-84.385622, 33.750892]"
1892,2811 S Kings Hwy,Myrtle Beach,SOUTH CAROLINA,UNITED STATES,"[-78.918191, 33.665381]"
1891,102 Elmsley Meadows Ln,Greensboro,NORTH CAROLINA,UNITED STATES,"[-79.793122, 35.998598]"
1893,4865 Ridge Rd,Douglasville,GEORGIA,UNITED STATES,"[-84.811658, 33.818336]"
1894,608 Maysville Rd,Mt Sterling,KENTUCKY,UNITED STATES,"[-83.948214, 38.073533]"
1895,1803 Poinsett Hwy,Greenville,SOUTH CAROLINA,UNITED STATES,"[-82.407353, 34.891651]"
1896,96 Old Trolley Rd,Summerville,SOUTH CAROLINA,UNITED STATES,"[-80.182235, 32.996481]"
1897,2203 US Highway 41 N,Tifton,GEORGIA,UNITED STATES,"[-83.51895, 31.4758]"
1898,101 Mars Hill Church Road,Dallas,GA,UNITED STATES,"[-84.82442, 33.90733]"
1900,2914 Memorial Dr SE,Atlanta,GEORGIA,UNITED STATES,"[-84.291723, 33.747332]"
1901,991 Durham Rd,Wake Forest,NORTH CAROLINA,UNITED STATES,"[-78.547091, 35.976231]"
1902,10384 Airline Hwy,Saint Rose,LOUISIANA,UNITED STATES,"[-90.292913, 29.97628]"
1903,5532 Atlanta Hwy,Montgomery,ALABAMA,UNITED STATES,"[-86.207539, 32.381561]"
1904,1804 McCormick Dr,Tifton,GEORGIA,UNITED STATES,"[-83.536606, 31.447744]"
1905,4881 Atlanta Hwy,Bogart,GA,UNITED STATES,"[-83.498266, 33.94097]"
1906,8505 Dorchester Rd,North Charleston,SOUTH CAROLINA,UNITED STATES,"[-80.114847, 32.917584]"
1907,173 Highway 411 SE,Rome,GEORGIA,UNITED STATES,"[-85.148463, 34.222981]"
1908,636 Bessemer Super Hwy,Fairfield,ALABAMA,UNITED STATES,"[-86.910664, 33.464577]"
1910,4100 Pemberton Square Blvd,Vicksburg,MISSISSIPPI,UNITED STATES,"[-90.888954, 32.303389]"
1909,2723 Highway 412 E,Siloam Springs,ARKANSAS,UNITED STATES,"[-94.51405, 36.181428]"
1911,4601 Old Gentilly Rd,New Orleans,LOUISIANA,UNITED STATES,"[-90.035985, 30.005137]"
1914,6184 GA Highway 21 S,Rincon,GEORGIA,UNITED STATES,"[-81.212477, 32.251957]"
1912,1851 Government St,Mobile,ALABAMA,UNITED STATES,"[-88.082821, 30.677007]"
1913,315 Wolverine Trl,Smyrna,TENNESSEE,UNITED STATES,"[-86.55614, 35.983129]"
1915,4115 Buford Dr,Buford,GEORGIA,UNITED STATES,"[-84.00054, 34.09255]"
1917,1210 Bluff Rd,Columbia,SOUTH CAROLINA,UNITED STATES,"[-81.016338, 33.97004]"
1916,3006 Northside Pkwy,Canton,GEORGIA,UNITED STATES,"[-84.46306, 34.23786]"
1918,730 N Main St,Shelbyville,TENNESSEE,UNITED STATES,"[-86.45854, 35.490831]"
1919,601 E New Bern Rd,Kinston,NORTH CAROLINA,UNITED STATES,"[-77.576201, 35.238907]"
1920,3411 Walkertown Landing Dr,Walkertown,NORTH CAROLINA,UNITED STATES,"[-80.134535, 36.166976]"
1921,2060 W Highway 98,Mary Esther,FLORIDA,UNITED STATES,"[-86.742629, 30.41216]"
1923,8075 Vaughn Rd,Montgomery,ALABAMA,UNITED STATES,"[-86.174805, 32.338862]"
1924,313 Bert Kouns Industrial Loop,Shreveport,LOUISIANA,UNITED STATES,"[-93.759084, 32.397877]"
1922,11201 Iron Bridge Rd,Chester,VIRGINIA,UNITED STATES,"[-77.497591, 37.362722]"
1925,2054 GA Highway 40 E,Kingsland,GEORGIA,UNITED STATES,"[-81.624084, 30.780299]"
1926,1686 Old York Rd,York,SOUTH CAROLINA,UNITED STATES,"[-81.201603, 34.986128]"
1928,1310 Highway 35 S,Forest,MISSISSIPPI,UNITED STATES,"[-89.48401, 32.33907]"
1929,2217 Thomas Dr,Panama City,FLORIDA,UNITED STATES,"[-85.754583, 30.1627]"
1927,1315 Highway 45 South,West Point,MS,UNITED STATES,"[-88.65911, 33.585898]"
1930,43 Ventura Dr,Rocky Mount,NORTH CAROLINA,UNITED STATES,"[-77.844266, 35.977572]"
1932,5480 Riverdale Rd,College Park,GEORGIA,UNITED STATES,"[-84.435146, 33.605756]"
1931,2100 Memorial Blvd,Springfield,TENNESSEE,UNITED STATES,"[-86.877222, 36.494458]"
1933,7205 Chapman Hwy,Knoxville,TENNESSEE,UNITED STATES,"[-83.85227, 35.909595]"
1936,140 W Clayton St,Athens,GEORGIA,UNITED STATES,"[-83.377433, 33.958151]"
1934,1326 Veterans Pkwy,Columbus,GEORGIA,UNITED STATES,"[-84.987102, 32.47179]"
1935,559 Behrman Hwy,Terrytown,LOUISIANA,UNITED STATES,"[-90.018368, 29.903516]"
1937,1307B University Blvd,Tuscaloosa,ALABAMA,UNITED STATES,"[-87.554925, 33.210686]"
1938,4800 Portsmouth Blvd,Chesapeake,VIRGINIA,UNITED STATES,"[-76.439947, 36.817715]"
1940,551 Pamplico Hwy,Florence,SOUTH CAROLINA,UNITED STATES,"[-79.758073, 34.162872]"
1939,1801 4th Ave S,Birmingham,ALABAMA,UNITED STATES,"[-86.804561, 33.507599]"
1941,8624 Dallas Acworth Hwy,Dallas,GEORGIA,UNITED STATES,"[-84.755723, 34.00886]"
1944,8711 Highway 69 S,Tuscaloosa,ALABAMA,UNITED STATES,"[-87.54859, 33.127273]"
1942,115 Westchester Dr,High Point,NORTH CAROLINA,UNITED STATES,"[-80.024779, 35.982382]"
1945,236 E Main St,Apopka,FLORIDA,UNITED STATES,"[-81.506603, 28.672685]"
1943,2020 Flat Shoals Rd SE,Conyers,GEORGIA,UNITED STATES,"[-83.97578, 33.630808]"
1947,17609 FM 529 Rd,Houston,TEXAS,UNITED STATES,"[-95.677394, 29.878597]"
1946,1712 N High St,Columbus,OHIO,UNITED STATES,"[-83.007438, 39.997342]"
1948,3030 Airport Blvd,Mobile,ALABAMA,UNITED STATES,"[-88.113742, 30.676361]"
1949,5060 Hwy 70 W,Morehead City,NORTH CAROLINA,UNITED STATES,"[-76.798843, 34.73649]"
1951,1010 Highway 28 Byp,Anderson,SOUTH CAROLINA,UNITED STATES,"[-82.681899, 34.499715]"
1952,606 Coulter Dr,New Albany,MISSISSIPPI,UNITED STATES,"[-89.029748, 34.496742]"
1953,22913 Panama City Parkway,Panama City Beach,FL,UNITED STATES,"[-85.972867, 30.264312]"
1954,9221 E US Highway 36,Avon,INDIANA,UNITED STATES,"[-86.357152, 39.763351]"
1955,2290 Asheville Hwy,Brevard,NORTH CAROLINA,UNITED STATES,"[-82.707084, 35.271073]"
1956,1635 Hughes Rd,Madison,ALABAMA,UNITED STATES,"[-86.740875, 34.751828]"
1957,5013 Charlotte Hwy,Clover,SOUTH CAROLINA,UNITED STATES,"[-81.077342, 35.117118]"
1958,916 Harden St,Columbia,SOUTH CAROLINA,UNITED STATES,"[-81.0171, 34.00243]"
1959,610 N Main St,Blacksburg,VIRGINIA,UNITED STATES,"[-80.418313, 37.233455]"
1960,710 Highway 19 N,Meridian,MISSISSIPPI,UNITED STATES,"[-88.728456, 32.36337]"
1961,2208 Center Point Pkwy,Center Point,ALABAMA,UNITED STATES,"[-86.68406, 33.642611]"
1963,90 Oaktree Blvd,Christiansburg,VIRGINIA,UNITED STATES,"[-80.416027, 37.148602]"
1962,10401 Atlantic Blvd,Jacksonville,FLORIDA,UNITED STATES,"[-81.530077, 30.323693]"
1964,675 Wilson St,Wetumpka,ALABAMA,UNITED STATES,"[-86.204599, 32.52895]"
1965,722 S Gloster St,Tupelo,MISSISSIPPI,UNITED STATES,"[-88.716926, 34.24518]"
1967,10380 Springfield Pike,Cincinnati,OHIO,UNITED STATES,"[-84.469285, 39.257429]"
1966,10245 Highway 142 N,Covington,GEORGIA,UNITED STATES,"[-83.828731, 33.607435]"
1968,9464 Highway 5,Douglasville,GEORGIA,UNITED STATES,"[-84.761764, 33.725705]"
1969,78 W Wind River Rd,Atmore,ALABAMA,UNITED STATES,"[-87.47734, 31.107221]"
1970,931 9th Ave N,Bessemer,ALABAMA,UNITED STATES,"[-86.968653, 33.396336]"
1972,100 Getty Ln,Winchester,VIRGINIA,UNITED STATES,"[-78.130895, 39.186839]"
1971,103 Talbot Dr,Hephzibah,GEORGIA,UNITED STATES,"[-82.074523, 33.377702]"
1974,1245 US Highway 321 NW,Hickory,NORTH CAROLINA,UNITED STATES,"[-81.368726, 35.749238]"
1975,116 High Tide Dr,Beaufort,SOUTH CAROLINA,UNITED STATES,"[-80.72766, 32.379827]"
1977,455 S Pleasantburg Dr,Greenville,SOUTH CAROLINA,UNITED STATES,"[-82.368924, 34.831897]"
1979,1074 E Eads Pkwy,Greendale,INDIANA,UNITED STATES,"[-84.849118, 39.121754]"
1980,963 Broadway Dr,Hattiesburg,MISSISSIPPI,UNITED STATES,"[-89.315439, 31.309481]"
1982,18744 US Highway 441,Mount Dora,FLORIDA,UNITED STATES,"[-81.645885, 28.823752]"
1981,30935 Mill Ln,Daphne,ALABAMA,UNITED STATES,"[-87.85265, 30.6742]"
1983,3054 Richlands Hwy,Jacksonville,NORTH CAROLINA,UNITED STATES,"[-77.473381, 34.756151]"
1986,127 E Franklin St,Chapel Hill,NORTH CAROLINA,UNITED STATES,"[-79.054874, 35.913808]"
1984,3509 Retail Dr,Phenix City,ALABAMA,UNITED STATES,"[-85.036422, 32.42462]"
1985,1034 20th St S,Birmingham,ALABAMA,UNITED STATES,"[-86.796568, 33.500712]"
1987,706 7th St W,Tifton,GEORGIA,UNITED STATES,"[-83.523358, 31.45063]"
1989,1309 W Broad St,Richmond,VIRGINIA,UNITED STATES,"[-77.454472, 37.552972]"
1988,1528 Highway 544,Conway,SOUTH CAROLINA,UNITED STATES,"[-79.021107, 33.775474]"
1991,5018 Cambridge Way,Plainfield,INDIANA,UNITED STATES,"[-86.370704, 39.67951]"
1990,10002 Abercorn St,Savannah,GEORGIA,UNITED STATES,"[-81.1292, 31.992122]"
1992,5751 E Virginia Beach Blvd,Norfolk,VIRGINIA,UNITED STATES,"[-76.207574, 36.855282]"
1993,6575 Highway 11 E,Piney Flats,TENNESSEE,UNITED STATES,"[-82.317307, 36.426061]"
1995,772 Dacula Rd,Dacula,GEORGIA,UNITED STATES,"[-83.913382, 34.005476]"
1994,1498 W Elk Ave,Elizabethton,TENNESSEE,UNITED STATES,"[-82.246486, 36.345308]"
1996,135 Andrew Young International Blvd NW,Atlanta,GEORGIA,UNITED STATES,"[-84.391836, 33.759953]"
1997,1207 Baytree Rd,Valdosta,GEORGIA,UNITED STATES,"[-83.305673, 30.846519]"
1999,2940 Elysian Fields Ave,New Orleans,LOUISIANA,UNITED STATES,"[-90.058805, 29.988609]"
1998,5310 Highway 92,Fairburn,GEORGIA,UNITED STATES,"[-84.612248, 33.613511]"
2000,1194 Columbia Dr,Decatur,GEORGIA,UNITED STATES,"[-84.266787, 33.754368]"
2001,2103 Tarboro St SW,Wilson,NORTH CAROLINA,UNITED STATES,"[-77.951721, 35.71941]"
2003,3300 W Park Pl,Pensacola,FLORIDA,UNITED STATES,"[-87.232926, 30.445558]"
2002,7305 Broadway St,Pearland,TEXAS,UNITED STATES,"[-95.332516, 29.559595]"
2004,1585 Simpson Highway 49,Magee,MISSISSIPPI,UNITED STATES,"[-89.747606, 31.870068]"
2005,1607 Tw Alexander Dr,Durham,NORTH CAROLINA,UNITED STATES,"[-78.845245, 35.924122]"
2006,7894 103rd St,Jacksonville,FLORIDA,UNITED STATES,"[-81.778021, 30.247868]"
2008,144 W McMillan St,Cincinnati,OHIO,UNITED STATES,"[-84.517514, 39.127923]"
2007,301 Madison Ave,Montgomery,ALABAMA,UNITED STATES,"[-86.304882, 32.380273]"
2009,496 Herlong Ave S,Rock Hill,SOUTH CAROLINA,UNITED STATES,"[-81.061501, 34.95257]"
2010,1706 N 18th St,Monroe,LOUISIANA,UNITED STATES,"[-92.114796, 32.526135]"
2012,4021 Nolensville Pike,Nashville,TENNESSEE,UNITED STATES,"[-86.727829, 36.083631]"
2011,1010 Vinehaven Dr NE,Concord,NORTH CAROLINA,UNITED STATES,"[-80.58512, 35.461041]"
2013,4152 Bemiss Rd,Valdosta,GEORGIA,UNITED STATES,"[-83.259411, 30.914044]"
2014,206 State Road 436,Casselberry,FLORIDA,UNITED STATES,"[-81.33631, 28.658301]"
2015,1055 Georgia Hwy 96,Warner Robins,GA,UNITED STATES,"[-83.689204, 32.5529]"
2017,471 Independence Blvd,Hardeeville,SOUTH CAROLINA,UNITED STATES,"[-81.056304, 32.312974]"
2019,10 Braeburn Dr,Anderson,SOUTH CAROLINA,UNITED STATES,"[-82.63399, 34.531357]"
2180,1733 N Church St,Burlington,NORTH CAROLINA,UNITED STATES,"[-79.4084, 36.0955]"
2188,3919 Electric Rd,Roanoke,VIRGINIA,UNITED STATES,"[-79.9864, 37.2234]"
2190,4928 DELHI PIKE,Cincinnati,OHIO,UNITED STATES,"[-84.6066, 39.0956]"
2183,1521 Lynnhaven Pkwy,Virginia Beach,VIRGINIA,UNITED STATES,"[-76.100642, 36.795955]"
2169,790 Bell Rd,Antioch,TENNESSEE,UNITED STATES,"[-86.6454, 36.0517]"
2195,1139 York St,Aiken,SOUTH CAROLINA,UNITED STATES,"[-81.7031, 33.5778]"
2189,1901 Hamilton Rd,Lagrange,GEORGIA,UNITED STATES,"[-85.0161, 33.0044]"
2197,1208 Wilson Rd,Humble,TEXAS,UNITED STATES,"[-95.25, 29.9828]"
2175,1935 Braselton Hwy,Buford,GEORGIA,UNITED STATES,"[-83.953143, 34.035697]"
2186,14005 Highway 43,Russellville,ALABAMA,UNITED STATES,"[-87.7228, 34.4971]"
2196,2500 Canal St,New Orleans,LOUISIANA,UNITED STATES,"[-90.084, 29.9637]"
2194,3818 W Illinois Ave,Dallas,TEXAS,UNITED STATES,"[-96.882359, 32.72036]"
2187,2118 US Highway 411 S,Maryville,TENNESSEE,UNITED STATES,"[-84.0061, 35.7212]"
2202,5996 Lawrenceville Hwy,Tucker,GEORGIA,UNITED STATES,"[-84.1727, 33.874]"
2204,246 Davis Rd,Augusta,GEORGIA,UNITED STATES,"[-82.081898, 33.500618]"
2211,4959 Moffett Rd,Mobile,ALABAMA,UNITED STATES,"[-88.156655, 30.719941]"
2200,2316 S Cobb Dr SE,Smyrna,GEORGIA,UNITED STATES,"[-84.53985, 33.89654]"
2203,1663A Taylor Rd,Port Orange,FLORIDA,UNITED STATES,"[-81.028756, 29.106157]"
2212,429 E Taylor St,Griffin,GEORGIA,UNITED STATES,"[-84.2575, 33.2474]"
2207,1803 Thorn Rd,Lake Charles,LOUISIANA,UNITED STATES,"[-93.249728, 30.186933]"
2208,950 E Cartwright Rd,Mesquite,TEXAS,UNITED STATES,"[-96.582406, 32.745036]"
2217,3616 Airline Dr,Metairie,LOUISIANA,UNITED STATES,"[-90.162241, 29.974879]"
2198,108 Travel Center Blvd,Dublin,GEORGIA,UNITED STATES,"[-82.939515, 32.487791]"
2210,2100 N Roxboro St,Durham,NORTH CAROLINA,UNITED STATES,"[-78.89019, 36.01778]"
2199,2121 Del Prado Blvd S,Cape Coral,FLORIDA,UNITED STATES,"[-81.9409, 26.6209]"
2221,1507 Fayetteville Rd,Van Buren,ARKANSAS,UNITED STATES,"[-94.357, 35.457]"
2232,300 Ag Village Blvd,Perry,GEORGIA,UNITED STATES,"[-83.75812, 32.433401]"
2231,4630 Williamson Rd NW,Roanoke,VIRGINIA,UNITED STATES,"[-79.953782, 37.314415]"
2216,3009 W Columbus Dr,Tampa,FLORIDA,UNITED STATES,"[-82.492, 27.967]"
2224,300 Marietta St NW,Atlanta,GEORGIA,UNITED STATES,"[-84.39644, 33.76174]"
2235,1780 J.A. Cochran By-Pass,Chester,SC,UNITED STATES,"[-81.1905, 34.70488]"
2230,11 Sams Point Rd,Beaufort,SOUTH CAROLINA,UNITED STATES,"[-80.649563, 32.414794]"
2228,1205 Highway 45 N,Columbus,MISSISSIPPI,UNITED STATES,"[-88.43328, 33.507504]"
2239,1515 N Brindlee Mountain Pkwy,Arab,ALABAMA,UNITED STATES,"[-86.50321, 34.338638]"
2223,629 New Franklin Rd,Lagrange,GEORGIA,UNITED STATES,"[-85.02892, 33.055173]"
67,110 Umbarger Lane,Franklin,IN,UNITED STATES,"[-86.018234, 39.48275]"
2219,3740 S Nova Rd,Port Orange,FLORIDA,UNITED STATES,"[-81.00519, 29.127639]"
2238,1931 Madison St,Clarksville,TENNESSEE,UNITED STATES,"[-87.312944, 36.513914]"
2214,1535 Ingleside Rd,Norfolk,VIRGINIA,UNITED STATES,"[-76.244171, 36.863146]"
2245,203 Carl Cannon Blvd,Jasper,ALABAMA,UNITED STATES,"[-87.243346, 33.792865]"
2229,760 Pinson Rd,Forney,TEXAS,UNITED STATES,"[-96.466173, 32.757535]"
2227,8950 Madison Blvd,Madison,ALABAMA,UNITED STATES,"[-86.753203, 34.676411]"
2234,455 Bethesda School Rd,Lawrenceville,GEORGIA,UNITED STATES,"[-84.0846, 33.92287]"
2236,317 S Jefferson St,Frederick,MARYLAND,UNITED STATES,"[-77.427376, 39.408759]"
2243,7505 Highway 76,Pendleton,SOUTH CAROLINA,UNITED STATES,"[-82.784095, 34.634135]"
2244,175 S Dowlen Rd,Beaumont,TEXAS,UNITED STATES,"[-94.171853, 30.073389]"
2246,1100 E Pioneer Pkwy,Grand Prairie,TEXAS,UNITED STATES,"[-96.991858, 32.709286]"
2248,304 Red Bank Rd,Goose Creek,SOUTH CAROLINA,UNITED STATES,"[-80.030081, 32.979557]"
2225,6420 Iron Bridge Rd,North Chesterfield,VIRGINIA,UNITED STATES,"[-77.494051, 37.428788]"
2252,3585 Braselton Hwy,Dacula,GEORGIA,UNITED STATES,"[-83.9072, 34.0688]"
2251,219 S Thompson St,Springdale,ARKANSAS,UNITED STATES,"[-94.138, 36.183]"
2242,2312 S Florida Ave,Lakeland,FLORIDA,UNITED STATES,"[-81.956778, 28.016342]"
2261,2510 Sunset Point Rd,Clearwater,FLORIDA,UNITED STATES,"[-82.733, 27.991]"
1112,172 Weaver Blvd,Weaverville,NORTH CAROLINA,UNITED STATES,"[-82.5708, 35.703772]"
178,3651 Airport Blvd,Mobile,ALABAMA,UNITED STATES,"[-88.13116, 30.67524]"
2037,1736 N State St,Greenfield,INDIANA,UNITED STATES,"[-85.770474, 39.809132]"
2209,860 Glenwood Ave SE,Atlanta,GEORGIA,UNITED STATES,"[-84.3609, 33.7405]"
2201,3202 E Parham Rd,Henrico,VIRGINIA,UNITED STATES,"[-77.507229, 37.633316]"
2184,2560 Sugar Hill Rd,Marion,NORTH CAROLINA,UNITED STATES,"[-82.031878, 35.65225]"
2191,2400 Cortez Rd W,Bradenton,FLORIDA,UNITED STATES,"[-82.585861, 27.462781]"
2192,4642 Del Prado Blvd S,Cape Coral,FLORIDA,UNITED STATES,"[-81.9441, 26.5649]"
2215,1928 S Church St,Murfreesboro,TENNESSEE,UNITED STATES,"[-86.396186, 35.81918]"
2193,1908 N Main St,Summerville,SOUTH CAROLINA,UNITED STATES,"[-80.121129, 33.044113]"
2220,3400 Olympia Dr,Raleigh,NORTH CAROLINA,UNITED STATES,"[-78.651477, 35.734055]"
2222,2715 Ledo Rd,Albany,GEORGIA,UNITED STATES,"[-84.2062, 31.6229]"
2213,9780 Highway 64,Lakeland,TENNESSEE,UNITED STATES,"[-89.736781, 35.20559]"
2233,1506 Farmerville Hwy,Ruston,LOUISIANA,UNITED STATES,"[-92.618537, 32.537902]"
2240,150 Able Dr,Dayton,TENNESSEE,UNITED STATES,"[-85.029085, 35.475254]"
2206,2439 Williams Blvd,Kenner,LOUISIANA,UNITED STATES,"[-90.241152, 30.0087]"
2237,612 Lyndon Ln,Louisville,KENTUCKY,UNITED STATES,"[-85.604075, 38.258822]"
1697,375 N Highway 67 St,Florissant,MISSOURI,UNITED STATES,"[-90.33899162, 38.79666294]"
2218,4406 N Roxboro St,Durham,NORTH CAROLINA,UNITED STATES,"[-78.90344, 36.05443]"
2182,2816 Chamblee Tucker Rd,Atlanta,GEORGIA,UNITED STATES,"[-84.274, 33.8802]"
2247,14416 Greenwell Springs Rd,Greenwell Springs,LOUISIANA,UNITED STATES,"[-91.027932, 30.513795]"
2205,1014 Regent Pkwy,Fort Mill,SOUTH CAROLINA,UNITED STATES,"[-80.934787, 35.076867]"
2166,1099 Northside Dr NW,Atlanta,GEORGIA,UNITED STATES,"[-84.4071, 33.7844]"
2257,1130 N Ferdon Blvd,Crestview,FLORIDA,UNITED STATES,"[-86.5603, 30.78384]"
2268,889 1st Ave,Meridian,MISSISSIPPI,UNITED STATES,"[-88.675776, 32.365341]"
2255,5709 Glenway Ave,Cincinnati,OHIO,UNITED STATES,"[-84.612334, 39.134783]"
2263,3707 S New Hope Rd,Gastonia,NORTH CAROLINA,UNITED STATES,"[-81.101987, 35.221746]"
2266,2401 Helena Rd,Helena,ALABAMA,UNITED STATES,"[-86.854368, 33.283261]"
2254,348 SW Baya Dr,Lake City,FLORIDA,UNITED STATES,"[-82.639335, 30.183492]"
2265,2516 Nimmo Pkwy,Virginia Beach,VIRGINIA,UNITED STATES,"[-76.061164, 36.756215]"
2269,2137 Wards Rd,Lynchburg,VIRGINIA,UNITED STATES,"[-79.184532, 37.372021]"
2258,7125 Winchester Rd,Memphis,TENNESSEE,UNITED STATES,"[-89.828796, 35.04948]"
2267,3571 Murfreesboro Pike,Antioch,TENNESSEE,UNITED STATES,"[-86.615689, 36.051874]"
2260,635 Rankin Rd,Houston,TEXAS,UNITED STATES,"[-95.411852, 29.966179]"
2276,52 Westbank Expy,Gretna,LOUISIANA,UNITED STATES,"[-90.046212, 29.915312]"
2275,1718 S Missouri Ave,Clearwater,FLORIDA,UNITED STATES,"[-82.787, 27.934]"
2270,2751 Florida St,Mandeville,LOUISIANA,UNITED STATES,"[-90.073113, 30.37019]"
2262,1540 South Campus Dr,Creedmoor,NORTH CAROLINA,UNITED STATES,"[-78.719497, 36.14261]"
2271,13861 Cypress North,Cypress,TX,UNITED STATES,"[-95.629084, 29.947421]"
2277,1571 Covington Bypass Rd,Porterdale,GA,UNITED STATES,"[-83.9019, 33.56531]"
2281,1961 W Main St,Salem,VIRGINIA,UNITED STATES,"[-80.091552, 37.288422]"
2259,255 N Front St,Wilmington,NORTH CAROLINA,UNITED STATES,"[-77.949231, 34.237534]"
2273,5020 State Hwy 78,Sachse,TX,UNITED STATES,"[-96.60637, 32.968131]"
2274,3200 S Atlantic Ave,Daytona Beach,FLORIDA,UNITED STATES,"[-80.969088, 29.151235]"
2279,2535 John Hawkins Pkwy,Hoover,ALABAMA,UNITED STATES,"[-86.843386, 33.354666]"
2272,1480 Jonesboro Rd,McDonough,GEORGIA,UNITED STATES,"[-84.206, 33.462175]"
2285,911 Airline Blvd,Portsmouth,VIRGINIA,UNITED STATES,"[-76.342464, 36.830187]"
2287,5491 N Rhett Ave,North Charleston,SOUTH CAROLINA,UNITED STATES,"[-79.985822, 32.898412]"
WH_Museum,2719 E College Ave,Decatur,GEORGIA,UNITED STATES,"[-84.2784568595722, 33.7746281296978]"
2280,85 Parkstone Pl,Jackson,TENNESSEE,UNITED STATES,"[-88.780694, 35.674914]"
2290,1427 US Highway 98,Daphne,ALABAMA,UNITED STATES,"[-87.898899, 30.598605]"
2284,6025 Watson Blvd,Byron,GEORGIA,UNITED STATES,"[-83.71487, 32.614092]"
2288,1405 University Dr,Burlington,NORTH CAROLINA,UNITED STATES,"[-79.523611, 36.07101]"
2293,14618 Plank Rd,Baker,LOUISIANA,UNITED STATES,"[-91.127792, 30.580582]"
2282,2107 Lascassas Pike,Murfreesboro,TENNESSEE,UNITED STATES,"[-86.352681, 35.875097]"
2292,221 W Esplanade Ave,Kenner,LOUISIANA,UNITED STATES,"[-90.271372, 30.023002]"
2226,19675 NW 2nd Ave,Miami Gardens,FLORIDA,UNITED STATES,"[-80.205641, 25.955672]"
2256,11825 San Jose Blvd,Jacksonville,FLORIDA,UNITED STATES,"[-81.632, 30.157]"
2278,832 Liberty Hill Dr,Evergreen,ALABAMA,UNITED STATES,"[-86.961821, 31.454352]"
2289,3855 Concord Pkwy S,Concord,NORTH CAROLINA,UNITED STATES,"[-80.666906, 35.366769]"
2296,6000 S Independence Ave,Oklahoma City,OKLAHOMA,UNITED STATES,"[-97.56596, 35.406447]"
2297,4625 Highway 411,Madisonville,TENNESSEE,UNITED STATES,"[-84.364334, 35.511474]"
2291,329 Seabreeze Blvd,Daytona Beach,FLORIDA,UNITED STATES,"[-81.01622, 29.23453]"
2295,11879 Highway 231,Meridianville,AL,UNITED STATES,"[-86.57177, 34.855504]"
2308,5010 Highway 34 E,Sharpsburg,GEORGIA,UNITED STATES,"[-84.625908, 33.399829]"
2306,117 George Washington,Chesapeake,VA,UNITED STATES,"[-76.344303, 36.740862]"
2302,195 Eagles Landing Pkwy,Stockbridge,GEORGIA,UNITED STATES,"[-84.192634, 33.517948]"
2309,103 Keyes Ferry Rd,Charles Town,WEST VIRGINIA,UNITED STATES,"[-77.83421, 39.296024]"
2303,45 Civilian St,Fredericksburg,VIRGINIA,UNITED STATES,"[-77.518985, 38.359332]"
2299,1134 Winchester Rd,Lexington,KENTUCKY,UNITED STATES,"[-84.45238, 38.042061]"
2307,2928 London Groveport Rd,Grove City,OHIO,UNITED STATES,"[-83.08319, 39.840191]"
2305,1627 Walton Way,Augusta,GEORGIA,UNITED STATES,"[-81.993971, 33.475816]"
2298,6320 West Rd,Houston,TEXAS,UNITED STATES,"[-95.481102, 29.913294]"
2294,12201 US Highway 19,Hudson,FLORIDA,UNITED STATES,"[-82.699, 28.334]"
2300,8604 Roswell Rd,Sandy Springs,GEORGIA,UNITED STATES,"[-84.352035, 33.989889]"
2283,3048 Mallory Ln,Franklin,TENNESSEE,UNITED STATES,"[-86.819468, 35.945115]"
2317,15550 George Oneal Rd,Baton Rouge,LOUISIANA,UNITED STATES,"[-91.009638, 30.407864]"
2312,1530 N Broadway Ave,Bartow,FLORIDA,UNITED STATES,"[-81.8428, 27.9096]"
2241,637 Alta Mere Dr,Fort Worth,TEXAS,UNITED STATES,"[-97.432405, 32.751007]"
2311,3416 US Highway 601 S,Concord,NORTH CAROLINA,UNITED STATES,"[-80.550628, 35.37077]"
2304,7440 Hacks Cross Rd,Olive Branch,MISSISSIPPI,UNITED STATES,"[-89.794544, 34.969441]"
2319,1400 Lee Rd,Lithia Springs,GEORGIA,UNITED STATES,"[-84.6509, 33.7672]"
2315,4737 Redan Road,Stone Mountain,GA,UNITED STATES,"[-84.198238, 33.761865]"
2310,30 Eddie Rushing Dr,Statesboro,GEORGIA,UNITED STATES,"[-81.77475, 32.406629]"
2313,3885 Gerstner Memorial Blvd,Lake Charles,LOUISIANA,UNITED STATES,"[-93.179716, 30.187104]"
2324,3458 US Route 60 E,Barboursville,WEST VIRGINIA,UNITED STATES,"[-82.26043, 38.41445]"
2323,960 E Centerton Blvd,Centerton,AR,UNITED STATES,"[-94.26324, 36.357649]"
2286,8512 Steele Creek Rd,Charlotte,NORTH CAROLINA,UNITED STATES,"[-80.961244, 35.171607]"
2320,13143 Kingston Ave,Chester,VIRGINIA,UNITED STATES,"[-77.341745, 37.346598]"
442,2363 College Dr,Baton Rouge,LOUISIANA,UNITED STATES,"[-91.136962, 30.426663]"
2322,17678 Forest Rd,Forest,VIRGINIA,UNITED STATES,"[-79.249072, 37.375813]"
2332,5440 Bowman Rd,Macon,GEORGIA,UNITED STATES,"[-83.733645, 32.926013]"
2325,11925 NC Highway 210,Benson,NORTH CAROLINA,UNITED STATES,"[-78.5536, 35.51542]"
2327,11121 Fremont Pike,Perrysburg,OH,UNITED STATES,"[-83.605667, 41.550702]"
2301,1537 Blanding Blvd,Middleburg,FLORIDA,UNITED STATES,"[-81.811, 30.115]"
2318,1120 N Woodland Blvd,Deland,FLORIDA,UNITED STATES,"[-81.304275, 29.047148]"
2330,1478 Newnan Crossing Blvd E,Newnan,GEORGIA,UNITED STATES,"[-84.75484, 33.377075]"
2339,844 N Canal Blvd,Thibodaux,LOUISIANA,UNITED STATES,"[-90.814378, 29.816074]"
2321,33190 S Dixie Hwy,Florida City,FLORIDA,UNITED STATES,"[-80.475629, 25.460053]"
2326,1622 Joe B Jackson Pkwy,Murfreesboro,TENNESSEE,UNITED STATES,"[-86.36335372924805, 35.782057554783094]"
2314,618 Beach Blvd,Biloxi,MISSISSIPPI,UNITED STATES,"[-88.88298, 30.393349]"
2329,8310 Wilsky Blvd.,Tampa,FL,UNITED STATES,"[-82.566752, 28.026354]"
2343,1922 W Airline Hwy,La Place,LOUISIANA,UNITED STATES,"[-90.505217, 30.07422]"
2338,4330 Legion Rd,Hope Mills,NORTH CAROLINA,UNITED STATES,"[-78.932235, 34.983063]"
2336,10910 Woodland Beaver Rd,Charlotte,NORTH CAROLINA,UNITED STATES,"[-80.630998, 35.223878]"
2341,1721 W Walnut St,Rogers,ARKANSAS,UNITED STATES,"[-94.141987, 36.334218]"
2333,2729 State Road 16,St Augustine,FLORIDA,UNITED STATES,"[-81.41769981059423, 29.92149077708089]"
2335,12304 Dessau Rd,Austin,TEXAS,UNITED STATES,"[-97.648557, 30.38714]"
2340,6407 Johnston St,Lafayette,LOUISIANA,UNITED STATES,"[-92.08832, 30.15591]"
2334,1510 Thompson Bridge Rd,Gainesville,GEORGIA,UNITED STATES,"[-83.8333, 34.3227]"
2337,16290 US Highway 331 S,Freeport,FLORIDA,UNITED STATES,"[-86.121281, 30.491169]"
2328,1901 S State Highway 121,Lewisville,TEXAS,UNITED STATES,"[-96.993484, 33.016766]"
2346,1966 Eagle Dr,Woodstock,GEORGIA,UNITED STATES,"[-84.571, 34.1131]"
2344,336 W Lake Mary Blvd,Sanford,FLORIDA,UNITED STATES,"[-81.289, 28.758]"
2348,4810 George Washington Hwy,Portsmouth,VIRGINIA,UNITED STATES,"[-76.3267, 36.7971]"
2342,4420 Louetta Rd,Spring,TEXAS,UNITED STATES,"[-95.48187, 30.044411]"
2349,10635 Saint Charles Rock Rd,Saint Ann,MISSOURI,UNITED STATES,"[-90.3881, 38.7318]"
2331,100 N Kings Hwy,Myrtle Beach,SOUTH CAROLINA,UNITED STATES,"[-78.889973, 33.686146]"
637,1148 Highway 20 81,McDonough,GEORGIA,UNITED STATES,"[-84.18054, 33.42918]"
1600,2255 Panola Rd,Lithonia,GEORGIA,UNITED STATES,"[-84.1672, 33.72375]"
2356,2951 S US Highway 287,Corsicana,TEXAS,UNITED STATES,"[-96.442984, 32.071476]"
2350,6308 International Dr,Orlando,FLORIDA,UNITED STATES,"[-81.467, 28.461]"
2357,3010 Russell Pkwy,Warner Robins,GEORGIA,UNITED STATES,"[-83.6959, 32.581922]"
2345,2697 Highway 52,Moncks Corner,SOUTH CAROLINA,UNITED STATES,"[-80.0312, 33.0965]"
2354,2223 Union Rd,Gastonia,NORTH CAROLINA,UNITED STATES,"[-81.169, 35.231]"
2355,17837 State Highway 285 Dr S,Defuniak Springs,FLORIDA,UNITED STATES,"[-86.349591, 30.735219]"
2353,275 Pinnacle Pkwy,Bristol,TENNESSEE,UNITED STATES,"[-82.265, 36.5902]"
2362,1425 Brown Trl,Bedford,TEXAS,UNITED STATES,"[-97.160639, 32.83814]"
2368,50 Bauer Rd.,Pensacola,FL,UNITED STATES,"[-87.400484, 30.396464]"
2376,612 Jefferson Hwy,Jefferson,LOUISIANA,UNITED STATES,"[-90.13722, 29.964992]"
695,121 Waterfront Way,Dalton,GEORGIA,UNITED STATES,"[-85.00068, 34.68877]"
2358,111 Hector Connoly Rd,Carencro,LOUISIANA,UNITED STATES,"[-92.031856, 30.323025]"
2347,3407 Orange Ave NE,Roanoke,VIRGINIA,UNITED STATES,"[-79.8927, 37.3017]"
2359,870 Eastgate North Dr,Cincinnati,OHIO,UNITED STATES,"[-84.2636, 39.096833]"
2360,1080 State Route 28,Milford,OHIO,UNITED STATES,"[-84.235114, 39.196408]"
2363,3815 Old Port Royal Rd N,Spring Hill,TENNESSEE,UNITED STATES,"[-86.894112, 35.739722]"
2351,4005 W Eau Gaillie Blvd,Melbourne,FL,UNITED STATES,"[-80.6909, 28.1226]"
2352,1385 Grand Venture Dr.,North Port,FL,UNITED STATES,"[-82.2085, 27.0723]"
2370,2800 W Mercury Blvd,Hampton,VIRGINIA,UNITED STATES,"[-76.414825, 37.0344562]"
2380,855 S. Staring Lane,Baton Rouge,LA,UNITED STATES,"[-91.126547, 30.362177]"
2378,168 Vince Merolla Drive,Canton,GA,UNITED STATES,"[-84.5476633, 34.1713467]"
2366,9041 New Kings Rd.,Jacksonville,FL,UNITED STATES,"[-81.747, 30.415]"
2384,1209 S. Hwy 74,Peachtree City,GA,UNITED STATES,"[-84.534748, 33.341166]"
2361,510 Gallimore Dairy Rd.,Greensboro,NC,UNITED STATES,"[-79.958985, 36.065152]"
